<?xml version="1.0" encoding="UTF-8"?>
<!-- Created with BasicAirData GPS Logger for Android - ver. 3.2.3 -->
<!-- Track 2260 = 155 TrackPoints + 0 Placemarks -->

<!-- Track Statistics (based on Total Time | Time in Movement): -->
<!--  Distance = 1.15 km -->
<!--  Duration = 02:34 | 02:31 -->
<!--  Altitude Gap = 2 m -->
<!--  Max Speed = 37 km/h -->
<!--  Avg Speed = 27.1 | 27.6 km/h -->
<!--  Direction = NW -->
<!--  Activity = cycling -->
<!--  Altitudes = Raw -->

<gpx version="1.0"
     creator="BasicAirData GPS Logger 3.2.3"
     xmlns="http://www.topografix.com/GPX/1/0"
     xmlns:xsi="http://www.w3.org/2001/XMLSchema-instance"
     xsi:schemaLocation="http://www.topografix.com/GPX/1/0 http://www.topografix.com/GPX/1/0/gpx.xsd">
<name>GPS Logger 20250904-111139</name>
<desc>L1</desc>
<time>2025-09-04T07:10:47Z</time>
<keywords>cycling</keywords>
<bounds minlat="30.69280000" minlon="76.75564667" maxlat="30.70082000" maxlon="76.76305000" />

<trk>
 <name>Track 20250904-111139</name>
 <trkseg>
  <trkpt lat="30.69280000" lon="76.76305000"><ele>273.700</ele><time>2025-09-04T05:41:39Z</time><speed>0.000</speed><sat>36</sat></trkpt>
  <trkpt lat="30.69280000" lon="76.76305000"><ele>273.700</ele><time>2025-09-04T05:41:40Z</time><speed>0.000</speed><sat>37</sat></trkpt>
  <trkpt lat="30.69280000" lon="76.76305000"><ele>273.700</ele><time>2025-09-04T05:41:41Z</time><speed>0.000</speed><sat>39</sat></trkpt>
  <trkpt lat="30.69285167" lon="76.76301167"><ele>273.800</ele><time>2025-09-04T05:41:42Z</time><speed>2.253</speed><sat>39</sat></trkpt>
  <trkpt lat="30.69287500" lon="76.76300000"><ele>273.600</ele><time>2025-09-04T05:41:43Z</time><speed>3.300</speed><sat>38</sat></trkpt>
  <trkpt lat="30.69290167" lon="76.76298333"><ele>273.000</ele><time>2025-09-04T05:41:44Z</time><speed>3.695</speed><sat>37</sat></trkpt>
  <trkpt lat="30.69292667" lon="76.76297167"><ele>272.000</ele><time>2025-09-04T05:41:45Z</time><speed>4.321</speed><sat>39</sat></trkpt>
  <trkpt lat="30.69296333" lon="76.76295000"><ele>271.600</ele><time>2025-09-04T05:41:46Z</time><speed>4.516</speed><sat>39</sat></trkpt>
  <trkpt lat="30.69299833" lon="76.76292000"><ele>271.700</ele><time>2025-09-04T05:41:47Z</time><speed>5.253</speed><sat>40</sat></trkpt>
  <trkpt lat="30.69303833" lon="76.76288833"><ele>271.600</ele><time>2025-09-04T05:41:48Z</time><speed>5.707</speed><sat>40</sat></trkpt>
  <trkpt lat="30.69307833" lon="76.76284667"><ele>271.500</ele><time>2025-09-04T05:41:49Z</time><speed>5.794</speed><sat>42</sat></trkpt>
  <trkpt lat="30.69312000" lon="76.76280500"><ele>271.300</ele><time>2025-09-04T05:41:50Z</time><speed>5.811</speed><sat>42</sat></trkpt>
  <trkpt lat="30.69316500" lon="76.76276500"><ele>271.600</ele><time>2025-09-04T05:41:51Z</time><speed>5.961</speed><sat>43</sat></trkpt>
  <trkpt lat="30.69320833" lon="76.76272000"><ele>272.000</ele><time>2025-09-04T05:41:52Z</time><speed>6.307</speed><sat>46</sat></trkpt>
  <trkpt lat="30.69325667" lon="76.76267833"><ele>271.900</ele><time>2025-09-04T05:41:53Z</time><speed>6.629</speed><sat>47</sat></trkpt>
  <trkpt lat="30.69330667" lon="76.76263667"><ele>272.300</ele><time>2025-09-04T05:41:54Z</time><speed>7.278</speed><sat>45</sat></trkpt>
  <trkpt lat="30.69336000" lon="76.76258500"><ele>272.700</ele><time>2025-09-04T05:41:55Z</time><speed>7.835</speed><sat>45</sat></trkpt>
  <trkpt lat="30.69341667" lon="76.76253333"><ele>272.900</ele><time>2025-09-04T05:41:56Z</time><speed>7.857</speed><sat>44</sat></trkpt>
  <trkpt lat="30.69347833" lon="76.76248500"><ele>273.400</ele><time>2025-09-04T05:41:57Z</time><speed>8.080</speed><sat>45</sat></trkpt>
  <trkpt lat="30.69353167" lon="76.76243000"><ele>273.700</ele><time>2025-09-04T05:41:58Z</time><speed>8.111</speed><sat>45</sat></trkpt>
  <trkpt lat="30.69359333" lon="76.76237500"><ele>273.800</ele><time>2025-09-04T05:41:59Z</time><speed>8.224</speed><sat>45</sat></trkpt>
  <trkpt lat="30.69365500" lon="76.76232167"><ele>274.000</ele><time>2025-09-04T05:42:00Z</time><speed>8.648</speed><sat>44</sat></trkpt>
  <trkpt lat="30.69371833" lon="76.76226500"><ele>274.500</ele><time>2025-09-04T05:42:01Z</time><speed>8.735</speed><sat>43</sat></trkpt>
  <trkpt lat="30.69377833" lon="76.76221000"><ele>274.300</ele><time>2025-09-04T05:42:02Z</time><speed>8.756</speed><sat>43</sat></trkpt>
  <trkpt lat="30.69383500" lon="76.76214833"><ele>275.300</ele><time>2025-09-04T05:42:03Z</time><speed>8.586</speed><sat>42</sat></trkpt>
  <trkpt lat="30.69389333" lon="76.76209167"><ele>276.100</ele><time>2025-09-04T05:42:04Z</time><speed>8.679</speed><sat>42</sat></trkpt>
  <trkpt lat="30.69395167" lon="76.76203833"><ele>276.100</ele><time>2025-09-04T05:42:05Z</time><speed>8.665</speed><sat>42</sat></trkpt>
  <trkpt lat="30.69401667" lon="76.76197500"><ele>275.700</ele><time>2025-09-04T05:42:06Z</time><speed>8.471</speed><sat>41</sat></trkpt>
  <trkpt lat="30.69408000" lon="76.76191667"><ele>275.700</ele><time>2025-09-04T05:42:07Z</time><speed>8.375</speed><sat>42</sat></trkpt>
  <trkpt lat="30.69414333" lon="76.76185833"><ele>274.600</ele><time>2025-09-04T05:42:08Z</time><speed>8.501</speed><sat>41</sat></trkpt>
  <trkpt lat="30.69420333" lon="76.76179000"><ele>274.100</ele><time>2025-09-04T05:42:09Z</time><speed>8.301</speed><sat>43</sat></trkpt>
  <trkpt lat="30.69426000" lon="76.76173167"><ele>273.500</ele><time>2025-09-04T05:42:10Z</time><speed>8.026</speed><sat>43</sat></trkpt>
  <trkpt lat="30.69431500" lon="76.76167667"><ele>273.400</ele><time>2025-09-04T05:42:11Z</time><speed>7.934</speed><sat>43</sat></trkpt>
  <trkpt lat="30.69437167" lon="76.76161667"><ele>272.700</ele><time>2025-09-04T05:42:12Z</time><speed>7.611</speed><sat>42</sat></trkpt>
  <trkpt lat="30.69440667" lon="76.76156000"><ele>272.100</ele><time>2025-09-04T05:42:13Z</time><speed>6.838</speed><sat>41</sat></trkpt>
  <trkpt lat="30.69444167" lon="76.76150500"><ele>272.000</ele><time>2025-09-04T05:42:14Z</time><speed>6.307</speed><sat>41</sat></trkpt>
  <trkpt lat="30.69447667" lon="76.76144833"><ele>271.900</ele><time>2025-09-04T05:42:15Z</time><speed>6.088</speed><sat>41</sat></trkpt>
  <trkpt lat="30.69450333" lon="76.76140000"><ele>271.000</ele><time>2025-09-04T05:42:16Z</time><speed>6.359</speed><sat>42</sat></trkpt>
  <trkpt lat="30.69453333" lon="76.76133833"><ele>269.900</ele><time>2025-09-04T05:42:17Z</time><speed>6.743</speed><sat>43</sat></trkpt>
  <trkpt lat="30.69456667" lon="76.76127667"><ele>269.700</ele><time>2025-09-04T05:42:18Z</time><speed>7.048</speed><sat>43</sat></trkpt>
  <trkpt lat="30.69460000" lon="76.76121667"><ele>269.700</ele><time>2025-09-04T05:42:19Z</time><speed>6.914</speed><sat>44</sat></trkpt>
  <trkpt lat="30.69462500" lon="76.76115500"><ele>269.300</ele><time>2025-09-04T05:42:20Z</time><speed>6.927</speed><sat>44</sat></trkpt>
  <trkpt lat="30.69465333" lon="76.76109000"><ele>268.900</ele><time>2025-09-04T05:42:21Z</time><speed>6.838</speed><sat>41</sat></trkpt>
  <trkpt lat="30.69468667" lon="76.76102833"><ele>269.400</ele><time>2025-09-04T05:42:22Z</time><speed>6.852</speed><sat>41</sat></trkpt>
  <trkpt lat="30.69472500" lon="76.76096667"><ele>270.500</ele><time>2025-09-04T05:42:23Z</time><speed>6.979</speed><sat>42</sat></trkpt>
  <trkpt lat="30.69477500" lon="76.76091500"><ele>270.300</ele><time>2025-09-04T05:42:24Z</time><speed>6.667</speed><sat>43</sat></trkpt>
  <trkpt lat="30.69482667" lon="76.76087833"><ele>271.200</ele><time>2025-09-04T05:42:25Z</time><speed>6.684</speed><sat>45</sat></trkpt>
  <trkpt lat="30.69488500" lon="76.76085333"><ele>270.600</ele><time>2025-09-04T05:42:26Z</time><speed>6.766</speed><sat>45</sat></trkpt>
  <trkpt lat="30.69495000" lon="76.76083667"><ele>270.300</ele><time>2025-09-04T05:42:27Z</time><speed>6.879</speed><sat>42</sat></trkpt>
  <trkpt lat="30.69501833" lon="76.76082667"><ele>271.100</ele><time>2025-09-04T05:42:28Z</time><speed>6.848</speed><sat>43</sat></trkpt>
  <trkpt lat="30.69508167" lon="76.76081000"><ele>272.000</ele><time>2025-09-04T05:42:29Z</time><speed>6.996</speed><sat>43</sat></trkpt>
  <trkpt lat="30.69514167" lon="76.76079000"><ele>272.900</ele><time>2025-09-04T05:42:30Z</time><speed>6.967</speed><sat>43</sat></trkpt>
  <trkpt lat="30.69519667" lon="76.76077500"><ele>272.600</ele><time>2025-09-04T05:42:31Z</time><speed>6.544</speed><sat>44</sat></trkpt>
  <trkpt lat="30.69524833" lon="76.76075500"><ele>274.300</ele><time>2025-09-04T05:42:32Z</time><speed>6.571</speed><sat>43</sat></trkpt>
  <trkpt lat="30.69530333" lon="76.76072500"><ele>275.000</ele><time>2025-09-04T05:42:33Z</time><speed>6.941</speed><sat>44</sat></trkpt>
  <trkpt lat="30.69536167" lon="76.76069333"><ele>275.500</ele><time>2025-09-04T05:42:34Z</time><speed>7.244</speed><sat>44</sat></trkpt>
  <trkpt lat="30.69542333" lon="76.76065000"><ele>274.900</ele><time>2025-09-04T05:42:35Z</time><speed>8.104</speed><sat>43</sat></trkpt>
  <trkpt lat="30.69548500" lon="76.76060167"><ele>274.800</ele><time>2025-09-04T05:42:36Z</time><speed>8.143</speed><sat>40</sat></trkpt>
  <trkpt lat="30.69554500" lon="76.76055333"><ele>274.600</ele><time>2025-09-04T05:42:37Z</time><speed>8.570</speed><sat>38</sat></trkpt>
  <trkpt lat="30.69560167" lon="76.76050000"><ele>274.900</ele><time>2025-09-04T05:42:38Z</time><speed>8.734</speed><sat>39</sat></trkpt>
  <trkpt lat="30.69566333" lon="76.76044000"><ele>275.100</ele><time>2025-09-04T05:42:39Z</time><speed>8.757</speed><sat>39</sat></trkpt>
  <trkpt lat="30.69572500" lon="76.76038000"><ele>274.600</ele><time>2025-09-04T05:42:40Z</time><speed>8.726</speed><sat>40</sat></trkpt>
  <trkpt lat="30.69578333" lon="76.76032667"><ele>273.800</ele><time>2025-09-04T05:42:41Z</time><speed>8.884</speed><sat>40</sat></trkpt>
  <trkpt lat="30.69585000" lon="76.76027000"><ele>273.700</ele><time>2025-09-04T05:42:42Z</time><speed>9.447</speed><sat>39</sat></trkpt>
  <trkpt lat="30.69591667" lon="76.76020667"><ele>273.500</ele><time>2025-09-04T05:42:43Z</time><speed>9.472</speed><sat>40</sat></trkpt>
  <trkpt lat="30.69598833" lon="76.76014500"><ele>273.700</ele><time>2025-09-04T05:42:44Z</time><speed>9.461</speed><sat>39</sat></trkpt>
  <trkpt lat="30.69605833" lon="76.76008167"><ele>274.300</ele><time>2025-09-04T05:42:45Z</time><speed>9.720</speed><sat>39</sat></trkpt>
  <trkpt lat="30.69612333" lon="76.76001500"><ele>274.700</ele><time>2025-09-04T05:42:46Z</time><speed>9.920</speed><sat>39</sat></trkpt>
  <trkpt lat="30.69619000" lon="76.75995167"><ele>275.300</ele><time>2025-09-04T05:42:47Z</time><speed>9.943</speed><sat>41</sat></trkpt>
  <trkpt lat="30.69626000" lon="76.75989000"><ele>275.000</ele><time>2025-09-04T05:42:48Z</time><speed>9.837</speed><sat>42</sat></trkpt>
  <trkpt lat="30.69633000" lon="76.75982333"><ele>274.800</ele><time>2025-09-04T05:42:49Z</time><speed>9.851</speed><sat>42</sat></trkpt>
  <trkpt lat="30.69639833" lon="76.75975000"><ele>274.700</ele><time>2025-09-04T05:42:50Z</time><speed>10.106</speed><sat>42</sat></trkpt>
  <trkpt lat="30.69647333" lon="76.75968833"><ele>274.800</ele><time>2025-09-04T05:42:51Z</time><speed>9.960</speed><sat>41</sat></trkpt>
  <trkpt lat="30.69654500" lon="76.75962500"><ele>274.200</ele><time>2025-09-04T05:42:52Z</time><speed>9.668</speed><sat>41</sat></trkpt>
  <trkpt lat="30.69660833" lon="76.75956167"><ele>273.800</ele><time>2025-09-04T05:42:53Z</time><speed>9.760</speed><sat>42</sat></trkpt>
  <trkpt lat="30.69666833" lon="76.75949500"><ele>273.200</ele><time>2025-09-04T05:42:54Z</time><speed>9.734</speed><sat>42</sat></trkpt>
  <trkpt lat="30.69674500" lon="76.75942833"><ele>273.100</ele><time>2025-09-04T05:42:55Z</time><speed>9.623</speed><sat>41</sat></trkpt>
  <trkpt lat="30.69681167" lon="76.75936333"><ele>272.700</ele><time>2025-09-04T05:42:56Z</time><speed>10.031</speed><sat>41</sat></trkpt>
  <trkpt lat="30.69688667" lon="76.75930000"><ele>272.400</ele><time>2025-09-04T05:42:57Z</time><speed>9.590</speed><sat>41</sat></trkpt>
  <trkpt lat="30.69696000" lon="76.75923667"><ele>272.200</ele><time>2025-09-04T05:42:58Z</time><speed>9.797</speed><sat>39</sat></trkpt>
  <trkpt lat="30.69703500" lon="76.75917167"><ele>272.300</ele><time>2025-09-04T05:42:59Z</time><speed>9.769</speed><sat>40</sat></trkpt>
  <trkpt lat="30.69710833" lon="76.75911167"><ele>272.700</ele><time>2025-09-04T05:43:00Z</time><speed>10.154</speed><sat>41</sat></trkpt>
  <trkpt lat="30.69718167" lon="76.75904833"><ele>272.700</ele><time>2025-09-04T05:43:01Z</time><speed>9.553</speed><sat>41</sat></trkpt>
  <trkpt lat="30.69725167" lon="76.75898333"><ele>273.000</ele><time>2025-09-04T05:43:02Z</time><speed>10.023</speed><sat>40</sat></trkpt>
  <trkpt lat="30.69731500" lon="76.75891667"><ele>273.100</ele><time>2025-09-04T05:43:03Z</time><speed>10.190</speed><sat>40</sat></trkpt>
  <trkpt lat="30.69738833" lon="76.75884833"><ele>273.300</ele><time>2025-09-04T05:43:04Z</time><speed>9.786</speed><sat>42</sat></trkpt>
  <trkpt lat="30.69745833" lon="76.75877833"><ele>273.300</ele><time>2025-09-04T05:43:05Z</time><speed>9.603</speed><sat>40</sat></trkpt>
  <trkpt lat="30.69752833" lon="76.75871167"><ele>273.300</ele><time>2025-09-04T05:43:06Z</time><speed>9.863</speed><sat>41</sat></trkpt>
  <trkpt lat="30.69760000" lon="76.75865000"><ele>273.500</ele><time>2025-09-04T05:43:07Z</time><speed>9.749</speed><sat>41</sat></trkpt>
  <trkpt lat="30.69767333" lon="76.75857500"><ele>274.500</ele><time>2025-09-04T05:43:08Z</time><speed>9.839</speed><sat>41</sat></trkpt>
  <trkpt lat="30.69775000" lon="76.75850333"><ele>275.300</ele><time>2025-09-04T05:43:09Z</time><speed>9.424</speed><sat>41</sat></trkpt>
  <trkpt lat="30.69782000" lon="76.75845000"><ele>275.800</ele><time>2025-09-04T05:43:10Z</time><speed>9.799</speed><sat>41</sat></trkpt>
  <trkpt lat="30.69788667" lon="76.75838833"><ele>276.200</ele><time>2025-09-04T05:43:11Z</time><speed>9.607</speed><sat>41</sat></trkpt>
  <trkpt lat="30.69794833" lon="76.75832833"><ele>276.500</ele><time>2025-09-04T05:43:12Z</time><speed>9.420</speed><sat>41</sat></trkpt>
  <trkpt lat="30.69801167" lon="76.75827000"><ele>276.600</ele><time>2025-09-04T05:43:13Z</time><speed>9.384</speed><sat>40</sat></trkpt>
  <trkpt lat="30.69807667" lon="76.75821500"><ele>276.500</ele><time>2025-09-04T05:43:14Z</time><speed>9.054</speed><sat>40</sat></trkpt>
  <trkpt lat="30.69813667" lon="76.75815333"><ele>276.000</ele><time>2025-09-04T05:43:15Z</time><speed>8.600</speed><sat>40</sat></trkpt>
  <trkpt lat="30.69819333" lon="76.75809500"><ele>275.600</ele><time>2025-09-04T05:43:16Z</time><speed>8.731</speed><sat>40</sat></trkpt>
  <trkpt lat="30.69825167" lon="76.75803833"><ele>275.500</ele><time>2025-09-04T05:43:17Z</time><speed>8.879</speed><sat>40</sat></trkpt>
  <trkpt lat="30.69831333" lon="76.75798333"><ele>274.800</ele><time>2025-09-04T05:43:18Z</time><speed>8.508</speed><sat>41</sat></trkpt>
  <trkpt lat="30.69837500" lon="76.75793167"><ele>274.700</ele><time>2025-09-04T05:43:19Z</time><speed>8.181</speed><sat>43</sat></trkpt>
  <trkpt lat="30.69843667" lon="76.75788167"><ele>274.600</ele><time>2025-09-04T05:43:20Z</time><speed>8.156</speed><sat>43</sat></trkpt>
  <trkpt lat="30.69850000" lon="76.75783500"><ele>274.400</ele><time>2025-09-04T05:43:21Z</time><speed>8.058</speed><sat>43</sat></trkpt>
  <trkpt lat="30.69855833" lon="76.75778167"><ele>274.600</ele><time>2025-09-04T05:43:22Z</time><speed>8.177</speed><sat>43</sat></trkpt>
  <trkpt lat="30.69862167" lon="76.75773000"><ele>274.300</ele><time>2025-09-04T05:43:23Z</time><speed>7.889</speed><sat>44</sat></trkpt>
  <trkpt lat="30.69868500" lon="76.75767833"><ele>274.800</ele><time>2025-09-04T05:43:24Z</time><speed>8.114</speed><sat>44</sat></trkpt>
  <trkpt lat="30.69874667" lon="76.75762500"><ele>275.900</ele><time>2025-09-04T05:43:25Z</time><speed>7.859</speed><sat>44</sat></trkpt>
  <trkpt lat="30.69879500" lon="76.75757667"><ele>277.200</ele><time>2025-09-04T05:43:26Z</time><speed>7.542</speed><sat>44</sat></trkpt>
  <trkpt lat="30.69884667" lon="76.75753000"><ele>277.400</ele><time>2025-09-04T05:43:27Z</time><speed>7.537</speed><sat>44</sat></trkpt>
  <trkpt lat="30.69889667" lon="76.75747667"><ele>277.500</ele><time>2025-09-04T05:43:28Z</time><speed>7.282</speed><sat>44</sat></trkpt>
  <trkpt lat="30.69894500" lon="76.75742500"><ele>277.700</ele><time>2025-09-04T05:43:29Z</time><speed>6.911</speed><sat>45</sat></trkpt>
  <trkpt lat="30.69899833" lon="76.75737500"><ele>278.400</ele><time>2025-09-04T05:43:30Z</time><speed>6.916</speed><sat>45</sat></trkpt>
  <trkpt lat="30.69904833" lon="76.75733167"><ele>278.200</ele><time>2025-09-04T05:43:31Z</time><speed>6.610</speed><sat>44</sat></trkpt>
  <trkpt lat="30.69909500" lon="76.75729000"><ele>277.800</ele><time>2025-09-04T05:43:32Z</time><speed>6.803</speed><sat>44</sat></trkpt>
  <trkpt lat="30.69914667" lon="76.75724833"><ele>277.400</ele><time>2025-09-04T05:43:33Z</time><speed>7.130</speed><sat>45</sat></trkpt>
  <trkpt lat="30.69920000" lon="76.75720167"><ele>277.200</ele><time>2025-09-04T05:43:34Z</time><speed>7.605</speed><sat>45</sat></trkpt>
  <trkpt lat="30.69925500" lon="76.75715500"><ele>276.400</ele><time>2025-09-04T05:43:35Z</time><speed>7.455</speed><sat>45</sat></trkpt>
  <trkpt lat="30.69930667" lon="76.75711167"><ele>276.500</ele><time>2025-09-04T05:43:36Z</time><speed>7.416</speed><sat>45</sat></trkpt>
  <trkpt lat="30.69935500" lon="76.75705833"><ele>277.100</ele><time>2025-09-04T05:43:37Z</time><speed>7.501</speed><sat>44</sat></trkpt>
  <trkpt lat="30.69940667" lon="76.75701333"><ele>277.400</ele><time>2025-09-04T05:43:38Z</time><speed>7.497</speed><sat>44</sat></trkpt>
  <trkpt lat="30.69944833" lon="76.75695833"><ele>277.000</ele><time>2025-09-04T05:43:39Z</time><speed>7.342</speed><sat>42</sat></trkpt>
  <trkpt lat="30.69949000" lon="76.75690667"><ele>276.100</ele><time>2025-09-04T05:43:40Z</time><speed>7.204</speed><sat>44</sat></trkpt>
  <trkpt lat="30.69954333" lon="76.75686500"><ele>276.000</ele><time>2025-09-04T05:43:41Z</time><speed>6.997</speed><sat>43</sat></trkpt>
  <trkpt lat="30.69960167" lon="76.75682167"><ele>276.200</ele><time>2025-09-04T05:43:42Z</time><speed>7.194</speed><sat>41</sat></trkpt>
  <trkpt lat="30.69965167" lon="76.75677833"><ele>276.600</ele><time>2025-09-04T05:43:43Z</time><speed>7.020</speed><sat>38</sat></trkpt>
  <trkpt lat="30.69970000" lon="76.75673833"><ele>277.000</ele><time>2025-09-04T05:43:44Z</time><speed>6.828</speed><sat>39</sat></trkpt>
  <trkpt lat="30.69975333" lon="76.75669833"><ele>276.900</ele><time>2025-09-04T05:43:45Z</time><speed>6.842</speed><sat>39</sat></trkpt>
  <trkpt lat="30.69980333" lon="76.75665500"><ele>276.900</ele><time>2025-09-04T05:43:46Z</time><speed>6.753</speed><sat>40</sat></trkpt>
  <trkpt lat="30.69984167" lon="76.75660667"><ele>276.500</ele><time>2025-09-04T05:43:47Z</time><speed>6.762</speed><sat>39</sat></trkpt>
  <trkpt lat="30.69988167" lon="76.75656000"><ele>275.400</ele><time>2025-09-04T05:43:48Z</time><speed>6.892</speed><sat>38</sat></trkpt>
  <trkpt lat="30.69993000" lon="76.75652000"><ele>273.900</ele><time>2025-09-04T05:43:49Z</time><speed>6.705</speed><sat>40</sat></trkpt>
  <trkpt lat="30.69997333" lon="76.75647333"><ele>273.100</ele><time>2025-09-04T05:43:50Z</time><speed>6.878</speed><sat>41</sat></trkpt>
  <trkpt lat="30.70002000" lon="76.75642167"><ele>272.900</ele><time>2025-09-04T05:43:51Z</time><speed>6.850</speed><sat>41</sat></trkpt>
  <trkpt lat="30.70007333" lon="76.75637000"><ele>273.100</ele><time>2025-09-04T05:43:52Z</time><speed>7.189</speed><sat>44</sat></trkpt>
  <trkpt lat="30.70012167" lon="76.75631833"><ele>272.600</ele><time>2025-09-04T05:43:53Z</time><speed>7.193</speed><sat>44</sat></trkpt>
  <trkpt lat="30.70017167" lon="76.75626667"><ele>273.400</ele><time>2025-09-04T05:43:54Z</time><speed>7.074</speed><sat>44</sat></trkpt>
  <trkpt lat="30.70021167" lon="76.75621000"><ele>274.400</ele><time>2025-09-04T05:43:55Z</time><speed>7.296</speed><sat>44</sat></trkpt>
  <trkpt lat="30.70024167" lon="76.75614500"><ele>275.000</ele><time>2025-09-04T05:43:56Z</time><speed>7.431</speed><sat>47</sat></trkpt>
  <trkpt lat="30.70027667" lon="76.75608167"><ele>274.600</ele><time>2025-09-04T05:43:57Z</time><speed>7.557</speed><sat>46</sat></trkpt>
  <trkpt lat="30.70030333" lon="76.75601167"><ele>274.600</ele><time>2025-09-04T05:43:58Z</time><speed>7.578</speed><sat>46</sat></trkpt>
  <trkpt lat="30.70032833" lon="76.75593667"><ele>274.500</ele><time>2025-09-04T05:43:59Z</time><speed>7.661</speed><sat>45</sat></trkpt>
  <trkpt lat="30.70035333" lon="76.75586833"><ele>274.500</ele><time>2025-09-04T05:44:00Z</time><speed>7.246</speed><sat>45</sat></trkpt>
  <trkpt lat="30.70038833" lon="76.75580667"><ele>274.800</ele><time>2025-09-04T05:44:01Z</time><speed>7.226</speed><sat>45</sat></trkpt>
  <trkpt lat="30.70043167" lon="76.75575000"><ele>275.500</ele><time>2025-09-04T05:44:02Z</time><speed>6.891</speed><sat>43</sat></trkpt>
  <trkpt lat="30.70048333" lon="76.75570333"><ele>275.400</ele><time>2025-09-04T05:44:03Z</time><speed>6.364</speed><sat>44</sat></trkpt>
  <trkpt lat="30.70053000" lon="76.75567000"><ele>274.900</ele><time>2025-09-04T05:44:04Z</time><speed>5.775</speed><sat>46</sat></trkpt>
  <trkpt lat="30.70057167" lon="76.75565500"><ele>274.900</ele><time>2025-09-04T05:44:05Z</time><speed>5.161</speed><sat>45</sat></trkpt>
  <trkpt lat="30.70061667" lon="76.75564833"><ele>275.300</ele><time>2025-09-04T05:44:06Z</time><speed>4.758</speed><sat>42</sat></trkpt>
  <trkpt lat="30.70065500" lon="76.75564667"><ele>275.400</ele><time>2025-09-04T05:44:07Z</time><speed>4.089</speed><sat>43</sat></trkpt>
  <trkpt lat="30.70069333" lon="76.75564833"><ele>275.400</ele><time>2025-09-04T05:44:08Z</time><speed>3.880</speed><sat>44</sat></trkpt>
  <trkpt lat="30.70072833" lon="76.75565333"><ele>275.700</ele><time>2025-09-04T05:44:09Z</time><speed>3.858</speed><sat>46</sat></trkpt>
  <trkpt lat="30.70076000" lon="76.75567167"><ele>275.400</ele><time>2025-09-04T05:44:10Z</time><speed>3.476</speed><sat>45</sat></trkpt>
  <trkpt lat="30.70078500" lon="76.75568667"><ele>275.000</ele><time>2025-09-04T05:44:11Z</time><speed>2.739</speed><sat>45</sat></trkpt>
  <trkpt lat="30.70080667" lon="76.75570000"><ele>275.400</ele><time>2025-09-04T05:44:12Z</time><speed>1.889</speed><sat>44</sat></trkpt>
  <trkpt lat="30.70082000" lon="76.75570833"><ele>275.400</ele><time>2025-09-04T05:44:13Z</time><speed>0.456</speed><sat>43</sat></trkpt>
 </trkseg>
</trk>

</gpx>
 