<?xml version="1.0" encoding="UTF-8"?>
<!-- Created with BasicAirData GPS Logger for Android - ver. 3.2.3 -->
<!-- Track 809 = 658 TrackPoints + 0 Placemarks -->

<!-- Track Statistics (based on Total Time | Time in Movement): -->
<!--  Distance = 4.95 km -->
<!--  Duration = 10:57 | 10:54 -->
<!--  Altitude Gap = 31 m -->
<!--  Max Speed = 41 km/h -->
<!--  Avg Speed = 27.1 | 27.3 km/h -->
<!--  Direction = NNW -->
<!--  Activity = steady -->
<!--  Altitudes = Raw -->

<gpx version="1.0"
     creator="BasicAirData GPS Logger 3.2.3"
     xmlns="http://www.topografix.com/GPX/1/0"
     xmlns:xsi="http://www.w3.org/2001/XMLSchema-instance"
     xsi:schemaLocation="http://www.topografix.com/GPX/1/0 http://www.topografix.com/GPX/1/0/gpx.xsd">
<name>GPS Logger 20260223-141337</name>
<desc>SRR_1</desc>
<time>2026-02-23T08:54:58Z</time>
<keywords>steady</keywords>
<bounds minlat="12.50282743" minlon="78.20212512" maxlat="12.54161873" maxlon="78.22332248" />

<trk>
 <name>Track 20260223-141337</name>
 <trkseg>
  <trkpt lat="12.50282743" lon="78.22331797"><ele>395.789</ele><time>2026-02-23T08:43:37Z</time><speed>1.230</speed><sat>24</sat></trkpt>
  <trkpt lat="12.50283903" lon="78.22331396"><ele>395.284</ele><time>2026-02-23T08:43:38Z</time><speed>1.520</speed><sat>24</sat></trkpt>
  <trkpt lat="12.50285586" lon="78.22331127"><ele>395.586</ele><time>2026-02-23T08:43:39Z</time><speed>2.290</speed><sat>23</sat></trkpt>
  <trkpt lat="12.50287926" lon="78.22331140"><ele>396.157</ele><time>2026-02-23T08:43:40Z</time><speed>3.050</speed><sat>19</sat></trkpt>
  <trkpt lat="12.50290701" lon="78.22331336"><ele>396.547</ele><time>2026-02-23T08:43:41Z</time><speed>3.200</speed><sat>23</sat></trkpt>
  <trkpt lat="12.50293149" lon="78.22331204"><ele>396.364</ele><time>2026-02-23T08:43:42Z</time><speed>2.420</speed><sat>23</sat></trkpt>
  <trkpt lat="12.50295481" lon="78.22331110"><ele>395.441</ele><time>2026-02-23T08:43:43Z</time><speed>2.140</speed><sat>21</sat></trkpt>
  <trkpt lat="12.50297641" lon="78.22331260"><ele>395.339</ele><time>2026-02-23T08:43:44Z</time><speed>2.200</speed><sat>21</sat></trkpt>
  <trkpt lat="12.50300057" lon="78.22331370"><ele>395.715</ele><time>2026-02-23T08:43:45Z</time><speed>2.760</speed><sat>25</sat></trkpt>
  <trkpt lat="12.50302777" lon="78.22331672"><ele>395.490</ele><time>2026-02-23T08:43:46Z</time><speed>3.300</speed><sat>22</sat></trkpt>
  <trkpt lat="12.50305747" lon="78.22331905"><ele>395.587</ele><time>2026-02-23T08:43:47Z</time><speed>3.460</speed><sat>23</sat></trkpt>
  <trkpt lat="12.50308743" lon="78.22332047"><ele>396.009</ele><time>2026-02-23T08:43:48Z</time><speed>3.350</speed><sat>21</sat></trkpt>
  <trkpt lat="12.50311963" lon="78.22332077"><ele>395.370</ele><time>2026-02-23T08:43:49Z</time><speed>3.580</speed><sat>21</sat></trkpt>
  <trkpt lat="12.50315519" lon="78.22332163"><ele>395.603</ele><time>2026-02-23T08:43:50Z</time><speed>4.000</speed><sat>20</sat></trkpt>
  <trkpt lat="12.50319278" lon="78.22332073"><ele>395.356</ele><time>2026-02-23T08:43:51Z</time><speed>4.330</speed><sat>20</sat></trkpt>
  <trkpt lat="12.50323369" lon="78.22331700"><ele>394.660</ele><time>2026-02-23T08:43:52Z</time><speed>4.720</speed><sat>20</sat></trkpt>
  <trkpt lat="12.50327750" lon="78.22331302"><ele>393.260</ele><time>2026-02-23T08:43:53Z</time><speed>4.710</speed><sat>20</sat></trkpt>
  <trkpt lat="12.50331699" lon="78.22331155"><ele>392.755</ele><time>2026-02-23T08:43:54Z</time><speed>4.550</speed><sat>21</sat></trkpt>
  <trkpt lat="12.50335798" lon="78.22331242"><ele>392.934</ele><time>2026-02-23T08:43:55Z</time><speed>4.870</speed><sat>19</sat></trkpt>
  <trkpt lat="12.50339899" lon="78.22332066"><ele>393.319</ele><time>2026-02-23T08:43:56Z</time><speed>5.250</speed><sat>22</sat></trkpt>
  <trkpt lat="12.50345276" lon="78.22332248"><ele>392.647</ele><time>2026-02-23T08:43:57Z</time><speed>5.890</speed><sat>23</sat></trkpt>
  <trkpt lat="12.50350671" lon="78.22332241"><ele>392.872</ele><time>2026-02-23T08:43:58Z</time><speed>6.370</speed><sat>24</sat></trkpt>
  <trkpt lat="12.50356353" lon="78.22331422"><ele>392.733</ele><time>2026-02-23T08:43:59Z</time><speed>6.480</speed><sat>22</sat></trkpt>
  <trkpt lat="12.50362039" lon="78.22331588"><ele>392.596</ele><time>2026-02-23T08:44:00Z</time><speed>6.450</speed><sat>19</sat></trkpt>
  <trkpt lat="12.50368408" lon="78.22331745"><ele>392.517</ele><time>2026-02-23T08:44:01Z</time><speed>6.620</speed><sat>19</sat></trkpt>
  <trkpt lat="12.50374451" lon="78.22331881"><ele>392.333</ele><time>2026-02-23T08:44:02Z</time><speed>6.570</speed><sat>19</sat></trkpt>
  <trkpt lat="12.50381004" lon="78.22331575"><ele>391.751</ele><time>2026-02-23T08:44:03Z</time><speed>6.730</speed><sat>21</sat></trkpt>
  <trkpt lat="12.50387251" lon="78.22331280"><ele>391.916</ele><time>2026-02-23T08:44:04Z</time><speed>6.760</speed><sat>21</sat></trkpt>
  <trkpt lat="12.50393474" lon="78.22330250"><ele>392.652</ele><time>2026-02-23T08:44:05Z</time><speed>6.820</speed><sat>22</sat></trkpt>
  <trkpt lat="12.50399349" lon="78.22329129"><ele>392.533</ele><time>2026-02-23T08:44:06Z</time><speed>6.790</speed><sat>21</sat></trkpt>
  <trkpt lat="12.50404988" lon="78.22329527"><ele>392.710</ele><time>2026-02-23T08:44:07Z</time><speed>6.650</speed><sat>21</sat></trkpt>
  <trkpt lat="12.50410523" lon="78.22328894"><ele>392.743</ele><time>2026-02-23T08:44:08Z</time><speed>6.400</speed><sat>20</sat></trkpt>
  <trkpt lat="12.50416418" lon="78.22328494"><ele>392.545</ele><time>2026-02-23T08:44:09Z</time><speed>6.070</speed><sat>20</sat></trkpt>
  <trkpt lat="12.50421791" lon="78.22327795"><ele>392.257</ele><time>2026-02-23T08:44:10Z</time><speed>5.540</speed><sat>19</sat></trkpt>
  <trkpt lat="12.50427070" lon="78.22327235"><ele>392.073</ele><time>2026-02-23T08:44:11Z</time><speed>5.370</speed><sat>21</sat></trkpt>
  <trkpt lat="12.50431279" lon="78.22326765"><ele>391.564</ele><time>2026-02-23T08:44:12Z</time><speed>4.850</speed><sat>17</sat></trkpt>
  <trkpt lat="12.50434944" lon="78.22326844"><ele>391.322</ele><time>2026-02-23T08:44:13Z</time><speed>4.820</speed><sat>20</sat></trkpt>
  <trkpt lat="12.50439261" lon="78.22325763"><ele>391.536</ele><time>2026-02-23T08:44:14Z</time><speed>4.830</speed><sat>15</sat></trkpt>
  <trkpt lat="12.50443553" lon="78.22325275"><ele>391.644</ele><time>2026-02-23T08:44:15Z</time><speed>4.810</speed><sat>18</sat></trkpt>
  <trkpt lat="12.50448241" lon="78.22324529"><ele>391.232</ele><time>2026-02-23T08:44:16Z</time><speed>4.690</speed><sat>19</sat></trkpt>
  <trkpt lat="12.50452551" lon="78.22323971"><ele>391.254</ele><time>2026-02-23T08:44:17Z</time><speed>4.790</speed><sat>19</sat></trkpt>
  <trkpt lat="12.50457513" lon="78.22322920"><ele>391.711</ele><time>2026-02-23T08:44:18Z</time><speed>5.380</speed><sat>18</sat></trkpt>
  <trkpt lat="12.50462539" lon="78.22322134"><ele>392.288</ele><time>2026-02-23T08:44:19Z</time><speed>5.740</speed><sat>18</sat></trkpt>
  <trkpt lat="12.50468033" lon="78.22321361"><ele>392.227</ele><time>2026-02-23T08:44:20Z</time><speed>6.320</speed><sat>19</sat></trkpt>
  <trkpt lat="12.50474241" lon="78.22320717"><ele>392.151</ele><time>2026-02-23T08:44:21Z</time><speed>7.100</speed><sat>21</sat></trkpt>
  <trkpt lat="12.50479691" lon="78.22319761"><ele>391.729</ele><time>2026-02-23T08:44:22Z</time><speed>6.940</speed><sat>21</sat></trkpt>
  <trkpt lat="12.50486132" lon="78.22318382"><ele>391.561</ele><time>2026-02-23T08:44:23Z</time><speed>7.360</speed><sat>21</sat></trkpt>
  <trkpt lat="12.50492352" lon="78.22316913"><ele>391.714</ele><time>2026-02-23T08:44:24Z</time><speed>7.810</speed><sat>19</sat></trkpt>
  <trkpt lat="12.50499512" lon="78.22315474"><ele>391.439</ele><time>2026-02-23T08:44:25Z</time><speed>8.060</speed><sat>18</sat></trkpt>
  <trkpt lat="12.50507303" lon="78.22313816"><ele>391.651</ele><time>2026-02-23T08:44:26Z</time><speed>8.500</speed><sat>17</sat></trkpt>
  <trkpt lat="12.50514763" lon="78.22311983"><ele>391.609</ele><time>2026-02-23T08:44:27Z</time><speed>8.630</speed><sat>16</sat></trkpt>
  <trkpt lat="12.50522722" lon="78.22309840"><ele>391.880</ele><time>2026-02-23T08:44:28Z</time><speed>8.640</speed><sat>16</sat></trkpt>
  <trkpt lat="12.50530373" lon="78.22307651"><ele>392.140</ele><time>2026-02-23T08:44:29Z</time><speed>8.750</speed><sat>17</sat></trkpt>
  <trkpt lat="12.50537665" lon="78.22305081"><ele>392.353</ele><time>2026-02-23T08:44:30Z</time><speed>8.630</speed><sat>19</sat></trkpt>
  <trkpt lat="12.50545130" lon="78.22302485"><ele>392.212</ele><time>2026-02-23T08:44:31Z</time><speed>8.460</speed><sat>18</sat></trkpt>
  <trkpt lat="12.50552759" lon="78.22300267"><ele>392.038</ele><time>2026-02-23T08:44:32Z</time><speed>8.600</speed><sat>16</sat></trkpt>
  <trkpt lat="12.50559995" lon="78.22297566"><ele>392.106</ele><time>2026-02-23T08:44:33Z</time><speed>8.500</speed><sat>18</sat></trkpt>
  <trkpt lat="12.50567202" lon="78.22295217"><ele>392.064</ele><time>2026-02-23T08:44:34Z</time><speed>8.440</speed><sat>16</sat></trkpt>
  <trkpt lat="12.50574508" lon="78.22292837"><ele>391.938</ele><time>2026-02-23T08:44:35Z</time><speed>8.500</speed><sat>16</sat></trkpt>
  <trkpt lat="12.50581994" lon="78.22290008"><ele>391.622</ele><time>2026-02-23T08:44:36Z</time><speed>8.590</speed><sat>15</sat></trkpt>
  <trkpt lat="12.50587824" lon="78.22287951"><ele>390.600</ele><time>2026-02-23T08:44:37Z</time><speed>8.380</speed><sat>16</sat></trkpt>
  <trkpt lat="12.50594775" lon="78.22285370"><ele>390.446</ele><time>2026-02-23T08:44:38Z</time><speed>8.250</speed><sat>16</sat></trkpt>
  <trkpt lat="12.50601753" lon="78.22282428"><ele>390.772</ele><time>2026-02-23T08:44:39Z</time><speed>8.190</speed><sat>12</sat></trkpt>
  <trkpt lat="12.50608792" lon="78.22279563"><ele>390.796</ele><time>2026-02-23T08:44:40Z</time><speed>8.260</speed><sat>15</sat></trkpt>
  <trkpt lat="12.50615022" lon="78.22278370"><ele>389.952</ele><time>2026-02-23T08:44:41Z</time><speed>8.440</speed><sat>16</sat></trkpt>
  <trkpt lat="12.50621879" lon="78.22274405"><ele>390.458</ele><time>2026-02-23T08:44:42Z</time><speed>8.390</speed><sat>13</sat></trkpt>
  <trkpt lat="12.50629249" lon="78.22270862"><ele>390.215</ele><time>2026-02-23T08:44:43Z</time><speed>8.360</speed><sat>15</sat></trkpt>
  <trkpt lat="12.50636114" lon="78.22267564"><ele>390.641</ele><time>2026-02-23T08:44:44Z</time><speed>8.700</speed><sat>17</sat></trkpt>
  <trkpt lat="12.50643235" lon="78.22263600"><ele>391.172</ele><time>2026-02-23T08:44:45Z</time><speed>8.570</speed><sat>15</sat></trkpt>
  <trkpt lat="12.50650324" lon="78.22259298"><ele>391.363</ele><time>2026-02-23T08:44:46Z</time><speed>8.500</speed><sat>14</sat></trkpt>
  <trkpt lat="12.50657155" lon="78.22255251"><ele>391.954</ele><time>2026-02-23T08:44:47Z</time><speed>8.230</speed><sat>14</sat></trkpt>
  <trkpt lat="12.50662266" lon="78.22253434"><ele>391.346</ele><time>2026-02-23T08:44:48Z</time><speed>7.900</speed><sat>13</sat></trkpt>
  <trkpt lat="12.50668575" lon="78.22249868"><ele>392.484</ele><time>2026-02-23T08:44:49Z</time><speed>8.110</speed><sat>14</sat></trkpt>
  <trkpt lat="12.50673682" lon="78.22247711"><ele>392.020</ele><time>2026-02-23T08:44:50Z</time><speed>7.720</speed><sat>16</sat></trkpt>
  <trkpt lat="12.50679455" lon="78.22243078"><ele>391.366</ele><time>2026-02-23T08:44:51Z</time><speed>7.570</speed><sat>15</sat></trkpt>
  <trkpt lat="12.50684414" lon="78.22240029"><ele>390.139</ele><time>2026-02-23T08:44:52Z</time><speed>7.890</speed><sat>16</sat></trkpt>
  <trkpt lat="12.50689644" lon="78.22237851"><ele>387.230</ele><time>2026-02-23T08:44:53Z</time><speed>7.270</speed><sat>15</sat></trkpt>
  <trkpt lat="12.50695240" lon="78.22234212"><ele>387.668</ele><time>2026-02-23T08:44:54Z</time><speed>7.280</speed><sat>15</sat></trkpt>
  <trkpt lat="12.50701509" lon="78.22230160"><ele>387.888</ele><time>2026-02-23T08:44:55Z</time><speed>6.760</speed><sat>16</sat></trkpt>
  <trkpt lat="12.50707070" lon="78.22227036"><ele>388.775</ele><time>2026-02-23T08:44:56Z</time><speed>6.530</speed><sat>16</sat></trkpt>
  <trkpt lat="12.50712190" lon="78.22223911"><ele>388.772</ele><time>2026-02-23T08:44:57Z</time><speed>6.590</speed><sat>16</sat></trkpt>
  <trkpt lat="12.50717769" lon="78.22220697"><ele>390.212</ele><time>2026-02-23T08:44:58Z</time><speed>6.680</speed><sat>14</sat></trkpt>
  <trkpt lat="12.50722622" lon="78.22217626"><ele>389.520</ele><time>2026-02-23T08:44:59Z</time><speed>6.650</speed><sat>15</sat></trkpt>
  <trkpt lat="12.50727911" lon="78.22214279"><ele>389.023</ele><time>2026-02-23T08:45:00Z</time><speed>6.730</speed><sat>24</sat></trkpt>
  <trkpt lat="12.50733270" lon="78.22210160"><ele>389.199</ele><time>2026-02-23T08:45:01Z</time><speed>7.360</speed><sat>31</sat></trkpt>
  <trkpt lat="12.50738468" lon="78.22205983"><ele>389.397</ele><time>2026-02-23T08:45:02Z</time><speed>7.540</speed><sat>31</sat></trkpt>
  <trkpt lat="12.50744450" lon="78.22201759"><ele>389.453</ele><time>2026-02-23T08:45:03Z</time><speed>7.990</speed><sat>32</sat></trkpt>
  <trkpt lat="12.50750612" lon="78.22197404"><ele>389.536</ele><time>2026-02-23T08:45:04Z</time><speed>8.350</speed><sat>31</sat></trkpt>
  <trkpt lat="12.50757005" lon="78.22192629"><ele>389.802</ele><time>2026-02-23T08:45:05Z</time><speed>8.780</speed><sat>30</sat></trkpt>
  <trkpt lat="12.50763323" lon="78.22187132"><ele>391.176</ele><time>2026-02-23T08:45:06Z</time><speed>8.910</speed><sat>30</sat></trkpt>
  <trkpt lat="12.50770044" lon="78.22181549"><ele>392.393</ele><time>2026-02-23T08:45:07Z</time><speed>9.370</speed><sat>23</sat></trkpt>
  <trkpt lat="12.50777265" lon="78.22175724"><ele>392.284</ele><time>2026-02-23T08:45:08Z</time><speed>9.080</speed><sat>26</sat></trkpt>
  <trkpt lat="12.50783419" lon="78.22171776"><ele>391.511</ele><time>2026-02-23T08:45:09Z</time><speed>8.880</speed><sat>26</sat></trkpt>
  <trkpt lat="12.50790232" lon="78.22166787"><ele>391.670</ele><time>2026-02-23T08:45:10Z</time><speed>8.850</speed><sat>27</sat></trkpt>
  <trkpt lat="12.50796724" lon="78.22161608"><ele>392.794</ele><time>2026-02-23T08:45:11Z</time><speed>8.820</speed><sat>29</sat></trkpt>
  <trkpt lat="12.50802905" lon="78.22156764"><ele>393.925</ele><time>2026-02-23T08:45:12Z</time><speed>8.760</speed><sat>31</sat></trkpt>
  <trkpt lat="12.50808916" lon="78.22152251"><ele>394.535</ele><time>2026-02-23T08:45:13Z</time><speed>8.570</speed><sat>33</sat></trkpt>
  <trkpt lat="12.50815236" lon="78.22147201"><ele>394.881</ele><time>2026-02-23T08:45:14Z</time><speed>8.680</speed><sat>34</sat></trkpt>
  <trkpt lat="12.50821235" lon="78.22142382"><ele>395.446</ele><time>2026-02-23T08:45:15Z</time><speed>8.880</speed><sat>36</sat></trkpt>
  <trkpt lat="12.50827486" lon="78.22137220"><ele>395.800</ele><time>2026-02-23T08:45:16Z</time><speed>8.820</speed><sat>37</sat></trkpt>
  <trkpt lat="12.50833751" lon="78.22132686"><ele>395.732</ele><time>2026-02-23T08:45:17Z</time><speed>8.710</speed><sat>37</sat></trkpt>
  <trkpt lat="12.50840069" lon="78.22128001"><ele>396.007</ele><time>2026-02-23T08:45:18Z</time><speed>8.430</speed><sat>38</sat></trkpt>
  <trkpt lat="12.50846262" lon="78.22123416"><ele>396.295</ele><time>2026-02-23T08:45:19Z</time><speed>8.380</speed><sat>37</sat></trkpt>
  <trkpt lat="12.50852770" lon="78.22118621"><ele>396.146</ele><time>2026-02-23T08:45:20Z</time><speed>8.980</speed><sat>37</sat></trkpt>
  <trkpt lat="12.50859631" lon="78.22113704"><ele>396.217</ele><time>2026-02-23T08:45:21Z</time><speed>9.440</speed><sat>35</sat></trkpt>
  <trkpt lat="12.50866454" lon="78.22108484"><ele>396.477</ele><time>2026-02-23T08:45:22Z</time><speed>9.410</speed><sat>35</sat></trkpt>
  <trkpt lat="12.50873298" lon="78.22103298"><ele>396.833</ele><time>2026-02-23T08:45:23Z</time><speed>9.450</speed><sat>32</sat></trkpt>
  <trkpt lat="12.50879986" lon="78.22098678"><ele>396.857</ele><time>2026-02-23T08:45:24Z</time><speed>9.500</speed><sat>31</sat></trkpt>
  <trkpt lat="12.50886974" lon="78.22093506"><ele>396.787</ele><time>2026-02-23T08:45:25Z</time><speed>9.590</speed><sat>29</sat></trkpt>
  <trkpt lat="12.50894148" lon="78.22087905"><ele>396.763</ele><time>2026-02-23T08:45:26Z</time><speed>9.860</speed><sat>29</sat></trkpt>
  <trkpt lat="12.50901052" lon="78.22082040"><ele>396.916</ele><time>2026-02-23T08:45:27Z</time><speed>9.890</speed><sat>29</sat></trkpt>
  <trkpt lat="12.50908176" lon="78.22076563"><ele>396.857</ele><time>2026-02-23T08:45:28Z</time><speed>9.900</speed><sat>29</sat></trkpt>
  <trkpt lat="12.50915276" lon="78.22071025"><ele>397.171</ele><time>2026-02-23T08:45:29Z</time><speed>9.910</speed><sat>29</sat></trkpt>
  <trkpt lat="12.50922732" lon="78.22065598"><ele>397.105</ele><time>2026-02-23T08:45:30Z</time><speed>10.110</speed><sat>28</sat></trkpt>
  <trkpt lat="12.50930022" lon="78.22060162"><ele>397.145</ele><time>2026-02-23T08:45:31Z</time><speed>10.140</speed><sat>28</sat></trkpt>
  <trkpt lat="12.50937873" lon="78.22055008"><ele>396.648</ele><time>2026-02-23T08:45:32Z</time><speed>10.180</speed><sat>28</sat></trkpt>
  <trkpt lat="12.50945428" lon="78.22049454"><ele>396.478</ele><time>2026-02-23T08:45:33Z</time><speed>10.150</speed><sat>28</sat></trkpt>
  <trkpt lat="12.50952736" lon="78.22043994"><ele>396.598</ele><time>2026-02-23T08:45:34Z</time><speed>10.190</speed><sat>30</sat></trkpt>
  <trkpt lat="12.50960039" lon="78.22038357"><ele>396.536</ele><time>2026-02-23T08:45:35Z</time><speed>10.170</speed><sat>31</sat></trkpt>
  <trkpt lat="12.50967581" lon="78.22032903"><ele>396.408</ele><time>2026-02-23T08:45:36Z</time><speed>10.170</speed><sat>31</sat></trkpt>
  <trkpt lat="12.50974742" lon="78.22027248"><ele>396.710</ele><time>2026-02-23T08:45:37Z</time><speed>9.990</speed><sat>32</sat></trkpt>
  <trkpt lat="12.50981881" lon="78.22021767"><ele>396.484</ele><time>2026-02-23T08:45:38Z</time><speed>10.010</speed><sat>33</sat></trkpt>
  <trkpt lat="12.50989163" lon="78.22015939"><ele>397.074</ele><time>2026-02-23T08:45:39Z</time><speed>10.230</speed><sat>33</sat></trkpt>
  <trkpt lat="12.50996309" lon="78.22010388"><ele>396.880</ele><time>2026-02-23T08:45:40Z</time><speed>10.000</speed><sat>31</sat></trkpt>
  <trkpt lat="12.51004060" lon="78.22005514"><ele>396.083</ele><time>2026-02-23T08:45:41Z</time><speed>9.960</speed><sat>30</sat></trkpt>
  <trkpt lat="12.51011212" lon="78.21999915"><ele>395.904</ele><time>2026-02-23T08:45:42Z</time><speed>10.020</speed><sat>37</sat></trkpt>
  <trkpt lat="12.51018359" lon="78.21994451"><ele>395.842</ele><time>2026-02-23T08:45:43Z</time><speed>9.970</speed><sat>38</sat></trkpt>
  <trkpt lat="12.51025418" lon="78.21988964"><ele>395.449</ele><time>2026-02-23T08:45:44Z</time><speed>9.970</speed><sat>39</sat></trkpt>
  <trkpt lat="12.51032685" lon="78.21983666"><ele>395.469</ele><time>2026-02-23T08:45:45Z</time><speed>10.020</speed><sat>40</sat></trkpt>
  <trkpt lat="12.51040207" lon="78.21978204"><ele>395.371</ele><time>2026-02-23T08:45:46Z</time><speed>9.950</speed><sat>44</sat></trkpt>
  <trkpt lat="12.51047495" lon="78.21972821"><ele>395.167</ele><time>2026-02-23T08:45:47Z</time><speed>9.840</speed><sat>44</sat></trkpt>
  <trkpt lat="12.51054417" lon="78.21967450"><ele>395.368</ele><time>2026-02-23T08:45:48Z</time><speed>9.690</speed><sat>45</sat></trkpt>
  <trkpt lat="12.51061190" lon="78.21962567"><ele>395.763</ele><time>2026-02-23T08:45:49Z</time><speed>9.490</speed><sat>46</sat></trkpt>
  <trkpt lat="12.51067845" lon="78.21957209"><ele>395.484</ele><time>2026-02-23T08:45:50Z</time><speed>9.310</speed><sat>46</sat></trkpt>
  <trkpt lat="12.51074495" lon="78.21952213"><ele>395.530</ele><time>2026-02-23T08:45:51Z</time><speed>9.200</speed><sat>45</sat></trkpt>
  <trkpt lat="12.51080997" lon="78.21947322"><ele>395.252</ele><time>2026-02-23T08:45:52Z</time><speed>9.070</speed><sat>43</sat></trkpt>
  <trkpt lat="12.51087512" lon="78.21942029"><ele>395.904</ele><time>2026-02-23T08:45:53Z</time><speed>8.970</speed><sat>44</sat></trkpt>
  <trkpt lat="12.51094238" lon="78.21937374"><ele>395.933</ele><time>2026-02-23T08:45:54Z</time><speed>8.870</speed><sat>45</sat></trkpt>
  <trkpt lat="12.51100131" lon="78.21932491"><ele>396.248</ele><time>2026-02-23T08:45:55Z</time><speed>8.530</speed><sat>46</sat></trkpt>
  <trkpt lat="12.51106511" lon="78.21927643"><ele>396.027</ele><time>2026-02-23T08:45:56Z</time><speed>8.320</speed><sat>46</sat></trkpt>
  <trkpt lat="12.51112342" lon="78.21922746"><ele>395.936</ele><time>2026-02-23T08:45:57Z</time><speed>8.210</speed><sat>45</sat></trkpt>
  <trkpt lat="12.51118294" lon="78.21918275"><ele>396.205</ele><time>2026-02-23T08:45:58Z</time><speed>8.260</speed><sat>45</sat></trkpt>
  <trkpt lat="12.51124373" lon="78.21913523"><ele>396.295</ele><time>2026-02-23T08:45:59Z</time><speed>8.430</speed><sat>46</sat></trkpt>
  <trkpt lat="12.51130587" lon="78.21909079"><ele>396.365</ele><time>2026-02-23T08:46:00Z</time><speed>8.750</speed><sat>47</sat></trkpt>
  <trkpt lat="12.51136868" lon="78.21904623"><ele>396.099</ele><time>2026-02-23T08:46:01Z</time><speed>8.940</speed><sat>46</sat></trkpt>
  <trkpt lat="12.51143706" lon="78.21900090"><ele>395.658</ele><time>2026-02-23T08:46:02Z</time><speed>9.140</speed><sat>46</sat></trkpt>
  <trkpt lat="12.51149873" lon="78.21895027"><ele>395.843</ele><time>2026-02-23T08:46:03Z</time><speed>9.020</speed><sat>47</sat></trkpt>
  <trkpt lat="12.51156449" lon="78.21890000"><ele>396.127</ele><time>2026-02-23T08:46:04Z</time><speed>9.030</speed><sat>46</sat></trkpt>
  <trkpt lat="12.51163155" lon="78.21884942"><ele>395.930</ele><time>2026-02-23T08:46:05Z</time><speed>8.910</speed><sat>48</sat></trkpt>
  <trkpt lat="12.51169188" lon="78.21879900"><ele>396.161</ele><time>2026-02-23T08:46:06Z</time><speed>8.870</speed><sat>47</sat></trkpt>
  <trkpt lat="12.51175460" lon="78.21874967"><ele>395.968</ele><time>2026-02-23T08:46:07Z</time><speed>8.840</speed><sat>49</sat></trkpt>
  <trkpt lat="12.51181746" lon="78.21869714"><ele>396.041</ele><time>2026-02-23T08:46:08Z</time><speed>8.760</speed><sat>49</sat></trkpt>
  <trkpt lat="12.51188023" lon="78.21864680"><ele>396.486</ele><time>2026-02-23T08:46:09Z</time><speed>8.570</speed><sat>49</sat></trkpt>
  <trkpt lat="12.51194356" lon="78.21859751"><ele>396.912</ele><time>2026-02-23T08:46:10Z</time><speed>8.460</speed><sat>49</sat></trkpt>
  <trkpt lat="12.51200714" lon="78.21854948"><ele>396.331</ele><time>2026-02-23T08:46:11Z</time><speed>8.290</speed><sat>46</sat></trkpt>
  <trkpt lat="12.51206490" lon="78.21850488"><ele>396.403</ele><time>2026-02-23T08:46:12Z</time><speed>8.020</speed><sat>46</sat></trkpt>
  <trkpt lat="12.51212772" lon="78.21846029"><ele>396.287</ele><time>2026-02-23T08:46:13Z</time><speed>8.160</speed><sat>48</sat></trkpt>
  <trkpt lat="12.51219071" lon="78.21841167"><ele>396.584</ele><time>2026-02-23T08:46:14Z</time><speed>8.460</speed><sat>49</sat></trkpt>
  <trkpt lat="12.51225012" lon="78.21836616"><ele>396.324</ele><time>2026-02-23T08:46:15Z</time><speed>8.530</speed><sat>50</sat></trkpt>
  <trkpt lat="12.51231600" lon="78.21831620"><ele>396.368</ele><time>2026-02-23T08:46:16Z</time><speed>9.050</speed><sat>50</sat></trkpt>
  <trkpt lat="12.51238295" lon="78.21826801"><ele>396.292</ele><time>2026-02-23T08:46:17Z</time><speed>9.240</speed><sat>49</sat></trkpt>
  <trkpt lat="12.51244889" lon="78.21821940"><ele>395.895</ele><time>2026-02-23T08:46:18Z</time><speed>9.190</speed><sat>50</sat></trkpt>
  <trkpt lat="12.51251174" lon="78.21816963"><ele>395.843</ele><time>2026-02-23T08:46:19Z</time><speed>9.060</speed><sat>50</sat></trkpt>
  <trkpt lat="12.51257970" lon="78.21811841"><ele>395.585</ele><time>2026-02-23T08:46:20Z</time><speed>8.920</speed><sat>49</sat></trkpt>
  <trkpt lat="12.51264459" lon="78.21806986"><ele>395.312</ele><time>2026-02-23T08:46:21Z</time><speed>8.800</speed><sat>48</sat></trkpt>
  <trkpt lat="12.51271070" lon="78.21802159"><ele>395.696</ele><time>2026-02-23T08:46:22Z</time><speed>8.800</speed><sat>45</sat></trkpt>
  <trkpt lat="12.51277563" lon="78.21797349"><ele>395.543</ele><time>2026-02-23T08:46:23Z</time><speed>8.940</speed><sat>46</sat></trkpt>
  <trkpt lat="12.51284118" lon="78.21792363"><ele>395.258</ele><time>2026-02-23T08:46:24Z</time><speed>9.040</speed><sat>46</sat></trkpt>
  <trkpt lat="12.51290766" lon="78.21787467"><ele>395.370</ele><time>2026-02-23T08:46:25Z</time><speed>8.840</speed><sat>46</sat></trkpt>
  <trkpt lat="12.51297160" lon="78.21782535"><ele>395.326</ele><time>2026-02-23T08:46:26Z</time><speed>8.830</speed><sat>45</sat></trkpt>
  <trkpt lat="12.51303534" lon="78.21777761"><ele>395.080</ele><time>2026-02-23T08:46:27Z</time><speed>8.630</speed><sat>45</sat></trkpt>
  <trkpt lat="12.51309483" lon="78.21773157"><ele>395.095</ele><time>2026-02-23T08:46:28Z</time><speed>8.280</speed><sat>47</sat></trkpt>
  <trkpt lat="12.51315427" lon="78.21768716"><ele>394.944</ele><time>2026-02-23T08:46:29Z</time><speed>7.940</speed><sat>46</sat></trkpt>
  <trkpt lat="12.51320949" lon="78.21764329"><ele>395.220</ele><time>2026-02-23T08:46:30Z</time><speed>7.560</speed><sat>44</sat></trkpt>
  <trkpt lat="12.51326029" lon="78.21760452"><ele>395.419</ele><time>2026-02-23T08:46:31Z</time><speed>7.100</speed><sat>44</sat></trkpt>
  <trkpt lat="12.51330867" lon="78.21757070"><ele>395.286</ele><time>2026-02-23T08:46:32Z</time><speed>6.170</speed><sat>45</sat></trkpt>
  <trkpt lat="12.51335140" lon="78.21754159"><ele>395.443</ele><time>2026-02-23T08:46:33Z</time><speed>5.220</speed><sat>44</sat></trkpt>
  <trkpt lat="12.51338216" lon="78.21751835"><ele>395.391</ele><time>2026-02-23T08:46:34Z</time><speed>3.930</speed><sat>40</sat></trkpt>
  <trkpt lat="12.51340316" lon="78.21750103"><ele>395.856</ele><time>2026-02-23T08:46:35Z</time><speed>2.370</speed><sat>39</sat></trkpt>
  <trkpt lat="12.51342775" lon="78.21748293"><ele>395.676</ele><time>2026-02-23T08:46:36Z</time><speed>3.120</speed><sat>40</sat></trkpt>
  <trkpt lat="12.51345824" lon="78.21746248"><ele>395.520</ele><time>2026-02-23T08:46:37Z</time><speed>4.170</speed><sat>40</sat></trkpt>
  <trkpt lat="12.51348373" lon="78.21744263"><ele>395.231</ele><time>2026-02-23T08:46:38Z</time><speed>4.110</speed><sat>42</sat></trkpt>
  <trkpt lat="12.51351201" lon="78.21742037"><ele>395.442</ele><time>2026-02-23T08:46:39Z</time><speed>3.850</speed><sat>43</sat></trkpt>
  <trkpt lat="12.51354063" lon="78.21739840"><ele>395.713</ele><time>2026-02-23T08:46:40Z</time><speed>4.180</speed><sat>46</sat></trkpt>
  <trkpt lat="12.51356847" lon="78.21737757"><ele>396.218</ele><time>2026-02-23T08:46:41Z</time><speed>3.690</speed><sat>46</sat></trkpt>
  <trkpt lat="12.51359104" lon="78.21736112"><ele>396.149</ele><time>2026-02-23T08:46:42Z</time><speed>3.070</speed><sat>44</sat></trkpt>
  <trkpt lat="12.51361290" lon="78.21734322"><ele>395.730</ele><time>2026-02-23T08:46:43Z</time><speed>3.140</speed><sat>45</sat></trkpt>
  <trkpt lat="12.51363938" lon="78.21732289"><ele>395.495</ele><time>2026-02-23T08:46:44Z</time><speed>3.840</speed><sat>44</sat></trkpt>
  <trkpt lat="12.51367228" lon="78.21729893"><ele>395.569</ele><time>2026-02-23T08:46:45Z</time><speed>5.050</speed><sat>44</sat></trkpt>
  <trkpt lat="12.51371173" lon="78.21727144"><ele>395.850</ele><time>2026-02-23T08:46:46Z</time><speed>5.450</speed><sat>43</sat></trkpt>
  <trkpt lat="12.51376303" lon="78.21723735"><ele>395.838</ele><time>2026-02-23T08:46:47Z</time><speed>6.210</speed><sat>43</sat></trkpt>
  <trkpt lat="12.51381796" lon="78.21719651"><ele>395.974</ele><time>2026-02-23T08:46:48Z</time><speed>7.500</speed><sat>43</sat></trkpt>
  <trkpt lat="12.51386714" lon="78.21716118"><ele>395.767</ele><time>2026-02-23T08:46:49Z</time><speed>7.080</speed><sat>43</sat></trkpt>
  <trkpt lat="12.51391504" lon="78.21712239"><ele>395.679</ele><time>2026-02-23T08:46:50Z</time><speed>6.930</speed><sat>43</sat></trkpt>
  <trkpt lat="12.51397183" lon="78.21707886"><ele>395.780</ele><time>2026-02-23T08:46:51Z</time><speed>7.680</speed><sat>41</sat></trkpt>
  <trkpt lat="12.51403009" lon="78.21703250"><ele>395.935</ele><time>2026-02-23T08:46:52Z</time><speed>8.370</speed><sat>42</sat></trkpt>
  <trkpt lat="12.51409156" lon="78.21698430"><ele>396.072</ele><time>2026-02-23T08:46:53Z</time><speed>8.750</speed><sat>43</sat></trkpt>
  <trkpt lat="12.51415284" lon="78.21693809"><ele>395.938</ele><time>2026-02-23T08:46:54Z</time><speed>8.960</speed><sat>42</sat></trkpt>
  <trkpt lat="12.51421753" lon="78.21688882"><ele>396.337</ele><time>2026-02-23T08:46:55Z</time><speed>9.060</speed><sat>42</sat></trkpt>
  <trkpt lat="12.51428068" lon="78.21684169"><ele>396.343</ele><time>2026-02-23T08:46:56Z</time><speed>9.010</speed><sat>41</sat></trkpt>
  <trkpt lat="12.51434984" lon="78.21679035"><ele>396.193</ele><time>2026-02-23T08:46:57Z</time><speed>9.450</speed><sat>41</sat></trkpt>
  <trkpt lat="12.51441850" lon="78.21673672"><ele>396.625</ele><time>2026-02-23T08:46:58Z</time><speed>9.650</speed><sat>39</sat></trkpt>
  <trkpt lat="12.51448927" lon="78.21668440"><ele>396.568</ele><time>2026-02-23T08:46:59Z</time><speed>9.730</speed><sat>38</sat></trkpt>
  <trkpt lat="12.51455797" lon="78.21663028"><ele>396.969</ele><time>2026-02-23T08:47:00Z</time><speed>9.610</speed><sat>38</sat></trkpt>
  <trkpt lat="12.51462948" lon="78.21657853"><ele>396.658</ele><time>2026-02-23T08:47:01Z</time><speed>9.440</speed><sat>39</sat></trkpt>
  <trkpt lat="12.51469336" lon="78.21652702"><ele>396.640</ele><time>2026-02-23T08:47:02Z</time><speed>9.220</speed><sat>40</sat></trkpt>
  <trkpt lat="12.51476016" lon="78.21647144"><ele>396.934</ele><time>2026-02-23T08:47:03Z</time><speed>9.260</speed><sat>23</sat></trkpt>
  <trkpt lat="12.51482684" lon="78.21641953"><ele>396.983</ele><time>2026-02-23T08:47:04Z</time><speed>9.260</speed><sat>26</sat></trkpt>
  <trkpt lat="12.51489319" lon="78.21637323"><ele>396.906</ele><time>2026-02-23T08:47:05Z</time><speed>9.220</speed><sat>25</sat></trkpt>
  <trkpt lat="12.51496020" lon="78.21632268"><ele>396.847</ele><time>2026-02-23T08:47:06Z</time><speed>9.220</speed><sat>25</sat></trkpt>
  <trkpt lat="12.51502569" lon="78.21626421"><ele>397.704</ele><time>2026-02-23T08:47:07Z</time><speed>9.260</speed><sat>24</sat></trkpt>
  <trkpt lat="12.51509693" lon="78.21620588"><ele>398.251</ele><time>2026-02-23T08:47:08Z</time><speed>9.330</speed><sat>37</sat></trkpt>
  <trkpt lat="12.51516280" lon="78.21615084"><ele>399.110</ele><time>2026-02-23T08:47:09Z</time><speed>9.250</speed><sat>39</sat></trkpt>
  <trkpt lat="12.51523363" lon="78.21610392"><ele>398.969</ele><time>2026-02-23T08:47:10Z</time><speed>9.500</speed><sat>40</sat></trkpt>
  <trkpt lat="12.51530286" lon="78.21605595"><ele>398.460</ele><time>2026-02-23T08:47:11Z</time><speed>9.580</speed><sat>44</sat></trkpt>
  <trkpt lat="12.51537335" lon="78.21600205"><ele>398.869</ele><time>2026-02-23T08:47:12Z</time><speed>9.570</speed><sat>45</sat></trkpt>
  <trkpt lat="12.51544700" lon="78.21594592"><ele>398.821</ele><time>2026-02-23T08:47:13Z</time><speed>9.950</speed><sat>47</sat></trkpt>
  <trkpt lat="12.51551452" lon="78.21589303"><ele>398.193</ele><time>2026-02-23T08:47:14Z</time><speed>9.840</speed><sat>47</sat></trkpt>
  <trkpt lat="12.51558500" lon="78.21583865"><ele>398.217</ele><time>2026-02-23T08:47:15Z</time><speed>9.760</speed><sat>47</sat></trkpt>
  <trkpt lat="12.51565004" lon="78.21578492"><ele>397.986</ele><time>2026-02-23T08:47:16Z</time><speed>9.720</speed><sat>44</sat></trkpt>
  <trkpt lat="12.51571858" lon="78.21572720"><ele>398.079</ele><time>2026-02-23T08:47:17Z</time><speed>9.580</speed><sat>45</sat></trkpt>
  <trkpt lat="12.51578449" lon="78.21567412"><ele>398.061</ele><time>2026-02-23T08:47:18Z</time><speed>9.530</speed><sat>45</sat></trkpt>
  <trkpt lat="12.51584988" lon="78.21561808"><ele>398.443</ele><time>2026-02-23T08:47:19Z</time><speed>9.440</speed><sat>48</sat></trkpt>
  <trkpt lat="12.51591699" lon="78.21556786"><ele>398.608</ele><time>2026-02-23T08:47:20Z</time><speed>9.130</speed><sat>49</sat></trkpt>
  <trkpt lat="12.51598323" lon="78.21551257"><ele>398.780</ele><time>2026-02-23T08:47:21Z</time><speed>9.140</speed><sat>49</sat></trkpt>
  <trkpt lat="12.51604657" lon="78.21546149"><ele>399.203</ele><time>2026-02-23T08:47:22Z</time><speed>9.030</speed><sat>50</sat></trkpt>
  <trkpt lat="12.51611260" lon="78.21540700"><ele>399.513</ele><time>2026-02-23T08:47:23Z</time><speed>8.910</speed><sat>50</sat></trkpt>
  <trkpt lat="12.51618116" lon="78.21535773"><ele>399.412</ele><time>2026-02-23T08:47:24Z</time><speed>8.840</speed><sat>50</sat></trkpt>
  <trkpt lat="12.51624196" lon="78.21530764"><ele>399.560</ele><time>2026-02-23T08:47:25Z</time><speed>8.790</speed><sat>49</sat></trkpt>
  <trkpt lat="12.51630259" lon="78.21525655"><ele>399.607</ele><time>2026-02-23T08:47:26Z</time><speed>8.880</speed><sat>50</sat></trkpt>
  <trkpt lat="12.51636445" lon="78.21520489"><ele>399.780</ele><time>2026-02-23T08:47:27Z</time><speed>8.740</speed><sat>51</sat></trkpt>
  <trkpt lat="12.51642541" lon="78.21515808"><ele>400.369</ele><time>2026-02-23T08:47:28Z</time><speed>8.470</speed><sat>51</sat></trkpt>
  <trkpt lat="12.51648356" lon="78.21511188"><ele>400.142</ele><time>2026-02-23T08:47:29Z</time><speed>8.580</speed><sat>51</sat></trkpt>
  <trkpt lat="12.51654507" lon="78.21506538"><ele>399.919</ele><time>2026-02-23T08:47:30Z</time><speed>8.620</speed><sat>51</sat></trkpt>
  <trkpt lat="12.51660948" lon="78.21501745"><ele>399.741</ele><time>2026-02-23T08:47:31Z</time><speed>8.650</speed><sat>51</sat></trkpt>
  <trkpt lat="12.51667213" lon="78.21496828"><ele>399.647</ele><time>2026-02-23T08:47:32Z</time><speed>8.610</speed><sat>51</sat></trkpt>
  <trkpt lat="12.51673411" lon="78.21492279"><ele>399.440</ele><time>2026-02-23T08:47:33Z</time><speed>8.450</speed><sat>51</sat></trkpt>
  <trkpt lat="12.51679642" lon="78.21487426"><ele>399.120</ele><time>2026-02-23T08:47:34Z</time><speed>8.510</speed><sat>51</sat></trkpt>
  <trkpt lat="12.51685881" lon="78.21482699"><ele>399.012</ele><time>2026-02-23T08:47:35Z</time><speed>8.480</speed><sat>27</sat></trkpt>
  <trkpt lat="12.51692001" lon="78.21477974"><ele>399.017</ele><time>2026-02-23T08:47:36Z</time><speed>8.480</speed><sat>27</sat></trkpt>
  <trkpt lat="12.51698399" lon="78.21473883"><ele>398.863</ele><time>2026-02-23T08:47:37Z</time><speed>8.510</speed><sat>27</sat></trkpt>
  <trkpt lat="12.51704555" lon="78.21469109"><ele>398.336</ele><time>2026-02-23T08:47:38Z</time><speed>8.770</speed><sat>27</sat></trkpt>
  <trkpt lat="12.51709821" lon="78.21464569"><ele>398.055</ele><time>2026-02-23T08:47:39Z</time><speed>8.620</speed><sat>25</sat></trkpt>
  <trkpt lat="12.51715612" lon="78.21460073"><ele>398.683</ele><time>2026-02-23T08:47:40Z</time><speed>8.720</speed><sat>25</sat></trkpt>
  <trkpt lat="12.51722429" lon="78.21455967"><ele>399.596</ele><time>2026-02-23T08:47:41Z</time><speed>8.720</speed><sat>21</sat></trkpt>
  <trkpt lat="12.51729701" lon="78.21452176"><ele>398.276</ele><time>2026-02-23T08:47:42Z</time><speed>8.680</speed><sat>18</sat></trkpt>
  <trkpt lat="12.51735899" lon="78.21447788"><ele>399.230</ele><time>2026-02-23T08:47:43Z</time><speed>8.140</speed><sat>17</sat></trkpt>
  <trkpt lat="12.51742425" lon="78.21442965"><ele>400.568</ele><time>2026-02-23T08:47:44Z</time><speed>8.230</speed><sat>18</sat></trkpt>
  <trkpt lat="12.51748669" lon="78.21437516"><ele>400.656</ele><time>2026-02-23T08:47:45Z</time><speed>7.740</speed><sat>20</sat></trkpt>
  <trkpt lat="12.51753584" lon="78.21433566"><ele>402.235</ele><time>2026-02-23T08:47:46Z</time><speed>7.940</speed><sat>22</sat></trkpt>
  <trkpt lat="12.51759781" lon="78.21429248"><ele>401.656</ele><time>2026-02-23T08:47:47Z</time><speed>8.070</speed><sat>23</sat></trkpt>
  <trkpt lat="12.51766343" lon="78.21424399"><ele>401.684</ele><time>2026-02-23T08:47:48Z</time><speed>8.380</speed><sat>21</sat></trkpt>
  <trkpt lat="12.51771815" lon="78.21420003"><ele>402.006</ele><time>2026-02-23T08:47:49Z</time><speed>8.300</speed><sat>18</sat></trkpt>
  <trkpt lat="12.51778465" lon="78.21415579"><ele>401.058</ele><time>2026-02-23T08:47:50Z</time><speed>8.460</speed><sat>19</sat></trkpt>
  <trkpt lat="12.51785307" lon="78.21411544"><ele>401.167</ele><time>2026-02-23T08:47:51Z</time><speed>8.220</speed><sat>19</sat></trkpt>
  <trkpt lat="12.51791318" lon="78.21407015"><ele>401.121</ele><time>2026-02-23T08:47:52Z</time><speed>8.260</speed><sat>19</sat></trkpt>
  <trkpt lat="12.51795146" lon="78.21403960"><ele>401.573</ele><time>2026-02-23T08:47:53Z</time><speed>8.210</speed><sat>14</sat></trkpt>
  <trkpt lat="12.51801154" lon="78.21399526"><ele>401.596</ele><time>2026-02-23T08:47:54Z</time><speed>8.200</speed><sat>14</sat></trkpt>
  <trkpt lat="12.51805899" lon="78.21395719"><ele>401.813</ele><time>2026-02-23T08:47:55Z</time><speed>7.870</speed><sat>16</sat></trkpt>
  <trkpt lat="12.51811458" lon="78.21391437"><ele>402.100</ele><time>2026-02-23T08:47:56Z</time><speed>7.900</speed><sat>16</sat></trkpt>
  <trkpt lat="12.51817241" lon="78.21387141"><ele>402.058</ele><time>2026-02-23T08:47:57Z</time><speed>7.910</speed><sat>16</sat></trkpt>
  <trkpt lat="12.51823208" lon="78.21381413"><ele>400.982</ele><time>2026-02-23T08:47:58Z</time><speed>8.160</speed><sat>18</sat></trkpt>
  <trkpt lat="12.51829283" lon="78.21376824"><ele>401.824</ele><time>2026-02-23T08:47:59Z</time><speed>8.260</speed><sat>20</sat></trkpt>
  <trkpt lat="12.51835130" lon="78.21372155"><ele>401.827</ele><time>2026-02-23T08:48:00Z</time><speed>8.220</speed><sat>20</sat></trkpt>
  <trkpt lat="12.51841471" lon="78.21366749"><ele>400.394</ele><time>2026-02-23T08:48:01Z</time><speed>8.270</speed><sat>18</sat></trkpt>
  <trkpt lat="12.51847427" lon="78.21362019"><ele>400.353</ele><time>2026-02-23T08:48:02Z</time><speed>8.340</speed><sat>18</sat></trkpt>
  <trkpt lat="12.51853614" lon="78.21357143"><ele>401.451</ele><time>2026-02-23T08:48:03Z</time><speed>8.410</speed><sat>19</sat></trkpt>
  <trkpt lat="12.51859837" lon="78.21351935"><ele>400.201</ele><time>2026-02-23T08:48:04Z</time><speed>8.410</speed><sat>17</sat></trkpt>
  <trkpt lat="12.51866237" lon="78.21347775"><ele>398.881</ele><time>2026-02-23T08:48:05Z</time><speed>8.070</speed><sat>21</sat></trkpt>
  <trkpt lat="12.51871294" lon="78.21343646"><ele>399.222</ele><time>2026-02-23T08:48:06Z</time><speed>8.050</speed><sat>17</sat></trkpt>
  <trkpt lat="12.51876843" lon="78.21339576"><ele>399.237</ele><time>2026-02-23T08:48:07Z</time><speed>7.870</speed><sat>17</sat></trkpt>
  <trkpt lat="12.51883145" lon="78.21335184"><ele>399.785</ele><time>2026-02-23T08:48:08Z</time><speed>8.080</speed><sat>18</sat></trkpt>
  <trkpt lat="12.51889334" lon="78.21330993"><ele>399.788</ele><time>2026-02-23T08:48:09Z</time><speed>8.180</speed><sat>11</sat></trkpt>
  <trkpt lat="12.51894188" lon="78.21327268"><ele>399.338</ele><time>2026-02-23T08:48:10Z</time><speed>8.790</speed><sat>20</sat></trkpt>
  <trkpt lat="12.51900476" lon="78.21322499"><ele>399.302</ele><time>2026-02-23T08:48:11Z</time><speed>8.680</speed><sat>20</sat></trkpt>
  <trkpt lat="12.51908185" lon="78.21317567"><ele>399.937</ele><time>2026-02-23T08:48:12Z</time><speed>9.250</speed><sat>12</sat></trkpt>
  <trkpt lat="12.51914770" lon="78.21312493"><ele>400.002</ele><time>2026-02-23T08:48:13Z</time><speed>9.150</speed><sat>12</sat></trkpt>
  <trkpt lat="12.51921812" lon="78.21306214"><ele>399.714</ele><time>2026-02-23T08:48:14Z</time><speed>9.340</speed><sat>17</sat></trkpt>
  <trkpt lat="12.51928735" lon="78.21300908"><ele>399.450</ele><time>2026-02-23T08:48:15Z</time><speed>9.400</speed><sat>16</sat></trkpt>
  <trkpt lat="12.51935483" lon="78.21295964"><ele>399.839</ele><time>2026-02-23T08:48:16Z</time><speed>9.410</speed><sat>18</sat></trkpt>
  <trkpt lat="12.51942279" lon="78.21290186"><ele>400.173</ele><time>2026-02-23T08:48:17Z</time><speed>9.500</speed><sat>16</sat></trkpt>
  <trkpt lat="12.51948796" lon="78.21284469"><ele>400.037</ele><time>2026-02-23T08:48:18Z</time><speed>9.520</speed><sat>16</sat></trkpt>
  <trkpt lat="12.51955629" lon="78.21279161"><ele>400.091</ele><time>2026-02-23T08:48:19Z</time><speed>9.510</speed><sat>16</sat></trkpt>
  <trkpt lat="12.51961011" lon="78.21275682"><ele>400.849</ele><time>2026-02-23T08:48:20Z</time><speed>9.460</speed><sat>16</sat></trkpt>
  <trkpt lat="12.51967154" lon="78.21269523"><ele>399.985</ele><time>2026-02-23T08:48:21Z</time><speed>9.240</speed><sat>17</sat></trkpt>
  <trkpt lat="12.51974111" lon="78.21263747"><ele>400.139</ele><time>2026-02-23T08:48:22Z</time><speed>9.340</speed><sat>21</sat></trkpt>
  <trkpt lat="12.51980891" lon="78.21258295"><ele>400.317</ele><time>2026-02-23T08:48:23Z</time><speed>9.350</speed><sat>18</sat></trkpt>
  <trkpt lat="12.51987089" lon="78.21253640"><ele>400.898</ele><time>2026-02-23T08:48:24Z</time><speed>9.480</speed><sat>21</sat></trkpt>
  <trkpt lat="12.51993931" lon="78.21248501"><ele>401.711</ele><time>2026-02-23T08:48:25Z</time><speed>9.340</speed><sat>18</sat></trkpt>
  <trkpt lat="12.52000999" lon="78.21242811"><ele>402.573</ele><time>2026-02-23T08:48:26Z</time><speed>9.400</speed><sat>21</sat></trkpt>
  <trkpt lat="12.52007747" lon="78.21237264"><ele>402.306</ele><time>2026-02-23T08:48:27Z</time><speed>9.200</speed><sat>19</sat></trkpt>
  <trkpt lat="12.52014217" lon="78.21232162"><ele>404.132</ele><time>2026-02-23T08:48:28Z</time><speed>9.130</speed><sat>20</sat></trkpt>
  <trkpt lat="12.52021382" lon="78.21227441"><ele>404.092</ele><time>2026-02-23T08:48:29Z</time><speed>9.080</speed><sat>21</sat></trkpt>
  <trkpt lat="12.52028185" lon="78.21222198"><ele>404.545</ele><time>2026-02-23T08:48:30Z</time><speed>9.070</speed><sat>18</sat></trkpt>
  <trkpt lat="12.52035439" lon="78.21216840"><ele>404.709</ele><time>2026-02-23T08:48:31Z</time><speed>9.330</speed><sat>17</sat></trkpt>
  <trkpt lat="12.52041928" lon="78.21211913"><ele>404.790</ele><time>2026-02-23T08:48:32Z</time><speed>8.910</speed><sat>17</sat></trkpt>
  <trkpt lat="12.52048214" lon="78.21206907"><ele>403.732</ele><time>2026-02-23T08:48:33Z</time><speed>9.140</speed><sat>16</sat></trkpt>
  <trkpt lat="12.52055107" lon="78.21202379"><ele>403.105</ele><time>2026-02-23T08:48:34Z</time><speed>9.100</speed><sat>15</sat></trkpt>
  <trkpt lat="12.52061754" lon="78.21197722"><ele>401.704</ele><time>2026-02-23T08:48:35Z</time><speed>9.200</speed><sat>16</sat></trkpt>
  <trkpt lat="12.52068822" lon="78.21192308"><ele>402.541</ele><time>2026-02-23T08:48:36Z</time><speed>9.410</speed><sat>15</sat></trkpt>
  <trkpt lat="12.52075543" lon="78.21187099"><ele>402.630</ele><time>2026-02-23T08:48:37Z</time><speed>9.260</speed><sat>16</sat></trkpt>
  <trkpt lat="12.52082026" lon="78.21182098"><ele>401.886</ele><time>2026-02-23T08:48:38Z</time><speed>9.270</speed><sat>18</sat></trkpt>
  <trkpt lat="12.52089010" lon="78.21176688"><ele>401.526</ele><time>2026-02-23T08:48:39Z</time><speed>9.270</speed><sat>17</sat></trkpt>
  <trkpt lat="12.52095270" lon="78.21171581"><ele>401.627</ele><time>2026-02-23T08:48:40Z</time><speed>9.090</speed><sat>21</sat></trkpt>
  <trkpt lat="12.52102752" lon="78.21166504"><ele>401.736</ele><time>2026-02-23T08:48:41Z</time><speed>8.950</speed><sat>20</sat></trkpt>
  <trkpt lat="12.52108916" lon="78.21161384"><ele>402.127</ele><time>2026-02-23T08:48:42Z</time><speed>8.850</speed><sat>19</sat></trkpt>
  <trkpt lat="12.52115519" lon="78.21156444"><ele>402.918</ele><time>2026-02-23T08:48:43Z</time><speed>8.790</speed><sat>17</sat></trkpt>
  <trkpt lat="12.52122233" lon="78.21151445"><ele>403.219</ele><time>2026-02-23T08:48:44Z</time><speed>9.420</speed><sat>20</sat></trkpt>
  <trkpt lat="12.52128857" lon="78.21145831"><ele>402.601</ele><time>2026-02-23T08:48:45Z</time><speed>9.370</speed><sat>20</sat></trkpt>
  <trkpt lat="12.52135493" lon="78.21141245"><ele>403.294</ele><time>2026-02-23T08:48:46Z</time><speed>8.640</speed><sat>41</sat></trkpt>
  <trkpt lat="12.52142395" lon="78.21136169"><ele>403.844</ele><time>2026-02-23T08:48:47Z</time><speed>9.010</speed><sat>47</sat></trkpt>
  <trkpt lat="12.52148890" lon="78.21131312"><ele>404.551</ele><time>2026-02-23T08:48:48Z</time><speed>8.990</speed><sat>48</sat></trkpt>
  <trkpt lat="12.52155251" lon="78.21126413"><ele>404.950</ele><time>2026-02-23T08:48:49Z</time><speed>8.910</speed><sat>51</sat></trkpt>
  <trkpt lat="12.52161687" lon="78.21121603"><ele>405.579</ele><time>2026-02-23T08:48:50Z</time><speed>8.990</speed><sat>52</sat></trkpt>
  <trkpt lat="12.52167995" lon="78.21116486"><ele>405.760</ele><time>2026-02-23T08:48:51Z</time><speed>9.200</speed><sat>53</sat></trkpt>
  <trkpt lat="12.52174972" lon="78.21111465"><ele>405.690</ele><time>2026-02-23T08:48:52Z</time><speed>9.260</speed><sat>52</sat></trkpt>
  <trkpt lat="12.52181037" lon="78.21107041"><ele>405.456</ele><time>2026-02-23T08:48:53Z</time><speed>9.340</speed><sat>52</sat></trkpt>
  <trkpt lat="12.52188097" lon="78.21101846"><ele>405.290</ele><time>2026-02-23T08:48:54Z</time><speed>9.510</speed><sat>52</sat></trkpt>
  <trkpt lat="12.52195160" lon="78.21096938"><ele>405.581</ele><time>2026-02-23T08:48:55Z</time><speed>9.670</speed><sat>52</sat></trkpt>
  <trkpt lat="12.52202249" lon="78.21091664"><ele>405.877</ele><time>2026-02-23T08:48:56Z</time><speed>9.810</speed><sat>53</sat></trkpt>
  <trkpt lat="12.52209583" lon="78.21086628"><ele>405.792</ele><time>2026-02-23T08:48:57Z</time><speed>9.700</speed><sat>51</sat></trkpt>
  <trkpt lat="12.52216701" lon="78.21081788"><ele>405.886</ele><time>2026-02-23T08:48:58Z</time><speed>9.530</speed><sat>52</sat></trkpt>
  <trkpt lat="12.52223937" lon="78.21076718"><ele>406.137</ele><time>2026-02-23T08:48:59Z</time><speed>9.390</speed><sat>27</sat></trkpt>
  <trkpt lat="12.52230981" lon="78.21071776"><ele>406.154</ele><time>2026-02-23T08:49:00Z</time><speed>9.390</speed><sat>27</sat></trkpt>
  <trkpt lat="12.52238209" lon="78.21067469"><ele>405.840</ele><time>2026-02-23T08:49:01Z</time><speed>9.130</speed><sat>25</sat></trkpt>
  <trkpt lat="12.52244945" lon="78.21062610"><ele>405.857</ele><time>2026-02-23T08:49:02Z</time><speed>9.130</speed><sat>25</sat></trkpt>
  <trkpt lat="12.52250987" lon="78.21058741"><ele>404.869</ele><time>2026-02-23T08:49:03Z</time><speed>8.590</speed><sat>24</sat></trkpt>
  <trkpt lat="12.52256429" lon="78.21054515"><ele>405.393</ele><time>2026-02-23T08:49:04Z</time><speed>8.040</speed><sat>21</sat></trkpt>
  <trkpt lat="12.52262472" lon="78.21050183"><ele>405.318</ele><time>2026-02-23T08:49:05Z</time><speed>8.080</speed><sat>25</sat></trkpt>
  <trkpt lat="12.52268744" lon="78.21045922"><ele>405.708</ele><time>2026-02-23T08:49:06Z</time><speed>8.240</speed><sat>13</sat></trkpt>
  <trkpt lat="12.52275420" lon="78.21041567"><ele>407.056</ele><time>2026-02-23T08:49:07Z</time><speed>8.550</speed><sat>16</sat></trkpt>
  <trkpt lat="12.52281722" lon="78.21036806"><ele>407.390</ele><time>2026-02-23T08:49:08Z</time><speed>8.800</speed><sat>16</sat></trkpt>
  <trkpt lat="12.52287644" lon="78.21032495"><ele>407.826</ele><time>2026-02-23T08:49:09Z</time><speed>8.430</speed><sat>14</sat></trkpt>
  <trkpt lat="12.52293581" lon="78.21028696"><ele>406.474</ele><time>2026-02-23T08:49:10Z</time><speed>8.260</speed><sat>12</sat></trkpt>
  <trkpt lat="12.52299998" lon="78.21024377"><ele>407.006</ele><time>2026-02-23T08:49:11Z</time><speed>8.170</speed><sat>17</sat></trkpt>
  <trkpt lat="12.52306328" lon="78.21019327"><ele>408.729</ele><time>2026-02-23T08:49:12Z</time><speed>8.220</speed><sat>16</sat></trkpt>
  <trkpt lat="12.52312438" lon="78.21015103"><ele>406.277</ele><time>2026-02-23T08:49:13Z</time><speed>8.540</speed><sat>16</sat></trkpt>
  <trkpt lat="12.52318879" lon="78.21009986"><ele>406.528</ele><time>2026-02-23T08:49:14Z</time><speed>8.580</speed><sat>17</sat></trkpt>
  <trkpt lat="12.52325370" lon="78.21004968"><ele>406.736</ele><time>2026-02-23T08:49:15Z</time><speed>8.760</speed><sat>15</sat></trkpt>
  <trkpt lat="12.52332011" lon="78.20999444"><ele>406.792</ele><time>2026-02-23T08:49:16Z</time><speed>8.950</speed><sat>15</sat></trkpt>
  <trkpt lat="12.52338733" lon="78.20994795"><ele>406.987</ele><time>2026-02-23T08:49:17Z</time><speed>9.200</speed><sat>17</sat></trkpt>
  <trkpt lat="12.52346212" lon="78.20989933"><ele>406.374</ele><time>2026-02-23T08:49:18Z</time><speed>8.960</speed><sat>17</sat></trkpt>
  <trkpt lat="12.52352663" lon="78.20985520"><ele>407.123</ele><time>2026-02-23T08:49:19Z</time><speed>9.440</speed><sat>18</sat></trkpt>
  <trkpt lat="12.52359306" lon="78.20979852"><ele>407.108</ele><time>2026-02-23T08:49:20Z</time><speed>9.960</speed><sat>20</sat></trkpt>
  <trkpt lat="12.52367200" lon="78.20974693"><ele>407.225</ele><time>2026-02-23T08:49:21Z</time><speed>9.990</speed><sat>17</sat></trkpt>
  <trkpt lat="12.52374786" lon="78.20969290"><ele>405.708</ele><time>2026-02-23T08:49:22Z</time><speed>9.890</speed><sat>16</sat></trkpt>
  <trkpt lat="12.52381766" lon="78.20963867"><ele>405.217</ele><time>2026-02-23T08:49:23Z</time><speed>9.930</speed><sat>15</sat></trkpt>
  <trkpt lat="12.52388761" lon="78.20958379"><ele>405.704</ele><time>2026-02-23T08:49:24Z</time><speed>9.830</speed><sat>30</sat></trkpt>
  <trkpt lat="12.52396099" lon="78.20952565"><ele>404.809</ele><time>2026-02-23T08:49:25Z</time><speed>9.730</speed><sat>35</sat></trkpt>
  <trkpt lat="12.52403165" lon="78.20946923"><ele>404.364</ele><time>2026-02-23T08:49:26Z</time><speed>9.880</speed><sat>41</sat></trkpt>
  <trkpt lat="12.52409640" lon="78.20941230"><ele>404.608</ele><time>2026-02-23T08:49:27Z</time><speed>9.810</speed><sat>41</sat></trkpt>
  <trkpt lat="12.52416425" lon="78.20935484"><ele>404.049</ele><time>2026-02-23T08:49:28Z</time><speed>9.660</speed><sat>40</sat></trkpt>
  <trkpt lat="12.52422822" lon="78.20929862"><ele>403.245</ele><time>2026-02-23T08:49:29Z</time><speed>9.320</speed><sat>44</sat></trkpt>
  <trkpt lat="12.52431840" lon="78.20922574"><ele>403.446</ele><time>2026-02-23T08:49:30Z</time><speed>11.280</speed><sat>44</sat></trkpt>
  <trkpt lat="12.52437655" lon="78.20919726"><ele>403.198</ele><time>2026-02-23T08:49:31Z</time><speed>8.640</speed><sat>43</sat></trkpt>
  <trkpt lat="12.52444439" lon="78.20914365"><ele>403.596</ele><time>2026-02-23T08:49:32Z</time><speed>9.580</speed><sat>43</sat></trkpt>
  <trkpt lat="12.52451775" lon="78.20908673"><ele>402.705</ele><time>2026-02-23T08:49:33Z</time><speed>9.870</speed><sat>44</sat></trkpt>
  <trkpt lat="12.52457793" lon="78.20903430"><ele>403.391</ele><time>2026-02-23T08:49:34Z</time><speed>9.650</speed><sat>44</sat></trkpt>
  <trkpt lat="12.52465851" lon="78.20897466"><ele>403.627</ele><time>2026-02-23T08:49:35Z</time><speed>9.900</speed><sat>43</sat></trkpt>
  <trkpt lat="12.52471858" lon="78.20892904"><ele>405.761</ele><time>2026-02-23T08:49:36Z</time><speed>9.110</speed><sat>41</sat></trkpt>
  <trkpt lat="12.52478381" lon="78.20887526"><ele>407.211</ele><time>2026-02-23T08:49:37Z</time><speed>9.600</speed><sat>44</sat></trkpt>
  <trkpt lat="12.52485332" lon="78.20883074"><ele>407.624</ele><time>2026-02-23T08:49:38Z</time><speed>9.580</speed><sat>43</sat></trkpt>
  <trkpt lat="12.52492510" lon="78.20878197"><ele>407.121</ele><time>2026-02-23T08:49:39Z</time><speed>10.020</speed><sat>41</sat></trkpt>
  <trkpt lat="12.52500267" lon="78.20872461"><ele>406.595</ele><time>2026-02-23T08:49:40Z</time><speed>9.910</speed><sat>41</sat></trkpt>
  <trkpt lat="12.52507831" lon="78.20867437"><ele>408.050</ele><time>2026-02-23T08:49:41Z</time><speed>10.020</speed><sat>37</sat></trkpt>
  <trkpt lat="12.52515315" lon="78.20862246"><ele>406.441</ele><time>2026-02-23T08:49:42Z</time><speed>10.110</speed><sat>37</sat></trkpt>
  <trkpt lat="12.52523952" lon="78.20856781"><ele>406.658</ele><time>2026-02-23T08:49:43Z</time><speed>10.220</speed><sat>35</sat></trkpt>
  <trkpt lat="12.52531177" lon="78.20851461"><ele>406.883</ele><time>2026-02-23T08:49:44Z</time><speed>10.330</speed><sat>36</sat></trkpt>
  <trkpt lat="12.52538943" lon="78.20846263"><ele>406.343</ele><time>2026-02-23T08:49:45Z</time><speed>10.510</speed><sat>38</sat></trkpt>
  <trkpt lat="12.52546468" lon="78.20840680"><ele>405.885</ele><time>2026-02-23T08:49:46Z</time><speed>10.430</speed><sat>38</sat></trkpt>
  <trkpt lat="12.52553684" lon="78.20834955"><ele>406.572</ele><time>2026-02-23T08:49:47Z</time><speed>10.160</speed><sat>39</sat></trkpt>
  <trkpt lat="12.52561089" lon="78.20829848"><ele>407.371</ele><time>2026-02-23T08:49:48Z</time><speed>10.080</speed><sat>42</sat></trkpt>
  <trkpt lat="12.52568205" lon="78.20824563"><ele>407.285</ele><time>2026-02-23T08:49:49Z</time><speed>10.000</speed><sat>40</sat></trkpt>
  <trkpt lat="12.52575741" lon="78.20819248"><ele>407.685</ele><time>2026-02-23T08:49:50Z</time><speed>9.890</speed><sat>40</sat></trkpt>
  <trkpt lat="12.52583369" lon="78.20813919"><ele>407.949</ele><time>2026-02-23T08:49:51Z</time><speed>10.090</speed><sat>39</sat></trkpt>
  <trkpt lat="12.52590864" lon="78.20808917"><ele>408.048</ele><time>2026-02-23T08:49:52Z</time><speed>10.010</speed><sat>39</sat></trkpt>
  <trkpt lat="12.52598307" lon="78.20803912"><ele>408.180</ele><time>2026-02-23T08:49:53Z</time><speed>9.960</speed><sat>40</sat></trkpt>
  <trkpt lat="12.52606041" lon="78.20798752"><ele>408.099</ele><time>2026-02-23T08:49:54Z</time><speed>9.880</speed><sat>40</sat></trkpt>
  <trkpt lat="12.52613467" lon="78.20793731"><ele>408.328</ele><time>2026-02-23T08:49:55Z</time><speed>9.790</speed><sat>41</sat></trkpt>
  <trkpt lat="12.52620487" lon="78.20788941"><ele>408.498</ele><time>2026-02-23T08:49:56Z</time><speed>9.710</speed><sat>39</sat></trkpt>
  <trkpt lat="12.52627584" lon="78.20783843"><ele>408.625</ele><time>2026-02-23T08:49:57Z</time><speed>9.610</speed><sat>41</sat></trkpt>
  <trkpt lat="12.52635071" lon="78.20779396"><ele>408.617</ele><time>2026-02-23T08:49:58Z</time><speed>9.580</speed><sat>40</sat></trkpt>
  <trkpt lat="12.52642482" lon="78.20774469"><ele>408.841</ele><time>2026-02-23T08:49:59Z</time><speed>9.680</speed><sat>37</sat></trkpt>
  <trkpt lat="12.52649864" lon="78.20769141"><ele>408.716</ele><time>2026-02-23T08:50:00Z</time><speed>9.850</speed><sat>38</sat></trkpt>
  <trkpt lat="12.52657212" lon="78.20763996"><ele>408.482</ele><time>2026-02-23T08:50:01Z</time><speed>9.720</speed><sat>35</sat></trkpt>
  <trkpt lat="12.52663909" lon="78.20758775"><ele>409.054</ele><time>2026-02-23T08:50:02Z</time><speed>9.380</speed><sat>37</sat></trkpt>
  <trkpt lat="12.52671355" lon="78.20754155"><ele>408.917</ele><time>2026-02-23T08:50:03Z</time><speed>9.360</speed><sat>38</sat></trkpt>
  <trkpt lat="12.52678574" lon="78.20749324"><ele>409.148</ele><time>2026-02-23T08:50:04Z</time><speed>9.190</speed><sat>42</sat></trkpt>
  <trkpt lat="12.52685585" lon="78.20745032"><ele>409.302</ele><time>2026-02-23T08:50:05Z</time><speed>9.050</speed><sat>41</sat></trkpt>
  <trkpt lat="12.52692622" lon="78.20740616"><ele>409.638</ele><time>2026-02-23T08:50:06Z</time><speed>8.970</speed><sat>21</sat></trkpt>
  <trkpt lat="12.52699513" lon="78.20736159"><ele>409.701</ele><time>2026-02-23T08:50:07Z</time><speed>8.970</speed><sat>21</sat></trkpt>
  <trkpt lat="12.52706450" lon="78.20733017"><ele>408.955</ele><time>2026-02-23T08:50:08Z</time><speed>8.780</speed><sat>20</sat></trkpt>
  <trkpt lat="12.52713417" lon="78.20728937"><ele>408.990</ele><time>2026-02-23T08:50:09Z</time><speed>8.850</speed><sat>20</sat></trkpt>
  <trkpt lat="12.52721483" lon="78.20725036"><ele>408.358</ele><time>2026-02-23T08:50:10Z</time><speed>9.130</speed><sat>13</sat></trkpt>
  <trkpt lat="12.52727871" lon="78.20721030"><ele>409.415</ele><time>2026-02-23T08:50:11Z</time><speed>8.920</speed><sat>31</sat></trkpt>
  <trkpt lat="12.52734768" lon="78.20716651"><ele>409.494</ele><time>2026-02-23T08:50:12Z</time><speed>8.790</speed><sat>33</sat></trkpt>
  <trkpt lat="12.52741927" lon="78.20712117"><ele>410.168</ele><time>2026-02-23T08:50:13Z</time><speed>8.690</speed><sat>35</sat></trkpt>
  <trkpt lat="12.52749151" lon="78.20708993"><ele>409.852</ele><time>2026-02-23T08:50:14Z</time><speed>8.530</speed><sat>37</sat></trkpt>
  <trkpt lat="12.52755994" lon="78.20705059"><ele>410.070</ele><time>2026-02-23T08:50:15Z</time><speed>8.610</speed><sat>37</sat></trkpt>
  <trkpt lat="12.52763436" lon="78.20700931"><ele>409.439</ele><time>2026-02-23T08:50:16Z</time><speed>8.770</speed><sat>37</sat></trkpt>
  <trkpt lat="12.52770159" lon="78.20697167"><ele>409.923</ele><time>2026-02-23T08:50:17Z</time><speed>8.850</speed><sat>37</sat></trkpt>
  <trkpt lat="12.52777409" lon="78.20693324"><ele>410.698</ele><time>2026-02-23T08:50:18Z</time><speed>8.930</speed><sat>37</sat></trkpt>
  <trkpt lat="12.52784940" lon="78.20689627"><ele>411.081</ele><time>2026-02-23T08:50:19Z</time><speed>8.940</speed><sat>37</sat></trkpt>
  <trkpt lat="12.52792526" lon="78.20685580"><ele>410.995</ele><time>2026-02-23T08:50:20Z</time><speed>8.980</speed><sat>37</sat></trkpt>
  <trkpt lat="12.52799297" lon="78.20681717"><ele>411.395</ele><time>2026-02-23T08:50:21Z</time><speed>8.910</speed><sat>37</sat></trkpt>
  <trkpt lat="12.52806572" lon="78.20677708"><ele>411.719</ele><time>2026-02-23T08:50:22Z</time><speed>9.080</speed><sat>36</sat></trkpt>
  <trkpt lat="12.52813663" lon="78.20674527"><ele>411.615</ele><time>2026-02-23T08:50:23Z</time><speed>8.900</speed><sat>36</sat></trkpt>
  <trkpt lat="12.52820640" lon="78.20670588"><ele>411.878</ele><time>2026-02-23T08:50:24Z</time><speed>8.680</speed><sat>39</sat></trkpt>
  <trkpt lat="12.52827739" lon="78.20666649"><ele>412.057</ele><time>2026-02-23T08:50:25Z</time><speed>8.780</speed><sat>39</sat></trkpt>
  <trkpt lat="12.52834586" lon="78.20662868"><ele>411.981</ele><time>2026-02-23T08:50:26Z</time><speed>8.860</speed><sat>39</sat></trkpt>
  <trkpt lat="12.52841862" lon="78.20658985"><ele>412.232</ele><time>2026-02-23T08:50:27Z</time><speed>8.960</speed><sat>39</sat></trkpt>
  <trkpt lat="12.52848829" lon="78.20655503"><ele>412.088</ele><time>2026-02-23T08:50:28Z</time><speed>9.050</speed><sat>39</sat></trkpt>
  <trkpt lat="12.52856384" lon="78.20652005"><ele>412.216</ele><time>2026-02-23T08:50:29Z</time><speed>9.400</speed><sat>39</sat></trkpt>
  <trkpt lat="12.52863804" lon="78.20648133"><ele>412.320</ele><time>2026-02-23T08:50:30Z</time><speed>9.390</speed><sat>37</sat></trkpt>
  <trkpt lat="12.52871364" lon="78.20643836"><ele>412.253</ele><time>2026-02-23T08:50:31Z</time><speed>9.320</speed><sat>35</sat></trkpt>
  <trkpt lat="12.52878265" lon="78.20639484"><ele>412.062</ele><time>2026-02-23T08:50:32Z</time><speed>9.170</speed><sat>36</sat></trkpt>
  <trkpt lat="12.52885796" lon="78.20635701"><ele>412.058</ele><time>2026-02-23T08:50:33Z</time><speed>8.840</speed><sat>35</sat></trkpt>
  <trkpt lat="12.52891847" lon="78.20632533"><ele>411.422</ele><time>2026-02-23T08:50:34Z</time><speed>7.430</speed><sat>36</sat></trkpt>
  <trkpt lat="12.52897548" lon="78.20629694"><ele>411.637</ele><time>2026-02-23T08:50:35Z</time><speed>6.280</speed><sat>35</sat></trkpt>
  <trkpt lat="12.52902373" lon="78.20626673"><ele>411.694</ele><time>2026-02-23T08:50:36Z</time><speed>6.090</speed><sat>35</sat></trkpt>
  <trkpt lat="12.52906245" lon="78.20624269"><ele>411.605</ele><time>2026-02-23T08:50:37Z</time><speed>4.950</speed><sat>36</sat></trkpt>
  <trkpt lat="12.52909290" lon="78.20622171"><ele>411.631</ele><time>2026-02-23T08:50:38Z</time><speed>3.510</speed><sat>37</sat></trkpt>
  <trkpt lat="12.52911158" lon="78.20620563"><ele>411.806</ele><time>2026-02-23T08:50:39Z</time><speed>2.090</speed><sat>37</sat></trkpt>
  <trkpt lat="12.52912353" lon="78.20619482"><ele>411.975</ele><time>2026-02-23T08:50:40Z</time><speed>1.080</speed><sat>37</sat></trkpt>
  <trkpt lat="12.52914045" lon="78.20618552"><ele>412.595</ele><time>2026-02-23T08:50:41Z</time><speed>1.850</speed><sat>37</sat></trkpt>
  <trkpt lat="12.52916259" lon="78.20617651"><ele>412.586</ele><time>2026-02-23T08:50:42Z</time><speed>2.440</speed><sat>36</sat></trkpt>
  <trkpt lat="12.52918685" lon="78.20616869"><ele>412.514</ele><time>2026-02-23T08:50:43Z</time><speed>3.220</speed><sat>37</sat></trkpt>
  <trkpt lat="12.52921317" lon="78.20615718"><ele>412.406</ele><time>2026-02-23T08:50:44Z</time><speed>3.560</speed><sat>37</sat></trkpt>
  <trkpt lat="12.52923952" lon="78.20614249"><ele>412.562</ele><time>2026-02-23T08:50:45Z</time><speed>3.440</speed><sat>37</sat></trkpt>
  <trkpt lat="12.52926431" lon="78.20612654"><ele>413.147</ele><time>2026-02-23T08:50:46Z</time><speed>3.460</speed><sat>36</sat></trkpt>
  <trkpt lat="12.52929293" lon="78.20610908"><ele>413.074</ele><time>2026-02-23T08:50:47Z</time><speed>3.930</speed><sat>37</sat></trkpt>
  <trkpt lat="12.52932640" lon="78.20609294"><ele>412.877</ele><time>2026-02-23T08:50:48Z</time><speed>4.440</speed><sat>38</sat></trkpt>
  <trkpt lat="12.52936603" lon="78.20607895"><ele>413.311</ele><time>2026-02-23T08:50:49Z</time><speed>4.970</speed><sat>38</sat></trkpt>
  <trkpt lat="12.52941099" lon="78.20606881"><ele>412.920</ele><time>2026-02-23T08:50:50Z</time><speed>5.030</speed><sat>19</sat></trkpt>
  <trkpt lat="12.52945322" lon="78.20605540"><ele>412.932</ele><time>2026-02-23T08:50:51Z</time><speed>5.030</speed><sat>19</sat></trkpt>
  <trkpt lat="12.52951428" lon="78.20603570"><ele>413.612</ele><time>2026-02-23T08:50:52Z</time><speed>6.030</speed><sat>15</sat></trkpt>
  <trkpt lat="12.52956477" lon="78.20601894"><ele>413.574</ele><time>2026-02-23T08:50:53Z</time><speed>5.820</speed><sat>17</sat></trkpt>
  <trkpt lat="12.52962191" lon="78.20599795"><ele>413.504</ele><time>2026-02-23T08:50:54Z</time><speed>5.880</speed><sat>18</sat></trkpt>
  <trkpt lat="12.52967102" lon="78.20597624"><ele>413.050</ele><time>2026-02-23T08:50:55Z</time><speed>5.800</speed><sat>14</sat></trkpt>
  <trkpt lat="12.52972190" lon="78.20595759"><ele>413.020</ele><time>2026-02-23T08:50:56Z</time><speed>5.820</speed><sat>14</sat></trkpt>
  <trkpt lat="12.52976106" lon="78.20594770"><ele>414.393</ele><time>2026-02-23T08:50:57Z</time><speed>4.620</speed><sat>14</sat></trkpt>
  <trkpt lat="12.52978619" lon="78.20594219"><ele>413.752</ele><time>2026-02-23T08:50:58Z</time><speed>2.930</speed><sat>14</sat></trkpt>
  <trkpt lat="12.52979972" lon="78.20592447"><ele>413.734</ele><time>2026-02-23T08:50:59Z</time><speed>1.640</speed><sat>12</sat></trkpt>
  <trkpt lat="12.52981570" lon="78.20592776"><ele>413.565</ele><time>2026-02-23T08:51:00Z</time><speed>1.840</speed><sat>12</sat></trkpt>
  <trkpt lat="12.52983561" lon="78.20592191"><ele>413.545</ele><time>2026-02-23T08:51:01Z</time><speed>1.830</speed><sat>12</sat></trkpt>
  <trkpt lat="12.52985324" lon="78.20593068"><ele>413.092</ele><time>2026-02-23T08:51:02Z</time><speed>3.750</speed><sat>12</sat></trkpt>
  <trkpt lat="12.52988257" lon="78.20591854"><ele>412.740</ele><time>2026-02-23T08:51:03Z</time><speed>3.560</speed><sat>10</sat></trkpt>
  <trkpt lat="12.52991545" lon="78.20590543"><ele>413.005</ele><time>2026-02-23T08:51:04Z</time><speed>4.600</speed><sat>13</sat></trkpt>
  <trkpt lat="12.52994861" lon="78.20589813"><ele>412.963</ele><time>2026-02-23T08:51:05Z</time><speed>5.280</speed><sat>12</sat></trkpt>
  <trkpt lat="12.52999610" lon="78.20587035"><ele>413.324</ele><time>2026-02-23T08:51:06Z</time><speed>5.720</speed><sat>11</sat></trkpt>
  <trkpt lat="12.53003859" lon="78.20585242"><ele>413.242</ele><time>2026-02-23T08:51:07Z</time><speed>6.380</speed><sat>11</sat></trkpt>
  <trkpt lat="12.53009173" lon="78.20582083"><ele>414.972</ele><time>2026-02-23T08:51:08Z</time><speed>6.710</speed><sat>13</sat></trkpt>
  <trkpt lat="12.53015205" lon="78.20580676"><ele>415.989</ele><time>2026-02-23T08:51:09Z</time><speed>6.680</speed><sat>14</sat></trkpt>
  <trkpt lat="12.53021053" lon="78.20578059"><ele>415.857</ele><time>2026-02-23T08:51:10Z</time><speed>6.650</speed><sat>12</sat></trkpt>
  <trkpt lat="12.53026787" lon="78.20575333"><ele>415.554</ele><time>2026-02-23T08:51:11Z</time><speed>6.720</speed><sat>14</sat></trkpt>
  <trkpt lat="12.53031730" lon="78.20573716"><ele>414.813</ele><time>2026-02-23T08:51:12Z</time><speed>6.810</speed><sat>14</sat></trkpt>
  <trkpt lat="12.53037853" lon="78.20570614"><ele>413.870</ele><time>2026-02-23T08:51:13Z</time><speed>6.870</speed><sat>17</sat></trkpt>
  <trkpt lat="12.53043187" lon="78.20567476"><ele>413.967</ele><time>2026-02-23T08:51:14Z</time><speed>7.470</speed><sat>13</sat></trkpt>
  <trkpt lat="12.53049178" lon="78.20564090"><ele>414.466</ele><time>2026-02-23T08:51:15Z</time><speed>7.970</speed><sat>16</sat></trkpt>
  <trkpt lat="12.53055324" lon="78.20560502"><ele>415.793</ele><time>2026-02-23T08:51:16Z</time><speed>7.610</speed><sat>17</sat></trkpt>
  <trkpt lat="12.53061884" lon="78.20558096"><ele>415.476</ele><time>2026-02-23T08:51:17Z</time><speed>8.050</speed><sat>17</sat></trkpt>
  <trkpt lat="12.53068619" lon="78.20555295"><ele>415.409</ele><time>2026-02-23T08:51:18Z</time><speed>8.040</speed><sat>17</sat></trkpt>
  <trkpt lat="12.53075643" lon="78.20552453"><ele>414.092</ele><time>2026-02-23T08:51:19Z</time><speed>8.760</speed><sat>11</sat></trkpt>
  <trkpt lat="12.53082078" lon="78.20549220"><ele>414.940</ele><time>2026-02-23T08:51:20Z</time><speed>8.760</speed><sat>14</sat></trkpt>
  <trkpt lat="12.53088202" lon="78.20546472"><ele>414.017</ele><time>2026-02-23T08:51:21Z</time><speed>8.720</speed><sat>15</sat></trkpt>
  <trkpt lat="12.53095454" lon="78.20542686"><ele>415.451</ele><time>2026-02-23T08:51:22Z</time><speed>8.790</speed><sat>14</sat></trkpt>
  <trkpt lat="12.53102920" lon="78.20538200"><ele>415.799</ele><time>2026-02-23T08:51:23Z</time><speed>9.150</speed><sat>15</sat></trkpt>
  <trkpt lat="12.53110457" lon="78.20534915"><ele>415.777</ele><time>2026-02-23T08:51:24Z</time><speed>9.070</speed><sat>15</sat></trkpt>
  <trkpt lat="12.53118118" lon="78.20531701"><ele>415.851</ele><time>2026-02-23T08:51:25Z</time><speed>9.100</speed><sat>16</sat></trkpt>
  <trkpt lat="12.53125799" lon="78.20528498"><ele>416.396</ele><time>2026-02-23T08:51:26Z</time><speed>9.210</speed><sat>18</sat></trkpt>
  <trkpt lat="12.53133807" lon="78.20525573"><ele>416.915</ele><time>2026-02-23T08:51:27Z</time><speed>9.340</speed><sat>17</sat></trkpt>
  <trkpt lat="12.53142084" lon="78.20522189"><ele>416.874</ele><time>2026-02-23T08:51:28Z</time><speed>9.230</speed><sat>17</sat></trkpt>
  <trkpt lat="12.53149331" lon="78.20519039"><ele>417.193</ele><time>2026-02-23T08:51:29Z</time><speed>9.400</speed><sat>16</sat></trkpt>
  <trkpt lat="12.53157199" lon="78.20515967"><ele>417.079</ele><time>2026-02-23T08:51:30Z</time><speed>9.520</speed><sat>17</sat></trkpt>
  <trkpt lat="12.53165798" lon="78.20512901"><ele>417.956</ele><time>2026-02-23T08:51:31Z</time><speed>9.750</speed><sat>16</sat></trkpt>
  <trkpt lat="12.53173817" lon="78.20509194"><ele>417.243</ele><time>2026-02-23T08:51:32Z</time><speed>10.390</speed><sat>16</sat></trkpt>
  <trkpt lat="12.53182993" lon="78.20506062"><ele>419.010</ele><time>2026-02-23T08:51:33Z</time><speed>10.560</speed><sat>15</sat></trkpt>
  <trkpt lat="12.53192281" lon="78.20502908"><ele>419.100</ele><time>2026-02-23T08:51:34Z</time><speed>10.380</speed><sat>15</sat></trkpt>
  <trkpt lat="12.53201674" lon="78.20497776"><ele>418.019</ele><time>2026-02-23T08:51:35Z</time><speed>10.220</speed><sat>15</sat></trkpt>
  <trkpt lat="12.53210127" lon="78.20494362"><ele>418.303</ele><time>2026-02-23T08:51:36Z</time><speed>10.550</speed><sat>15</sat></trkpt>
  <trkpt lat="12.53218405" lon="78.20491475"><ele>417.693</ele><time>2026-02-23T08:51:37Z</time><speed>10.500</speed><sat>18</sat></trkpt>
  <trkpt lat="12.53227816" lon="78.20487213"><ele>418.027</ele><time>2026-02-23T08:51:38Z</time><speed>10.370</speed><sat>19</sat></trkpt>
  <trkpt lat="12.53237294" lon="78.20484125"><ele>417.785</ele><time>2026-02-23T08:51:39Z</time><speed>10.080</speed><sat>17</sat></trkpt>
  <trkpt lat="12.53245802" lon="78.20480534"><ele>419.203</ele><time>2026-02-23T08:51:40Z</time><speed>9.910</speed><sat>18</sat></trkpt>
  <trkpt lat="12.53253613" lon="78.20475775"><ele>419.810</ele><time>2026-02-23T08:51:41Z</time><speed>9.560</speed><sat>17</sat></trkpt>
  <trkpt lat="12.53261811" lon="78.20472646"><ele>421.020</ele><time>2026-02-23T08:51:42Z</time><speed>9.270</speed><sat>18</sat></trkpt>
  <trkpt lat="12.53269965" lon="78.20469336"><ele>421.479</ele><time>2026-02-23T08:51:43Z</time><speed>9.030</speed><sat>17</sat></trkpt>
  <trkpt lat="12.53277273" lon="78.20465789"><ele>422.011</ele><time>2026-02-23T08:51:44Z</time><speed>8.660</speed><sat>17</sat></trkpt>
  <trkpt lat="12.53284597" lon="78.20463463"><ele>422.541</ele><time>2026-02-23T08:51:45Z</time><speed>8.380</speed><sat>19</sat></trkpt>
  <trkpt lat="12.53291488" lon="78.20460715"><ele>422.855</ele><time>2026-02-23T08:51:46Z</time><speed>7.630</speed><sat>17</sat></trkpt>
  <trkpt lat="12.53297621" lon="78.20458720"><ele>422.836</ele><time>2026-02-23T08:51:47Z</time><speed>6.580</speed><sat>20</sat></trkpt>
  <trkpt lat="12.53301897" lon="78.20457180"><ele>422.755</ele><time>2026-02-23T08:51:48Z</time><speed>4.400</speed><sat>17</sat></trkpt>
  <trkpt lat="12.53306136" lon="78.20455751"><ele>422.833</ele><time>2026-02-23T08:51:49Z</time><speed>4.880</speed><sat>17</sat></trkpt>
  <trkpt lat="12.53307351" lon="78.20454557"><ele>421.457</ele><time>2026-02-23T08:51:50Z</time><speed>1.920</speed><sat>17</sat></trkpt>
  <trkpt lat="12.53309764" lon="78.20453958"><ele>421.184</ele><time>2026-02-23T08:51:51Z</time><speed>2.370</speed><sat>18</sat></trkpt>
  <trkpt lat="12.53311900" lon="78.20452985"><ele>421.108</ele><time>2026-02-23T08:51:52Z</time><speed>2.220</speed><sat>17</sat></trkpt>
  <trkpt lat="12.53312817" lon="78.20452387"><ele>419.718</ele><time>2026-02-23T08:51:53Z</time><speed>1.500</speed><sat>22</sat></trkpt>
  <trkpt lat="12.53314086" lon="78.20451908"><ele>419.429</ele><time>2026-02-23T08:51:54Z</time><speed>1.540</speed><sat>17</sat></trkpt>
  <trkpt lat="12.53315632" lon="78.20451549"><ele>419.433</ele><time>2026-02-23T08:51:55Z</time><speed>2.270</speed><sat>17</sat></trkpt>
  <trkpt lat="12.53318056" lon="78.20451174"><ele>419.381</ele><time>2026-02-23T08:51:56Z</time><speed>2.950</speed><sat>21</sat></trkpt>
  <trkpt lat="12.53320577" lon="78.20450472"><ele>419.343</ele><time>2026-02-23T08:51:57Z</time><speed>2.800</speed><sat>21</sat></trkpt>
  <trkpt lat="12.53323241" lon="78.20450347"><ele>419.876</ele><time>2026-02-23T08:51:58Z</time><speed>3.630</speed><sat>20</sat></trkpt>
  <trkpt lat="12.53326431" lon="78.20449462"><ele>419.953</ele><time>2026-02-23T08:51:59Z</time><speed>3.690</speed><sat>20</sat></trkpt>
  <trkpt lat="12.53329471" lon="78.20446555"><ele>418.188</ele><time>2026-02-23T08:52:00Z</time><speed>3.860</speed><sat>17</sat></trkpt>
  <trkpt lat="12.53332753" lon="78.20445142"><ele>418.169</ele><time>2026-02-23T08:52:01Z</time><speed>3.860</speed><sat>17</sat></trkpt>
  <trkpt lat="12.53340779" lon="78.20443124"><ele>419.435</ele><time>2026-02-23T08:52:02Z</time><speed>6.190</speed><sat>16</sat></trkpt>
  <trkpt lat="12.53346546" lon="78.20441122"><ele>420.261</ele><time>2026-02-23T08:52:03Z</time><speed>5.630</speed><sat>19</sat></trkpt>
  <trkpt lat="12.53351264" lon="78.20439795"><ele>421.328</ele><time>2026-02-23T08:52:04Z</time><speed>5.070</speed><sat>17</sat></trkpt>
  <trkpt lat="12.53355684" lon="78.20437791"><ele>419.233</ele><time>2026-02-23T08:52:05Z</time><speed>4.750</speed><sat>20</sat></trkpt>
  <trkpt lat="12.53357370" lon="78.20437188"><ele>418.768</ele><time>2026-02-23T08:52:06Z</time><speed>3.440</speed><sat>18</sat></trkpt>
  <trkpt lat="12.53359841" lon="78.20435474"><ele>419.234</ele><time>2026-02-23T08:52:07Z</time><speed>2.510</speed><sat>18</sat></trkpt>
  <trkpt lat="12.53362239" lon="78.20434719"><ele>419.291</ele><time>2026-02-23T08:52:08Z</time><speed>2.740</speed><sat>18</sat></trkpt>
  <trkpt lat="12.53364457" lon="78.20432972"><ele>418.030</ele><time>2026-02-23T08:52:09Z</time><speed>2.370</speed><sat>19</sat></trkpt>
  <trkpt lat="12.53367153" lon="78.20431861"><ele>417.977</ele><time>2026-02-23T08:52:10Z</time><speed>3.150</speed><sat>21</sat></trkpt>
  <trkpt lat="12.53370078" lon="78.20430735"><ele>418.428</ele><time>2026-02-23T08:52:11Z</time><speed>3.820</speed><sat>18</sat></trkpt>
  <trkpt lat="12.53373589" lon="78.20429588"><ele>419.356</ele><time>2026-02-23T08:52:12Z</time><speed>4.960</speed><sat>16</sat></trkpt>
  <trkpt lat="12.53377779" lon="78.20427788"><ele>418.230</ele><time>2026-02-23T08:52:13Z</time><speed>5.720</speed><sat>18</sat></trkpt>
  <trkpt lat="12.53383271" lon="78.20425330"><ele>417.725</ele><time>2026-02-23T08:52:14Z</time><speed>6.060</speed><sat>17</sat></trkpt>
  <trkpt lat="12.53387267" lon="78.20422481"><ele>417.484</ele><time>2026-02-23T08:52:15Z</time><speed>6.380</speed><sat>19</sat></trkpt>
  <trkpt lat="12.53393430" lon="78.20420411"><ele>418.183</ele><time>2026-02-23T08:52:16Z</time><speed>6.430</speed><sat>17</sat></trkpt>
  <trkpt lat="12.53398609" lon="78.20419011"><ele>418.450</ele><time>2026-02-23T08:52:17Z</time><speed>6.830</speed><sat>17</sat></trkpt>
  <trkpt lat="12.53404817" lon="78.20417242"><ele>418.719</ele><time>2026-02-23T08:52:18Z</time><speed>6.290</speed><sat>15</sat></trkpt>
  <trkpt lat="12.53410475" lon="78.20416023"><ele>419.067</ele><time>2026-02-23T08:52:19Z</time><speed>5.910</speed><sat>16</sat></trkpt>
  <trkpt lat="12.53416169" lon="78.20414301"><ele>421.344</ele><time>2026-02-23T08:52:20Z</time><speed>6.030</speed><sat>18</sat></trkpt>
  <trkpt lat="12.53422114" lon="78.20412139"><ele>420.616</ele><time>2026-02-23T08:52:21Z</time><speed>6.610</speed><sat>16</sat></trkpt>
  <trkpt lat="12.53427975" lon="78.20411210"><ele>421.115</ele><time>2026-02-23T08:52:22Z</time><speed>6.700</speed><sat>18</sat></trkpt>
  <trkpt lat="12.53433941" lon="78.20409882"><ele>422.156</ele><time>2026-02-23T08:52:23Z</time><speed>6.830</speed><sat>19</sat></trkpt>
  <trkpt lat="12.53440141" lon="78.20408309"><ele>422.129</ele><time>2026-02-23T08:52:24Z</time><speed>6.730</speed><sat>18</sat></trkpt>
  <trkpt lat="12.53445346" lon="78.20406500"><ele>422.665</ele><time>2026-02-23T08:52:25Z</time><speed>6.570</speed><sat>20</sat></trkpt>
  <trkpt lat="12.53451296" lon="78.20405008"><ele>422.413</ele><time>2026-02-23T08:52:26Z</time><speed>6.570</speed><sat>18</sat></trkpt>
  <trkpt lat="12.53457124" lon="78.20403740"><ele>422.567</ele><time>2026-02-23T08:52:27Z</time><speed>6.750</speed><sat>21</sat></trkpt>
  <trkpt lat="12.53463582" lon="78.20401683"><ele>422.388</ele><time>2026-02-23T08:52:28Z</time><speed>6.970</speed><sat>21</sat></trkpt>
  <trkpt lat="12.53471148" lon="78.20398624"><ele>422.936</ele><time>2026-02-23T08:52:29Z</time><speed>6.870</speed><sat>18</sat></trkpt>
  <trkpt lat="12.53477324" lon="78.20397226"><ele>422.506</ele><time>2026-02-23T08:52:30Z</time><speed>6.920</speed><sat>18</sat></trkpt>
  <trkpt lat="12.53483434" lon="78.20395993"><ele>422.646</ele><time>2026-02-23T08:52:31Z</time><speed>6.520</speed><sat>19</sat></trkpt>
  <trkpt lat="12.53489289" lon="78.20394405"><ele>422.651</ele><time>2026-02-23T08:52:32Z</time><speed>6.260</speed><sat>15</sat></trkpt>
  <trkpt lat="12.53494285" lon="78.20393197"><ele>423.051</ele><time>2026-02-23T08:52:33Z</time><speed>5.810</speed><sat>20</sat></trkpt>
  <trkpt lat="12.53499807" lon="78.20391476"><ele>423.007</ele><time>2026-02-23T08:52:34Z</time><speed>5.680</speed><sat>20</sat></trkpt>
  <trkpt lat="12.53505658" lon="78.20387983"><ele>423.551</ele><time>2026-02-23T08:52:35Z</time><speed>5.310</speed><sat>19</sat></trkpt>
  <trkpt lat="12.53509536" lon="78.20387652"><ele>424.198</ele><time>2026-02-23T08:52:36Z</time><speed>4.120</speed><sat>20</sat></trkpt>
  <trkpt lat="12.53510361" lon="78.20391229"><ele>426.101</ele><time>2026-02-23T08:52:37Z</time><speed>4.050</speed><sat>19</sat></trkpt>
  <trkpt lat="12.53513594" lon="78.20390733"><ele>425.972</ele><time>2026-02-23T08:52:38Z</time><speed>3.100</speed><sat>24</sat></trkpt>
  <trkpt lat="12.53515794" lon="78.20390539"><ele>423.422</ele><time>2026-02-23T08:52:39Z</time><speed>2.210</speed><sat>21</sat></trkpt>
  <trkpt lat="12.53517994" lon="78.20390751"><ele>423.947</ele><time>2026-02-23T08:52:40Z</time><speed>2.820</speed><sat>21</sat></trkpt>
  <trkpt lat="12.53520339" lon="78.20389743"><ele>424.009</ele><time>2026-02-23T08:52:41Z</time><speed>3.650</speed><sat>19</sat></trkpt>
  <trkpt lat="12.53523404" lon="78.20388386"><ele>421.057</ele><time>2026-02-23T08:52:42Z</time><speed>4.360</speed><sat>19</sat></trkpt>
  <trkpt lat="12.53526802" lon="78.20386734"><ele>420.551</ele><time>2026-02-23T08:52:43Z</time><speed>4.000</speed><sat>18</sat></trkpt>
  <trkpt lat="12.53529123" lon="78.20386045"><ele>418.252</ele><time>2026-02-23T08:52:44Z</time><speed>3.650</speed><sat>18</sat></trkpt>
  <trkpt lat="12.53531972" lon="78.20385167"><ele>418.146</ele><time>2026-02-23T08:52:45Z</time><speed>3.730</speed><sat>18</sat></trkpt>
  <trkpt lat="12.53533039" lon="78.20385046"><ele>418.695</ele><time>2026-02-23T08:52:46Z</time><speed>2.590</speed><sat>19</sat></trkpt>
  <trkpt lat="12.53535344" lon="78.20384121"><ele>418.825</ele><time>2026-02-23T08:52:47Z</time><speed>2.550</speed><sat>21</sat></trkpt>
  <trkpt lat="12.53537593" lon="78.20383341"><ele>418.677</ele><time>2026-02-23T08:52:48Z</time><speed>2.450</speed><sat>22</sat></trkpt>
  <trkpt lat="12.53540115" lon="78.20382548"><ele>418.142</ele><time>2026-02-23T08:52:49Z</time><speed>2.470</speed><sat>20</sat></trkpt>
  <trkpt lat="12.53542256" lon="78.20381799"><ele>418.606</ele><time>2026-02-23T08:52:50Z</time><speed>2.900</speed><sat>18</sat></trkpt>
  <trkpt lat="12.53544520" lon="78.20380906"><ele>417.589</ele><time>2026-02-23T08:52:51Z</time><speed>1.900</speed><sat>21</sat></trkpt>
  <trkpt lat="12.53546739" lon="78.20380206"><ele>418.329</ele><time>2026-02-23T08:52:52Z</time><speed>2.760</speed><sat>17</sat></trkpt>
  <trkpt lat="12.53549208" lon="78.20379301"><ele>418.237</ele><time>2026-02-23T08:52:53Z</time><speed>3.230</speed><sat>18</sat></trkpt>
  <trkpt lat="12.53552181" lon="78.20378391"><ele>418.409</ele><time>2026-02-23T08:52:54Z</time><speed>3.540</speed><sat>18</sat></trkpt>
  <trkpt lat="12.53555369" lon="78.20377518"><ele>418.479</ele><time>2026-02-23T08:52:55Z</time><speed>3.730</speed><sat>20</sat></trkpt>
  <trkpt lat="12.53558662" lon="78.20376350"><ele>418.206</ele><time>2026-02-23T08:52:56Z</time><speed>4.000</speed><sat>19</sat></trkpt>
  <trkpt lat="12.53562002" lon="78.20375360"><ele>418.340</ele><time>2026-02-23T08:52:57Z</time><speed>3.810</speed><sat>18</sat></trkpt>
  <trkpt lat="12.53565298" lon="78.20374348"><ele>418.361</ele><time>2026-02-23T08:52:58Z</time><speed>3.830</speed><sat>18</sat></trkpt>
  <trkpt lat="12.53568712" lon="78.20373217"><ele>418.291</ele><time>2026-02-23T08:52:59Z</time><speed>3.830</speed><sat>17</sat></trkpt>
  <trkpt lat="12.53573514" lon="78.20372200"><ele>418.507</ele><time>2026-02-23T08:53:00Z</time><speed>5.040</speed><sat>20</sat></trkpt>
  <trkpt lat="12.53576843" lon="78.20371242"><ele>418.161</ele><time>2026-02-23T08:53:01Z</time><speed>5.770</speed><sat>21</sat></trkpt>
  <trkpt lat="12.53582850" lon="78.20370433"><ele>420.031</ele><time>2026-02-23T08:53:02Z</time><speed>6.890</speed><sat>21</sat></trkpt>
  <trkpt lat="12.53589647" lon="78.20369342"><ele>420.213</ele><time>2026-02-23T08:53:03Z</time><speed>8.000</speed><sat>20</sat></trkpt>
  <trkpt lat="12.53596365" lon="78.20367863"><ele>420.361</ele><time>2026-02-23T08:53:04Z</time><speed>7.670</speed><sat>20</sat></trkpt>
  <trkpt lat="12.53605128" lon="78.20365025"><ele>421.004</ele><time>2026-02-23T08:53:05Z</time><speed>8.560</speed><sat>22</sat></trkpt>
  <trkpt lat="12.53612975" lon="78.20362945"><ele>420.951</ele><time>2026-02-23T08:53:06Z</time><speed>8.980</speed><sat>21</sat></trkpt>
  <trkpt lat="12.53621078" lon="78.20362091"><ele>421.731</ele><time>2026-02-23T08:53:07Z</time><speed>9.630</speed><sat>22</sat></trkpt>
  <trkpt lat="12.53628817" lon="78.20357826"><ele>419.455</ele><time>2026-02-23T08:53:08Z</time><speed>9.590</speed><sat>22</sat></trkpt>
  <trkpt lat="12.53637148" lon="78.20355536"><ele>418.479</ele><time>2026-02-23T08:53:09Z</time><speed>9.640</speed><sat>20</sat></trkpt>
  <trkpt lat="12.53645559" lon="78.20353197"><ele>418.450</ele><time>2026-02-23T08:53:10Z</time><speed>9.640</speed><sat>20</sat></trkpt>
  <trkpt lat="12.53654062" lon="78.20350287"><ele>418.865</ele><time>2026-02-23T08:53:11Z</time><speed>9.640</speed><sat>19</sat></trkpt>
  <trkpt lat="12.53662385" lon="78.20347664"><ele>418.869</ele><time>2026-02-23T08:53:12Z</time><speed>9.630</speed><sat>19</sat></trkpt>
  <trkpt lat="12.53669547" lon="78.20345110"><ele>418.480</ele><time>2026-02-23T08:53:13Z</time><speed>8.660</speed><sat>20</sat></trkpt>
  <trkpt lat="12.53677161" lon="78.20342295"><ele>418.729</ele><time>2026-02-23T08:53:14Z</time><speed>8.570</speed><sat>20</sat></trkpt>
  <trkpt lat="12.53685081" lon="78.20340338"><ele>419.553</ele><time>2026-02-23T08:53:15Z</time><speed>8.500</speed><sat>19</sat></trkpt>
  <trkpt lat="12.53692508" lon="78.20338106"><ele>419.831</ele><time>2026-02-23T08:53:16Z</time><speed>8.420</speed><sat>19</sat></trkpt>
  <trkpt lat="12.53699878" lon="78.20336147"><ele>419.780</ele><time>2026-02-23T08:53:17Z</time><speed>8.480</speed><sat>16</sat></trkpt>
  <trkpt lat="12.53707321" lon="78.20333727"><ele>419.465</ele><time>2026-02-23T08:53:18Z</time><speed>8.490</speed><sat>17</sat></trkpt>
  <trkpt lat="12.53714898" lon="78.20331838"><ele>419.501</ele><time>2026-02-23T08:53:19Z</time><speed>8.330</speed><sat>19</sat></trkpt>
  <trkpt lat="12.53722615" lon="78.20329964"><ele>420.010</ele><time>2026-02-23T08:53:20Z</time><speed>8.500</speed><sat>19</sat></trkpt>
  <trkpt lat="12.53730400" lon="78.20328470"><ele>419.782</ele><time>2026-02-23T08:53:21Z</time><speed>8.850</speed><sat>19</sat></trkpt>
  <trkpt lat="12.53738402" lon="78.20326455"><ele>420.041</ele><time>2026-02-23T08:53:22Z</time><speed>8.920</speed><sat>18</sat></trkpt>
  <trkpt lat="12.53746351" lon="78.20324337"><ele>420.052</ele><time>2026-02-23T08:53:23Z</time><speed>8.810</speed><sat>18</sat></trkpt>
  <trkpt lat="12.53754186" lon="78.20322557"><ele>420.935</ele><time>2026-02-23T08:53:24Z</time><speed>8.780</speed><sat>20</sat></trkpt>
  <trkpt lat="12.53761994" lon="78.20320811"><ele>421.038</ele><time>2026-02-23T08:53:25Z</time><speed>8.610</speed><sat>19</sat></trkpt>
  <trkpt lat="12.53769958" lon="78.20318610"><ele>421.292</ele><time>2026-02-23T08:53:26Z</time><speed>8.330</speed><sat>21</sat></trkpt>
  <trkpt lat="12.53777442" lon="78.20316901"><ele>421.521</ele><time>2026-02-23T08:53:27Z</time><speed>8.280</speed><sat>21</sat></trkpt>
  <trkpt lat="12.53784634" lon="78.20315365"><ele>421.336</ele><time>2026-02-23T08:53:28Z</time><speed>8.030</speed><sat>19</sat></trkpt>
  <trkpt lat="12.53791890" lon="78.20313798"><ele>421.772</ele><time>2026-02-23T08:53:29Z</time><speed>8.210</speed><sat>19</sat></trkpt>
  <trkpt lat="12.53795459" lon="78.20313995"><ele>422.066</ele><time>2026-02-23T08:53:30Z</time><speed>7.940</speed><sat>20</sat></trkpt>
  <trkpt lat="12.53802483" lon="78.20312252"><ele>422.022</ele><time>2026-02-23T08:53:31Z</time><speed>7.990</speed><sat>20</sat></trkpt>
  <trkpt lat="12.53810318" lon="78.20308518"><ele>423.442</ele><time>2026-02-23T08:53:32Z</time><speed>7.910</speed><sat>21</sat></trkpt>
  <trkpt lat="12.53817373" lon="78.20306640"><ele>424.139</ele><time>2026-02-23T08:53:33Z</time><speed>8.110</speed><sat>18</sat></trkpt>
  <trkpt lat="12.53822551" lon="78.20305915"><ele>424.343</ele><time>2026-02-23T08:53:34Z</time><speed>7.950</speed><sat>21</sat></trkpt>
  <trkpt lat="12.53830361" lon="78.20303397"><ele>423.618</ele><time>2026-02-23T08:53:35Z</time><speed>8.300</speed><sat>22</sat></trkpt>
  <trkpt lat="12.53837528" lon="78.20301381"><ele>423.672</ele><time>2026-02-23T08:53:36Z</time><speed>8.230</speed><sat>22</sat></trkpt>
  <trkpt lat="12.53845227" lon="78.20298957"><ele>423.313</ele><time>2026-02-23T08:53:37Z</time><speed>8.530</speed><sat>20</sat></trkpt>
  <trkpt lat="12.53852355" lon="78.20297511"><ele>424.087</ele><time>2026-02-23T08:53:38Z</time><speed>8.600</speed><sat>18</sat></trkpt>
  <trkpt lat="12.53859985" lon="78.20295667"><ele>424.118</ele><time>2026-02-23T08:53:39Z</time><speed>8.720</speed><sat>21</sat></trkpt>
  <trkpt lat="12.53867996" lon="78.20294485"><ele>424.406</ele><time>2026-02-23T08:53:40Z</time><speed>8.750</speed><sat>19</sat></trkpt>
  <trkpt lat="12.53875859" lon="78.20292237"><ele>424.951</ele><time>2026-02-23T08:53:41Z</time><speed>8.700</speed><sat>22</sat></trkpt>
  <trkpt lat="12.53883518" lon="78.20290583"><ele>424.895</ele><time>2026-02-23T08:53:42Z</time><speed>8.480</speed><sat>22</sat></trkpt>
  <trkpt lat="12.53890667" lon="78.20288287"><ele>424.164</ele><time>2026-02-23T08:53:43Z</time><speed>8.030</speed><sat>22</sat></trkpt>
  <trkpt lat="12.53897472" lon="78.20286923"><ele>424.457</ele><time>2026-02-23T08:53:44Z</time><speed>7.480</speed><sat>21</sat></trkpt>
  <trkpt lat="12.53900777" lon="78.20287837"><ele>426.315</ele><time>2026-02-23T08:53:45Z</time><speed>7.630</speed><sat>23</sat></trkpt>
  <trkpt lat="12.53907951" lon="78.20286730"><ele>426.255</ele><time>2026-02-23T08:53:46Z</time><speed>7.730</speed><sat>17</sat></trkpt>
  <trkpt lat="12.53915477" lon="78.20283790"><ele>426.305</ele><time>2026-02-23T08:53:47Z</time><speed>7.940</speed><sat>17</sat></trkpt>
  <trkpt lat="12.53922388" lon="78.20282005"><ele>426.280</ele><time>2026-02-23T08:53:48Z</time><speed>7.890</speed><sat>17</sat></trkpt>
  <trkpt lat="12.53930104" lon="78.20278322"><ele>424.656</ele><time>2026-02-23T08:53:49Z</time><speed>8.080</speed><sat>20</sat></trkpt>
  <trkpt lat="12.53937186" lon="78.20276783"><ele>426.290</ele><time>2026-02-23T08:53:50Z</time><speed>8.230</speed><sat>16</sat></trkpt>
  <trkpt lat="12.53944776" lon="78.20275178"><ele>426.282</ele><time>2026-02-23T08:53:51Z</time><speed>8.480</speed><sat>21</sat></trkpt>
  <trkpt lat="12.53952553" lon="78.20272761"><ele>426.660</ele><time>2026-02-23T08:53:52Z</time><speed>8.510</speed><sat>20</sat></trkpt>
  <trkpt lat="12.53960516" lon="78.20270783"><ele>426.341</ele><time>2026-02-23T08:53:53Z</time><speed>8.850</speed><sat>20</sat></trkpt>
  <trkpt lat="12.53969052" lon="78.20267168"><ele>426.458</ele><time>2026-02-23T08:53:54Z</time><speed>9.200</speed><sat>20</sat></trkpt>
  <trkpt lat="12.53976753" lon="78.20265585"><ele>426.176</ele><time>2026-02-23T08:53:55Z</time><speed>8.440</speed><sat>21</sat></trkpt>
  <trkpt lat="12.53985039" lon="78.20262639"><ele>426.339</ele><time>2026-02-23T08:53:56Z</time><speed>8.550</speed><sat>21</sat></trkpt>
  <trkpt lat="12.53992678" lon="78.20260337"><ele>425.744</ele><time>2026-02-23T08:53:57Z</time><speed>8.520</speed><sat>18</sat></trkpt>
  <trkpt lat="12.54000704" lon="78.20258357"><ele>425.870</ele><time>2026-02-23T08:53:58Z</time><speed>8.480</speed><sat>19</sat></trkpt>
  <trkpt lat="12.54008284" lon="78.20256590"><ele>425.111</ele><time>2026-02-23T08:53:59Z</time><speed>8.680</speed><sat>18</sat></trkpt>
  <trkpt lat="12.54016188" lon="78.20254262"><ele>424.978</ele><time>2026-02-23T08:54:00Z</time><speed>8.790</speed><sat>17</sat></trkpt>
  <trkpt lat="12.54023137" lon="78.20253172"><ele>424.442</ele><time>2026-02-23T08:54:01Z</time><speed>8.310</speed><sat>19</sat></trkpt>
  <trkpt lat="12.54030719" lon="78.20250765"><ele>424.531</ele><time>2026-02-23T08:54:02Z</time><speed>8.240</speed><sat>18</sat></trkpt>
  <trkpt lat="12.54037702" lon="78.20248735"><ele>424.518</ele><time>2026-02-23T08:54:03Z</time><speed>8.240</speed><sat>18</sat></trkpt>
  <trkpt lat="12.54045014" lon="78.20245220"><ele>425.971</ele><time>2026-02-23T08:54:04Z</time><speed>7.850</speed><sat>18</sat></trkpt>
  <trkpt lat="12.54051378" lon="78.20244307"><ele>426.040</ele><time>2026-02-23T08:54:05Z</time><speed>8.110</speed><sat>18</sat></trkpt>
  <trkpt lat="12.54059138" lon="78.20242807"><ele>425.367</ele><time>2026-02-23T08:54:06Z</time><speed>8.870</speed><sat>13</sat></trkpt>
  <trkpt lat="12.54066862" lon="78.20241073"><ele>423.875</ele><time>2026-02-23T08:54:07Z</time><speed>8.870</speed><sat>18</sat></trkpt>
  <trkpt lat="12.54075339" lon="78.20238449"><ele>420.839</ele><time>2026-02-23T08:54:08Z</time><speed>8.560</speed><sat>19</sat></trkpt>
  <trkpt lat="12.54082828" lon="78.20235326"><ele>420.708</ele><time>2026-02-23T08:54:09Z</time><speed>8.330</speed><sat>23</sat></trkpt>
  <trkpt lat="12.54089392" lon="78.20233194"><ele>421.011</ele><time>2026-02-23T08:54:10Z</time><speed>8.050</speed><sat>23</sat></trkpt>
  <trkpt lat="12.54095943" lon="78.20231351"><ele>422.807</ele><time>2026-02-23T08:54:11Z</time><speed>7.700</speed><sat>21</sat></trkpt>
  <trkpt lat="12.54102713" lon="78.20229843"><ele>423.153</ele><time>2026-02-23T08:54:12Z</time><speed>7.780</speed><sat>24</sat></trkpt>
  <trkpt lat="12.54108915" lon="78.20227648"><ele>423.654</ele><time>2026-02-23T08:54:13Z</time><speed>7.650</speed><sat>23</sat></trkpt>
  <trkpt lat="12.54115454" lon="78.20225641"><ele>424.156</ele><time>2026-02-23T08:54:14Z</time><speed>7.690</speed><sat>25</sat></trkpt>
  <trkpt lat="12.54121905" lon="78.20223928"><ele>424.617</ele><time>2026-02-23T08:54:15Z</time><speed>7.290</speed><sat>24</sat></trkpt>
  <trkpt lat="12.54128053" lon="78.20221884"><ele>424.367</ele><time>2026-02-23T08:54:16Z</time><speed>6.860</speed><sat>21</sat></trkpt>
  <trkpt lat="12.54133339" lon="78.20219812"><ele>425.495</ele><time>2026-02-23T08:54:17Z</time><speed>6.200</speed><sat>23</sat></trkpt>
  <trkpt lat="12.54138053" lon="78.20218470"><ele>425.820</ele><time>2026-02-23T08:54:18Z</time><speed>4.880</speed><sat>26</sat></trkpt>
  <trkpt lat="12.54142330" lon="78.20217898"><ele>427.094</ele><time>2026-02-23T08:54:19Z</time><speed>3.920</speed><sat>25</sat></trkpt>
  <trkpt lat="12.54145510" lon="78.20217055"><ele>426.531</ele><time>2026-02-23T08:54:20Z</time><speed>2.790</speed><sat>25</sat></trkpt>
  <trkpt lat="12.54147029" lon="78.20216828"><ele>425.170</ele><time>2026-02-23T08:54:21Z</time><speed>1.640</speed><sat>25</sat></trkpt>
  <trkpt lat="12.54147809" lon="78.20216485"><ele>424.183</ele><time>2026-02-23T08:54:22Z</time><speed>0.770</speed><sat>24</sat></trkpt>
  <trkpt lat="12.54148436" lon="78.20215759"><ele>423.946</ele><time>2026-02-23T08:54:23Z</time><speed>0.280</speed><sat>23</sat></trkpt>
  <trkpt lat="12.54148692" lon="78.20215299"><ele>424.406</ele><time>2026-02-23T08:54:24Z</time><speed>0.280</speed><sat>24</sat></trkpt>
  <trkpt lat="12.54148998" lon="78.20215275"><ele>425.376</ele><time>2026-02-23T08:54:25Z</time><speed>0.510</speed><sat>24</sat></trkpt>
  <trkpt lat="12.54149662" lon="78.20215094"><ele>425.716</ele><time>2026-02-23T08:54:26Z</time><speed>1.200</speed><sat>22</sat></trkpt>
  <trkpt lat="12.54150561" lon="78.20214925"><ele>426.155</ele><time>2026-02-23T08:54:27Z</time><speed>1.050</speed><sat>25</sat></trkpt>
  <trkpt lat="12.54151052" lon="78.20214866"><ele>427.242</ele><time>2026-02-23T08:54:28Z</time><speed>0.390</speed><sat>24</sat></trkpt>
  <trkpt lat="12.54151640" lon="78.20214800"><ele>427.512</ele><time>2026-02-23T08:54:29Z</time><speed>1.360</speed><sat>21</sat></trkpt>
  <trkpt lat="12.54153016" lon="78.20214400"><ele>427.986</ele><time>2026-02-23T08:54:30Z</time><speed>1.850</speed><sat>23</sat></trkpt>
  <trkpt lat="12.54154576" lon="78.20214114"><ele>427.380</ele><time>2026-02-23T08:54:31Z</time><speed>1.800</speed><sat>23</sat></trkpt>
  <trkpt lat="12.54156249" lon="78.20213440"><ele>425.616</ele><time>2026-02-23T08:54:32Z</time><speed>2.450</speed><sat>21</sat></trkpt>
  <trkpt lat="12.54158775" lon="78.20212956"><ele>425.318</ele><time>2026-02-23T08:54:33Z</time><speed>3.550</speed><sat>23</sat></trkpt>
  <trkpt lat="12.54161873" lon="78.20212512"><ele>426.535</ele><time>2026-02-23T08:54:34Z</time><speed>3.470</speed><sat>23</sat></trkpt>
 </trkseg>
</trk>

</gpx>
 