<?xml version="1.0" encoding="UTF-8"?>
<gpx xmlns="http://www.topografix.com/GPX/1/0" xmlns:xsi="http://www.w3.org/2001/XMLSchema-instance" xsi:schemaLocation="http://www.topografix.com/GPX/1/0 http://www.topografix.com/GPX/1/0/gpx.xsd" version="1.0" creator="BasicAirData GPS Logger 3.2.3">
  <name>GPS Logger 20260223-143354</name>
  <desc>SRR_5</desc>
  <time>2026-02-23T09:10:14Z</time>
  <keywords>steady</keywords>
  <bounds minlat="12.57406057" maxlat="12.58787367" minlon="78.14612788" maxlon="78.16918093" />
  <trk>
    <name>Track 20260223-143354</name>
    <trkseg>
      <trkpt lat="12.57406057" lon="78.16918093">
        <ele>424.139</ele>
        <time>2026-02-23T09:03:54Z</time>
        <speed>7.21</speed>
        <sat>26</sat>
      </trkpt>
      <trkpt lat="12.57410904" lon="78.16913395">
        <ele>424.559</ele>
        <time>2026-02-23T09:03:55Z</time>
        <speed>7.44</speed>
        <sat>25</sat>
      </trkpt>
      <trkpt lat="12.57416157" lon="78.16909387">
        <ele>423.709</ele>
        <time>2026-02-23T09:03:56Z</time>
        <speed>7.61</speed>
        <sat>27</sat>
      </trkpt>
      <trkpt lat="12.57421597" lon="78.16904107">
        <ele>424.069</ele>
        <time>2026-02-23T09:03:57Z</time>
        <speed>8.45</speed>
        <sat>21</sat>
      </trkpt>
      <trkpt lat="12.57426981" lon="78.16899268">
        <ele>423.752</ele>
        <time>2026-02-23T09:03:58Z</time>
        <speed>8.55</speed>
        <sat>24</sat>
      </trkpt>
      <trkpt lat="12.5743293" lon="78.16893821">
        <ele>424.193</ele>
        <time>2026-02-23T09:03:59Z</time>
        <speed>8.77</speed>
        <sat>23</sat>
      </trkpt>
      <trkpt lat="12.57438499" lon="78.1688813">
        <ele>424.071</ele>
        <time>2026-02-23T09:04:00Z</time>
        <speed>9.18</speed>
        <sat>21</sat>
      </trkpt>
      <trkpt lat="12.57444703" lon="78.16882354">
        <ele>423.931</ele>
        <time>2026-02-23T09:04:01Z</time>
        <speed>8.94</speed>
        <sat>25</sat>
      </trkpt>
      <trkpt lat="12.57451429" lon="78.16876733">
        <ele>423.669</ele>
        <time>2026-02-23T09:04:02Z</time>
        <speed>9.27</speed>
        <sat>24</sat>
      </trkpt>
      <trkpt lat="12.5745855" lon="78.16870654">
        <ele>423.481</ele>
        <time>2026-02-23T09:04:03Z</time>
        <speed>9.44</speed>
        <sat>23</sat>
      </trkpt>
      <trkpt lat="12.57464644" lon="78.16865076">
        <ele>423.119</ele>
        <time>2026-02-23T09:04:04Z</time>
        <speed>9.55</speed>
        <sat>21</sat>
      </trkpt>
      <trkpt lat="12.57471008" lon="78.16859066">
        <ele>422.806</ele>
        <time>2026-02-23T09:04:05Z</time>
        <speed>9.6</speed>
        <sat>23</sat>
      </trkpt>
      <trkpt lat="12.57477244" lon="78.16853368">
        <ele>422.52</ele>
        <time>2026-02-23T09:04:06Z</time>
        <speed>9.51</speed>
        <sat>23</sat>
      </trkpt>
      <trkpt lat="12.57483561" lon="78.16846976">
        <ele>422.453</ele>
        <time>2026-02-23T09:04:07Z</time>
        <speed>9.42</speed>
        <sat>25</sat>
      </trkpt>
      <trkpt lat="12.5748998" lon="78.16840764">
        <ele>422.531</ele>
        <time>2026-02-23T09:04:08Z</time>
        <speed>9.29</speed>
        <sat>23</sat>
      </trkpt>
      <trkpt lat="12.57496124" lon="78.1683433">
        <ele>422.359</ele>
        <time>2026-02-23T09:04:09Z</time>
        <speed>9.4</speed>
        <sat>21</sat>
      </trkpt>
      <trkpt lat="12.57501991" lon="78.16827564">
        <ele>422.093</ele>
        <time>2026-02-23T09:04:10Z</time>
        <speed>9.56</speed>
        <sat>24</sat>
      </trkpt>
      <trkpt lat="12.57507098" lon="78.16821308">
        <ele>421.991</ele>
        <time>2026-02-23T09:04:11Z</time>
        <speed>9.4</speed>
        <sat>23</sat>
      </trkpt>
      <trkpt lat="12.57512134" lon="78.16814977">
        <ele>421.446</ele>
        <time>2026-02-23T09:04:12Z</time>
        <speed>9.18</speed>
        <sat>23</sat>
      </trkpt>
      <trkpt lat="12.57517333" lon="78.16807807">
        <ele>421.334</ele>
        <time>2026-02-23T09:04:13Z</time>
        <speed>9.6</speed>
        <sat>26</sat>
      </trkpt>
      <trkpt lat="12.57522766" lon="78.16800768">
        <ele>421.072</ele>
        <time>2026-02-23T09:04:14Z</time>
        <speed>9.53</speed>
        <sat>25</sat>
      </trkpt>
      <trkpt lat="12.57527999" lon="78.16793472">
        <ele>420.922</ele>
        <time>2026-02-23T09:04:15Z</time>
        <speed>9.43</speed>
        <sat>23</sat>
      </trkpt>
      <trkpt lat="12.57532695" lon="78.16786358">
        <ele>421.217</ele>
        <time>2026-02-23T09:04:16Z</time>
        <speed>9.38</speed>
        <sat>22</sat>
      </trkpt>
      <trkpt lat="12.57537573" lon="78.1677955">
        <ele>421.354</ele>
        <time>2026-02-23T09:04:17Z</time>
        <speed>9.28</speed>
        <sat>22</sat>
      </trkpt>
      <trkpt lat="12.57541757" lon="78.16772347">
        <ele>421.613</ele>
        <time>2026-02-23T09:04:18Z</time>
        <speed>9.0</speed>
        <sat>22</sat>
      </trkpt>
      <trkpt lat="12.57546208" lon="78.16765832">
        <ele>421.44</ele>
        <time>2026-02-23T09:04:19Z</time>
        <speed>8.69</speed>
        <sat>20</sat>
      </trkpt>
      <trkpt lat="12.57549948" lon="78.16759554">
        <ele>421.051</ele>
        <time>2026-02-23T09:04:20Z</time>
        <speed>8.2</speed>
        <sat>23</sat>
      </trkpt>
      <trkpt lat="12.57553471" lon="78.16753613">
        <ele>421.283</ele>
        <time>2026-02-23T09:04:21Z</time>
        <speed>7.84</speed>
        <sat>22</sat>
      </trkpt>
      <trkpt lat="12.57557054" lon="78.16747822">
        <ele>420.999</ele>
        <time>2026-02-23T09:04:22Z</time>
        <speed>7.48</speed>
        <sat>22</sat>
      </trkpt>
      <trkpt lat="12.57560099" lon="78.16742123">
        <ele>421.341</ele>
        <time>2026-02-23T09:04:23Z</time>
        <speed>6.76</speed>
        <sat>20</sat>
      </trkpt>
      <trkpt lat="12.57563053" lon="78.16736496">
        <ele>421.576</ele>
        <time>2026-02-23T09:04:24Z</time>
        <speed>5.58</speed>
        <sat>21</sat>
      </trkpt>
      <trkpt lat="12.57565294" lon="78.16732417">
        <ele>421.933</ele>
        <time>2026-02-23T09:04:25Z</time>
        <speed>4.39</speed>
        <sat>19</sat>
      </trkpt>
      <trkpt lat="12.57567566" lon="78.16729435">
        <ele>422.408</ele>
        <time>2026-02-23T09:04:26Z</time>
        <speed>3.05</speed>
        <sat>20</sat>
      </trkpt>
      <trkpt lat="12.57569383" lon="78.16727122">
        <ele>421.717</ele>
        <time>2026-02-23T09:04:27Z</time>
        <speed>2.26</speed>
        <sat>21</sat>
      </trkpt>
      <trkpt lat="12.57570118" lon="78.1672515">
        <ele>422.685</ele>
        <time>2026-02-23T09:04:28Z</time>
        <speed>2.4</speed>
        <sat>19</sat>
      </trkpt>
      <trkpt lat="12.57571436" lon="78.16723703">
        <ele>422.998</ele>
        <time>2026-02-23T09:04:29Z</time>
        <speed>3.22</speed>
        <sat>20</sat>
      </trkpt>
      <trkpt lat="12.57572898" lon="78.16720915">
        <ele>423.47</ele>
        <time>2026-02-23T09:04:30Z</time>
        <speed>4.13</speed>
        <sat>21</sat>
      </trkpt>
      <trkpt lat="12.57574612" lon="78.16717756">
        <ele>423.534</ele>
        <time>2026-02-23T09:04:31Z</time>
        <speed>4.44</speed>
        <sat>20</sat>
      </trkpt>
      <trkpt lat="12.57576408" lon="78.16714347">
        <ele>423.216</ele>
        <time>2026-02-23T09:04:32Z</time>
        <speed>3.91</speed>
        <sat>17</sat>
      </trkpt>
      <trkpt lat="12.57578135" lon="78.16711389">
        <ele>423.353</ele>
        <time>2026-02-23T09:04:33Z</time>
        <speed>3.48</speed>
        <sat>20</sat>
      </trkpt>
      <trkpt lat="12.57579548" lon="78.16708533">
        <ele>423.711</ele>
        <time>2026-02-23T09:04:34Z</time>
        <speed>3.27</speed>
        <sat>21</sat>
      </trkpt>
      <trkpt lat="12.57580837" lon="78.16706532">
        <ele>423.972</ele>
        <time>2026-02-23T09:04:35Z</time>
        <speed>2.44</speed>
        <sat>18</sat>
      </trkpt>
      <trkpt lat="12.5758209" lon="78.16704688">
        <ele>424.178</ele>
        <time>2026-02-23T09:04:36Z</time>
        <speed>2.6</speed>
        <sat>21</sat>
      </trkpt>
      <trkpt lat="12.57583624" lon="78.16702216">
        <ele>424.714</ele>
        <time>2026-02-23T09:04:37Z</time>
        <speed>3.81</speed>
        <sat>21</sat>
      </trkpt>
      <trkpt lat="12.57585657" lon="78.16699081">
        <ele>424.822</ele>
        <time>2026-02-23T09:04:38Z</time>
        <speed>4.43</speed>
        <sat>22</sat>
      </trkpt>
      <trkpt lat="12.57587879" lon="78.16696046">
        <ele>425.507</ele>
        <time>2026-02-23T09:04:39Z</time>
        <speed>5.44</speed>
        <sat>19</sat>
      </trkpt>
      <trkpt lat="12.57590778" lon="78.16691592">
        <ele>425.702</ele>
        <time>2026-02-23T09:04:40Z</time>
        <speed>5.98</speed>
        <sat>22</sat>
      </trkpt>
      <trkpt lat="12.57593896" lon="78.16686103">
        <ele>425.429</ele>
        <time>2026-02-23T09:04:41Z</time>
        <speed>6.41</speed>
        <sat>21</sat>
      </trkpt>
      <trkpt lat="12.5759681" lon="78.16681437">
        <ele>425.51</ele>
        <time>2026-02-23T09:04:42Z</time>
        <speed>6.6</speed>
        <sat>21</sat>
      </trkpt>
      <trkpt lat="12.57600168" lon="78.16676568">
        <ele>425.409</ele>
        <time>2026-02-23T09:04:43Z</time>
        <speed>6.37</speed>
        <sat>22</sat>
      </trkpt>
      <trkpt lat="12.57603365" lon="78.16671803">
        <ele>425.601</ele>
        <time>2026-02-23T09:04:44Z</time>
        <speed>6.83</speed>
        <sat>23</sat>
      </trkpt>
      <trkpt lat="12.57606699" lon="78.16665839">
        <ele>425.579</ele>
        <time>2026-02-23T09:04:45Z</time>
        <speed>7.25</speed>
        <sat>23</sat>
      </trkpt>
      <trkpt lat="12.57609503" lon="78.16659794">
        <ele>425.576</ele>
        <time>2026-02-23T09:04:46Z</time>
        <speed>7.16</speed>
        <sat>19</sat>
      </trkpt>
      <trkpt lat="12.57613665" lon="78.16653731">
        <ele>425.533</ele>
        <time>2026-02-23T09:04:47Z</time>
        <speed>7.59</speed>
        <sat>22</sat>
      </trkpt>
      <trkpt lat="12.57616494" lon="78.16648106">
        <ele>425.609</ele>
        <time>2026-02-23T09:04:48Z</time>
        <speed>7.63</speed>
        <sat>21</sat>
      </trkpt>
      <trkpt lat="12.5762007" lon="78.16641777">
        <ele>425.716</ele>
        <time>2026-02-23T09:04:49Z</time>
        <speed>7.78</speed>
        <sat>21</sat>
      </trkpt>
      <trkpt lat="12.57624096" lon="78.16635837">
        <ele>425.707</ele>
        <time>2026-02-23T09:04:50Z</time>
        <speed>8.3</speed>
        <sat>22</sat>
      </trkpt>
      <trkpt lat="12.57627933" lon="78.16628743">
        <ele>425.771</ele>
        <time>2026-02-23T09:04:51Z</time>
        <speed>8.72</speed>
        <sat>21</sat>
      </trkpt>
      <trkpt lat="12.57632732" lon="78.16621462">
        <ele>425.68</ele>
        <time>2026-02-23T09:04:52Z</time>
        <speed>9.36</speed>
        <sat>22</sat>
      </trkpt>
      <trkpt lat="12.57637149" lon="78.16614117">
        <ele>425.671</ele>
        <time>2026-02-23T09:04:53Z</time>
        <speed>9.62</speed>
        <sat>21</sat>
      </trkpt>
      <trkpt lat="12.57641818" lon="78.16606589">
        <ele>425.603</ele>
        <time>2026-02-23T09:04:54Z</time>
        <speed>9.59</speed>
        <sat>22</sat>
      </trkpt>
      <trkpt lat="12.57646165" lon="78.16598964">
        <ele>425.898</ele>
        <time>2026-02-23T09:04:55Z</time>
        <speed>9.59</speed>
        <sat>21</sat>
      </trkpt>
      <trkpt lat="12.57650706" lon="78.16590937">
        <ele>426.23</ele>
        <time>2026-02-23T09:04:56Z</time>
        <speed>9.6</speed>
        <sat>23</sat>
      </trkpt>
      <trkpt lat="12.57655056" lon="78.16583437">
        <ele>426.396</ele>
        <time>2026-02-23T09:04:57Z</time>
        <speed>9.57</speed>
        <sat>25</sat>
      </trkpt>
      <trkpt lat="12.57659272" lon="78.16576194">
        <ele>426.843</ele>
        <time>2026-02-23T09:04:58Z</time>
        <speed>9.46</speed>
        <sat>23</sat>
      </trkpt>
      <trkpt lat="12.57663311" lon="78.16568798">
        <ele>428.136</ele>
        <time>2026-02-23T09:04:59Z</time>
        <speed>9.31</speed>
        <sat>22</sat>
      </trkpt>
      <trkpt lat="12.57668045" lon="78.1656187">
        <ele>428.1</ele>
        <time>2026-02-23T09:05:00Z</time>
        <speed>9.19</speed>
        <sat>24</sat>
      </trkpt>
      <trkpt lat="12.57672048" lon="78.16554756">
        <ele>427.822</ele>
        <time>2026-02-23T09:05:01Z</time>
        <speed>9.22</speed>
        <sat>24</sat>
      </trkpt>
      <trkpt lat="12.57676156" lon="78.16547527">
        <ele>427.93</ele>
        <time>2026-02-23T09:05:02Z</time>
        <speed>8.94</speed>
        <sat>24</sat>
      </trkpt>
      <trkpt lat="12.57680013" lon="78.16540755">
        <ele>427.702</ele>
        <time>2026-02-23T09:05:03Z</time>
        <speed>8.85</speed>
        <sat>24</sat>
      </trkpt>
      <trkpt lat="12.57683967" lon="78.16533964">
        <ele>427.256</ele>
        <time>2026-02-23T09:05:04Z</time>
        <speed>9.1</speed>
        <sat>23</sat>
      </trkpt>
      <trkpt lat="12.57688491" lon="78.16526618">
        <ele>427.36</ele>
        <time>2026-02-23T09:05:05Z</time>
        <speed>9.23</speed>
        <sat>22</sat>
      </trkpt>
      <trkpt lat="12.57692539" lon="78.16519128">
        <ele>427.193</ele>
        <time>2026-02-23T09:05:06Z</time>
        <speed>9.5</speed>
        <sat>22</sat>
      </trkpt>
      <trkpt lat="12.5769695" lon="78.16511902">
        <ele>426.892</ele>
        <time>2026-02-23T09:05:07Z</time>
        <speed>9.54</speed>
        <sat>22</sat>
      </trkpt>
      <trkpt lat="12.57701392" lon="78.16504346">
        <ele>427.206</ele>
        <time>2026-02-23T09:05:08Z</time>
        <speed>9.53</speed>
        <sat>23</sat>
      </trkpt>
      <trkpt lat="12.5770557" lon="78.16496872">
        <ele>426.944</ele>
        <time>2026-02-23T09:05:09Z</time>
        <speed>9.4</speed>
        <sat>22</sat>
      </trkpt>
      <trkpt lat="12.577097" lon="78.16488823">
        <ele>426.808</ele>
        <time>2026-02-23T09:05:10Z</time>
        <speed>9.62</speed>
        <sat>22</sat>
      </trkpt>
      <trkpt lat="12.57714116" lon="78.16480957">
        <ele>427.071</ele>
        <time>2026-02-23T09:05:11Z</time>
        <speed>9.63</speed>
        <sat>21</sat>
      </trkpt>
      <trkpt lat="12.57718316" lon="78.1647357">
        <ele>426.514</ele>
        <time>2026-02-23T09:05:12Z</time>
        <speed>9.7</speed>
        <sat>23</sat>
      </trkpt>
      <trkpt lat="12.57722855" lon="78.16465374">
        <ele>426.229</ele>
        <time>2026-02-23T09:05:13Z</time>
        <speed>9.53</speed>
        <sat>24</sat>
      </trkpt>
      <trkpt lat="12.57727184" lon="78.16458439">
        <ele>425.918</ele>
        <time>2026-02-23T09:05:14Z</time>
        <speed>9.59</speed>
        <sat>22</sat>
      </trkpt>
      <trkpt lat="12.57731975" lon="78.16450381">
        <ele>425.821</ele>
        <time>2026-02-23T09:05:15Z</time>
        <speed>9.66</speed>
        <sat>24</sat>
      </trkpt>
      <trkpt lat="12.57736489" lon="78.16443138">
        <ele>425.843</ele>
        <time>2026-02-23T09:05:16Z</time>
        <speed>9.64</speed>
        <sat>24</sat>
      </trkpt>
      <trkpt lat="12.57741215" lon="78.16435232">
        <ele>425.711</ele>
        <time>2026-02-23T09:05:17Z</time>
        <speed>9.78</speed>
        <sat>22</sat>
      </trkpt>
      <trkpt lat="12.57745977" lon="78.1642762">
        <ele>425.849</ele>
        <time>2026-02-23T09:05:18Z</time>
        <speed>9.74</speed>
        <sat>23</sat>
      </trkpt>
      <trkpt lat="12.57750511" lon="78.16420106">
        <ele>425.844</ele>
        <time>2026-02-23T09:05:19Z</time>
        <speed>9.95</speed>
        <sat>23</sat>
      </trkpt>
      <trkpt lat="12.57755307" lon="78.16412275">
        <ele>426.238</ele>
        <time>2026-02-23T09:05:20Z</time>
        <speed>10.17</speed>
        <sat>22</sat>
      </trkpt>
      <trkpt lat="12.57760786" lon="78.164043">
        <ele>425.912</ele>
        <time>2026-02-23T09:05:21Z</time>
        <speed>10.37</speed>
        <sat>22</sat>
      </trkpt>
      <trkpt lat="12.57766088" lon="78.16395257">
        <ele>425.211</ele>
        <time>2026-02-23T09:05:22Z</time>
        <speed>10.38</speed>
        <sat>25</sat>
      </trkpt>
      <trkpt lat="12.5777103" lon="78.16387662">
        <ele>425.291</ele>
        <time>2026-02-23T09:05:23Z</time>
        <speed>10.61</speed>
        <sat>24</sat>
      </trkpt>
      <trkpt lat="12.57777268" lon="78.16379728">
        <ele>425.656</ele>
        <time>2026-02-23T09:05:24Z</time>
        <speed>10.58</speed>
        <sat>24</sat>
      </trkpt>
      <trkpt lat="12.57783011" lon="78.16372102">
        <ele>425.955</ele>
        <time>2026-02-23T09:05:25Z</time>
        <speed>10.51</speed>
        <sat>24</sat>
      </trkpt>
      <trkpt lat="12.5778878" lon="78.16364286">
        <ele>425.987</ele>
        <time>2026-02-23T09:05:26Z</time>
        <speed>10.37</speed>
        <sat>24</sat>
      </trkpt>
      <trkpt lat="12.57793971" lon="78.16356407">
        <ele>425.721</ele>
        <time>2026-02-23T09:05:27Z</time>
        <speed>10.3</speed>
        <sat>24</sat>
      </trkpt>
      <trkpt lat="12.57800124" lon="78.16348723">
        <ele>425.461</ele>
        <time>2026-02-23T09:05:28Z</time>
        <speed>10.42</speed>
        <sat>22</sat>
      </trkpt>
      <trkpt lat="12.57806097" lon="78.16341091">
        <ele>425.688</ele>
        <time>2026-02-23T09:05:29Z</time>
        <speed>10.48</speed>
        <sat>22</sat>
      </trkpt>
      <trkpt lat="12.57812064" lon="78.16333421">
        <ele>425.695</ele>
        <time>2026-02-23T09:05:30Z</time>
        <speed>10.68</speed>
        <sat>20</sat>
      </trkpt>
      <trkpt lat="12.57818245" lon="78.16325903">
        <ele>425.753</ele>
        <time>2026-02-23T09:05:31Z</time>
        <speed>10.52</speed>
        <sat>23</sat>
      </trkpt>
      <trkpt lat="12.57823654" lon="78.16318636">
        <ele>425.438</ele>
        <time>2026-02-23T09:05:32Z</time>
        <speed>10.37</speed>
        <sat>22</sat>
      </trkpt>
      <trkpt lat="12.57830173" lon="78.16311646">
        <ele>425.415</ele>
        <time>2026-02-23T09:05:33Z</time>
        <speed>10.48</speed>
        <sat>24</sat>
      </trkpt>
      <trkpt lat="12.57835219" lon="78.16303927">
        <ele>425.187</ele>
        <time>2026-02-23T09:05:34Z</time>
        <speed>10.45</speed>
        <sat>24</sat>
      </trkpt>
      <trkpt lat="12.5784147" lon="78.16295832">
        <ele>424.767</ele>
        <time>2026-02-23T09:05:35Z</time>
        <speed>10.31</speed>
        <sat>23</sat>
      </trkpt>
      <trkpt lat="12.5784726" lon="78.16288701">
        <ele>425.071</ele>
        <time>2026-02-23T09:05:36Z</time>
        <speed>10.12</speed>
        <sat>21</sat>
      </trkpt>
      <trkpt lat="12.57853382" lon="78.16281172">
        <ele>424.919</ele>
        <time>2026-02-23T09:05:37Z</time>
        <speed>10.21</speed>
        <sat>23</sat>
      </trkpt>
      <trkpt lat="12.57859192" lon="78.16273667">
        <ele>424.658</ele>
        <time>2026-02-23T09:05:38Z</time>
        <speed>10.09</speed>
        <sat>24</sat>
      </trkpt>
      <trkpt lat="12.57864862" lon="78.16266051">
        <ele>424.669</ele>
        <time>2026-02-23T09:05:39Z</time>
        <speed>10.05</speed>
        <sat>22</sat>
      </trkpt>
      <trkpt lat="12.57871073" lon="78.16259033">
        <ele>424.739</ele>
        <time>2026-02-23T09:05:40Z</time>
        <speed>9.99</speed>
        <sat>22</sat>
      </trkpt>
      <trkpt lat="12.57877154" lon="78.16251862">
        <ele>424.895</ele>
        <time>2026-02-23T09:05:41Z</time>
        <speed>9.93</speed>
        <sat>23</sat>
      </trkpt>
      <trkpt lat="12.57883169" lon="78.16244047">
        <ele>424.876</ele>
        <time>2026-02-23T09:05:42Z</time>
        <speed>10.01</speed>
        <sat>23</sat>
      </trkpt>
      <trkpt lat="12.57888582" lon="78.16237268">
        <ele>424.886</ele>
        <time>2026-02-23T09:05:43Z</time>
        <speed>9.98</speed>
        <sat>22</sat>
      </trkpt>
      <trkpt lat="12.57894317" lon="78.16230729">
        <ele>425.318</ele>
        <time>2026-02-23T09:05:44Z</time>
        <speed>9.71</speed>
        <sat>26</sat>
      </trkpt>
      <trkpt lat="12.57899547" lon="78.1622422">
        <ele>425.15</ele>
        <time>2026-02-23T09:05:45Z</time>
        <speed>9.86</speed>
        <sat>24</sat>
      </trkpt>
      <trkpt lat="12.57905619" lon="78.16217341">
        <ele>425.186</ele>
        <time>2026-02-23T09:05:46Z</time>
        <speed>9.88</speed>
        <sat>26</sat>
      </trkpt>
      <trkpt lat="12.57911606" lon="78.16210319">
        <ele>425.529</ele>
        <time>2026-02-23T09:05:47Z</time>
        <speed>9.67</speed>
        <sat>27</sat>
      </trkpt>
      <trkpt lat="12.57917222" lon="78.16203588">
        <ele>425.586</ele>
        <time>2026-02-23T09:05:48Z</time>
        <speed>9.46</speed>
        <sat>26</sat>
      </trkpt>
      <trkpt lat="12.57922682" lon="78.16197102">
        <ele>426.615</ele>
        <time>2026-02-23T09:05:49Z</time>
        <speed>9.19</speed>
        <sat>24</sat>
      </trkpt>
      <trkpt lat="12.57928107" lon="78.16190431">
        <ele>426.921</ele>
        <time>2026-02-23T09:05:50Z</time>
        <speed>9.21</speed>
        <sat>24</sat>
      </trkpt>
      <trkpt lat="12.57933562" lon="78.16184119">
        <ele>426.99</ele>
        <time>2026-02-23T09:05:51Z</time>
        <speed>9.21</speed>
        <sat>23</sat>
      </trkpt>
      <trkpt lat="12.57938282" lon="78.16177184">
        <ele>428.121</ele>
        <time>2026-02-23T09:05:52Z</time>
        <speed>9.09</speed>
        <sat>22</sat>
      </trkpt>
      <trkpt lat="12.57943163" lon="78.16170848">
        <ele>428.607</ele>
        <time>2026-02-23T09:05:53Z</time>
        <speed>9.02</speed>
        <sat>23</sat>
      </trkpt>
      <trkpt lat="12.57948938" lon="78.16164272">
        <ele>429.096</ele>
        <time>2026-02-23T09:05:54Z</time>
        <speed>9.02</speed>
        <sat>24</sat>
      </trkpt>
      <trkpt lat="12.57953944" lon="78.16157603">
        <ele>429.585</ele>
        <time>2026-02-23T09:05:55Z</time>
        <speed>9.04</speed>
        <sat>24</sat>
      </trkpt>
      <trkpt lat="12.57958695" lon="78.16151366">
        <ele>430.798</ele>
        <time>2026-02-23T09:05:56Z</time>
        <speed>8.72</speed>
        <sat>23</sat>
      </trkpt>
      <trkpt lat="12.57963857" lon="78.16145192">
        <ele>431.116</ele>
        <time>2026-02-23T09:05:57Z</time>
        <speed>8.56</speed>
        <sat>24</sat>
      </trkpt>
      <trkpt lat="12.57969166" lon="78.16139196">
        <ele>431.625</ele>
        <time>2026-02-23T09:05:58Z</time>
        <speed>8.63</speed>
        <sat>22</sat>
      </trkpt>
      <trkpt lat="12.57974284" lon="78.16133018">
        <ele>431.929</ele>
        <time>2026-02-23T09:05:59Z</time>
        <speed>8.69</speed>
        <sat>21</sat>
      </trkpt>
      <trkpt lat="12.57979637" lon="78.16127044">
        <ele>432.061</ele>
        <time>2026-02-23T09:06:00Z</time>
        <speed>8.87</speed>
        <sat>23</sat>
      </trkpt>
      <trkpt lat="12.57984966" lon="78.16120691">
        <ele>432.213</ele>
        <time>2026-02-23T09:06:01Z</time>
        <speed>9.03</speed>
        <sat>24</sat>
      </trkpt>
      <trkpt lat="12.57990074" lon="78.1611399">
        <ele>432.258</ele>
        <time>2026-02-23T09:06:02Z</time>
        <speed>9.08</speed>
        <sat>23</sat>
      </trkpt>
      <trkpt lat="12.57994749" lon="78.16108067">
        <ele>431.98</ele>
        <time>2026-02-23T09:06:03Z</time>
        <speed>9.06</speed>
        <sat>23</sat>
      </trkpt>
      <trkpt lat="12.58000095" lon="78.16101651">
        <ele>432.571</ele>
        <time>2026-02-23T09:06:04Z</time>
        <speed>8.99</speed>
        <sat>24</sat>
      </trkpt>
      <trkpt lat="12.58005436" lon="78.16095805">
        <ele>433.187</ele>
        <time>2026-02-23T09:06:05Z</time>
        <speed>8.89</speed>
        <sat>23</sat>
      </trkpt>
      <trkpt lat="12.5801065" lon="78.16089625">
        <ele>433.191</ele>
        <time>2026-02-23T09:06:06Z</time>
        <speed>8.94</speed>
        <sat>22</sat>
      </trkpt>
      <trkpt lat="12.58015645" lon="78.16083361">
        <ele>432.807</ele>
        <time>2026-02-23T09:06:07Z</time>
        <speed>9.03</speed>
        <sat>22</sat>
      </trkpt>
      <trkpt lat="12.58020998" lon="78.1607673">
        <ele>433.015</ele>
        <time>2026-02-23T09:06:08Z</time>
        <speed>9.13</speed>
        <sat>20</sat>
      </trkpt>
      <trkpt lat="12.58025647" lon="78.16070657">
        <ele>432.803</ele>
        <time>2026-02-23T09:06:09Z</time>
        <speed>8.82</speed>
        <sat>22</sat>
      </trkpt>
      <trkpt lat="12.58030902" lon="78.16064521">
        <ele>433.318</ele>
        <time>2026-02-23T09:06:10Z</time>
        <speed>8.81</speed>
        <sat>24</sat>
      </trkpt>
      <trkpt lat="12.58036492" lon="78.16058573">
        <ele>433.344</ele>
        <time>2026-02-23T09:06:11Z</time>
        <speed>8.79</speed>
        <sat>24</sat>
      </trkpt>
      <trkpt lat="12.58042042" lon="78.16052423">
        <ele>433.834</ele>
        <time>2026-02-23T09:06:12Z</time>
        <speed>8.91</speed>
        <sat>20</sat>
      </trkpt>
      <trkpt lat="12.58047758" lon="78.16046606">
        <ele>433.644</ele>
        <time>2026-02-23T09:06:13Z</time>
        <speed>8.92</speed>
        <sat>22</sat>
      </trkpt>
      <trkpt lat="12.5805352" lon="78.16040005">
        <ele>434.056</ele>
        <time>2026-02-23T09:06:14Z</time>
        <speed>8.79</speed>
        <sat>23</sat>
      </trkpt>
      <trkpt lat="12.58058292" lon="78.16033614">
        <ele>433.635</ele>
        <time>2026-02-23T09:06:15Z</time>
        <speed>8.74</speed>
        <sat>22</sat>
      </trkpt>
      <trkpt lat="12.58063658" lon="78.16027301">
        <ele>434.674</ele>
        <time>2026-02-23T09:06:16Z</time>
        <speed>8.76</speed>
        <sat>23</sat>
      </trkpt>
      <trkpt lat="12.58068665" lon="78.16021027">
        <ele>434.479</ele>
        <time>2026-02-23T09:06:17Z</time>
        <speed>8.65</speed>
        <sat>22</sat>
      </trkpt>
      <trkpt lat="12.58073411" lon="78.16014958">
        <ele>434.542</ele>
        <time>2026-02-23T09:06:18Z</time>
        <speed>8.59</speed>
        <sat>21</sat>
      </trkpt>
      <trkpt lat="12.5807814" lon="78.16008617">
        <ele>434.092</ele>
        <time>2026-02-23T09:06:19Z</time>
        <speed>8.24</speed>
        <sat>21</sat>
      </trkpt>
      <trkpt lat="12.58083144" lon="78.16002802">
        <ele>433.864</ele>
        <time>2026-02-23T09:06:20Z</time>
        <speed>8.06</speed>
        <sat>22</sat>
      </trkpt>
      <trkpt lat="12.58087703" lon="78.15996343">
        <ele>434.294</ele>
        <time>2026-02-23T09:06:21Z</time>
        <speed>8.42</speed>
        <sat>20</sat>
      </trkpt>
      <trkpt lat="12.58092529" lon="78.15990381">
        <ele>434.251</ele>
        <time>2026-02-23T09:06:22Z</time>
        <speed>8.94</speed>
        <sat>23</sat>
      </trkpt>
      <trkpt lat="12.58097615" lon="78.15983532">
        <ele>434.0</ele>
        <time>2026-02-23T09:06:23Z</time>
        <speed>8.77</speed>
        <sat>24</sat>
      </trkpt>
      <trkpt lat="12.58102445" lon="78.1597749">
        <ele>434.135</ele>
        <time>2026-02-23T09:06:24Z</time>
        <speed>8.84</speed>
        <sat>22</sat>
      </trkpt>
      <trkpt lat="12.58107635" lon="78.15970897">
        <ele>434.143</ele>
        <time>2026-02-23T09:06:25Z</time>
        <speed>8.81</speed>
        <sat>24</sat>
      </trkpt>
      <trkpt lat="12.58111797" lon="78.159645">
        <ele>433.97</ele>
        <time>2026-02-23T09:06:26Z</time>
        <speed>9.19</speed>
        <sat>23</sat>
      </trkpt>
      <trkpt lat="12.58116049" lon="78.15957081">
        <ele>433.687</ele>
        <time>2026-02-23T09:06:27Z</time>
        <speed>9.14</speed>
        <sat>23</sat>
      </trkpt>
      <trkpt lat="12.58121085" lon="78.15950211">
        <ele>433.973</ele>
        <time>2026-02-23T09:06:28Z</time>
        <speed>9.39</speed>
        <sat>23</sat>
      </trkpt>
      <trkpt lat="12.58126046" lon="78.1594297">
        <ele>434.099</ele>
        <time>2026-02-23T09:06:29Z</time>
        <speed>9.76</speed>
        <sat>24</sat>
      </trkpt>
      <trkpt lat="12.58130978" lon="78.15935832">
        <ele>434.337</ele>
        <time>2026-02-23T09:06:30Z</time>
        <speed>9.55</speed>
        <sat>24</sat>
      </trkpt>
      <trkpt lat="12.58135881" lon="78.15928427">
        <ele>434.468</ele>
        <time>2026-02-23T09:06:31Z</time>
        <speed>9.68</speed>
        <sat>23</sat>
      </trkpt>
      <trkpt lat="12.58140853" lon="78.15920805">
        <ele>434.569</ele>
        <time>2026-02-23T09:06:32Z</time>
        <speed>9.86</speed>
        <sat>23</sat>
      </trkpt>
      <trkpt lat="12.58145209" lon="78.15913246">
        <ele>434.639</ele>
        <time>2026-02-23T09:06:33Z</time>
        <speed>9.96</speed>
        <sat>25</sat>
      </trkpt>
      <trkpt lat="12.58149285" lon="78.15905314">
        <ele>434.607</ele>
        <time>2026-02-23T09:06:34Z</time>
        <speed>10.13</speed>
        <sat>25</sat>
      </trkpt>
      <trkpt lat="12.58153535" lon="78.15896773">
        <ele>435.042</ele>
        <time>2026-02-23T09:06:35Z</time>
        <speed>10.12</speed>
        <sat>23</sat>
      </trkpt>
      <trkpt lat="12.58157368" lon="78.15887635">
        <ele>434.737</ele>
        <time>2026-02-23T09:06:36Z</time>
        <speed>10.04</speed>
        <sat>26</sat>
      </trkpt>
      <trkpt lat="12.5816135" lon="78.15879358">
        <ele>434.996</ele>
        <time>2026-02-23T09:06:37Z</time>
        <speed>9.95</speed>
        <sat>24</sat>
      </trkpt>
      <trkpt lat="12.5816436" lon="78.15870908">
        <ele>435.983</ele>
        <time>2026-02-23T09:06:38Z</time>
        <speed>9.76</speed>
        <sat>24</sat>
      </trkpt>
      <trkpt lat="12.58167751" lon="78.15863118">
        <ele>436.454</ele>
        <time>2026-02-23T09:06:39Z</time>
        <speed>9.65</speed>
        <sat>23</sat>
      </trkpt>
      <trkpt lat="12.5817108" lon="78.15855142">
        <ele>436.573</ele>
        <time>2026-02-23T09:06:40Z</time>
        <speed>9.62</speed>
        <sat>25</sat>
      </trkpt>
      <trkpt lat="12.58174563" lon="78.15847065">
        <ele>436.686</ele>
        <time>2026-02-23T09:06:41Z</time>
        <speed>9.47</speed>
        <sat>24</sat>
      </trkpt>
      <trkpt lat="12.58177898" lon="78.15839467">
        <ele>436.198</ele>
        <time>2026-02-23T09:06:42Z</time>
        <speed>9.31</speed>
        <sat>25</sat>
      </trkpt>
      <trkpt lat="12.58180805" lon="78.1583085">
        <ele>436.09</ele>
        <time>2026-02-23T09:06:43Z</time>
        <speed>9.12</speed>
        <sat>24</sat>
      </trkpt>
      <trkpt lat="12.58183768" lon="78.15823157">
        <ele>436.462</ele>
        <time>2026-02-23T09:06:44Z</time>
        <speed>9.05</speed>
        <sat>23</sat>
      </trkpt>
      <trkpt lat="12.58186666" lon="78.15815653">
        <ele>436.028</ele>
        <time>2026-02-23T09:06:45Z</time>
        <speed>8.73</speed>
        <sat>21</sat>
      </trkpt>
      <trkpt lat="12.58189479" lon="78.15808362">
        <ele>435.649</ele>
        <time>2026-02-23T09:06:46Z</time>
        <speed>8.1</speed>
        <sat>24</sat>
      </trkpt>
      <trkpt lat="12.58191885" lon="78.15801679">
        <ele>435.561</ele>
        <time>2026-02-23T09:06:47Z</time>
        <speed>7.64</speed>
        <sat>22</sat>
      </trkpt>
      <trkpt lat="12.58194476" lon="78.15794144">
        <ele>434.95</ele>
        <time>2026-02-23T09:06:48Z</time>
        <speed>7.48</speed>
        <sat>23</sat>
      </trkpt>
      <trkpt lat="12.58196462" lon="78.15787986">
        <ele>434.723</ele>
        <time>2026-02-23T09:06:49Z</time>
        <speed>7.0</speed>
        <sat>22</sat>
      </trkpt>
      <trkpt lat="12.58198645" lon="78.1578241">
        <ele>435.05</ele>
        <time>2026-02-23T09:06:50Z</time>
        <speed>6.2</speed>
        <sat>26</sat>
      </trkpt>
      <trkpt lat="12.58199919" lon="78.15778162">
        <ele>434.352</ele>
        <time>2026-02-23T09:06:51Z</time>
        <speed>5.06</speed>
        <sat>24</sat>
      </trkpt>
      <trkpt lat="12.5820097" lon="78.15774486">
        <ele>434.46</ele>
        <time>2026-02-23T09:06:52Z</time>
        <speed>3.98</speed>
        <sat>24</sat>
      </trkpt>
      <trkpt lat="12.58202164" lon="78.15771956">
        <ele>434.876</ele>
        <time>2026-02-23T09:06:53Z</time>
        <speed>2.95</speed>
        <sat>22</sat>
      </trkpt>
      <trkpt lat="12.58203446" lon="78.15769302">
        <ele>434.789</ele>
        <time>2026-02-23T09:06:54Z</time>
        <speed>3.3</speed>
        <sat>24</sat>
      </trkpt>
      <trkpt lat="12.5820511" lon="78.15765984">
        <ele>434.932</ele>
        <time>2026-02-23T09:06:55Z</time>
        <speed>4.58</speed>
        <sat>23</sat>
      </trkpt>
      <trkpt lat="12.58207267" lon="78.15762045">
        <ele>435.378</ele>
        <time>2026-02-23T09:06:56Z</time>
        <speed>5.48</speed>
        <sat>24</sat>
      </trkpt>
      <trkpt lat="12.58209599" lon="78.15756595">
        <ele>435.332</ele>
        <time>2026-02-23T09:06:57Z</time>
        <speed>6.08</speed>
        <sat>24</sat>
      </trkpt>
      <trkpt lat="12.58212528" lon="78.15751578">
        <ele>435.576</ele>
        <time>2026-02-23T09:06:58Z</time>
        <speed>6.52</speed>
        <sat>26</sat>
      </trkpt>
      <trkpt lat="12.58214863" lon="78.15746503">
        <ele>435.841</ele>
        <time>2026-02-23T09:06:59Z</time>
        <speed>6.71</speed>
        <sat>24</sat>
      </trkpt>
      <trkpt lat="12.58217625" lon="78.15741273">
        <ele>436.291</ele>
        <time>2026-02-23T09:07:00Z</time>
        <speed>6.37</speed>
        <sat>25</sat>
      </trkpt>
      <trkpt lat="12.58220004" lon="78.15736031">
        <ele>436.338</ele>
        <time>2026-02-23T09:07:01Z</time>
        <speed>6.18</speed>
        <sat>24</sat>
      </trkpt>
      <trkpt lat="12.58221971" lon="78.15731298">
        <ele>436.574</ele>
        <time>2026-02-23T09:07:02Z</time>
        <speed>5.62</speed>
        <sat>24</sat>
      </trkpt>
      <trkpt lat="12.58223592" lon="78.15727007">
        <ele>436.896</ele>
        <time>2026-02-23T09:07:03Z</time>
        <speed>4.81</speed>
        <sat>24</sat>
      </trkpt>
      <trkpt lat="12.5822552" lon="78.15722563">
        <ele>437.233</ele>
        <time>2026-02-23T09:07:04Z</time>
        <speed>4.47</speed>
        <sat>25</sat>
      </trkpt>
      <trkpt lat="12.58226937" lon="78.15719338">
        <ele>437.09</ele>
        <time>2026-02-23T09:07:05Z</time>
        <speed>3.31</speed>
        <sat>24</sat>
      </trkpt>
      <trkpt lat="12.58227749" lon="78.15717209">
        <ele>437.26</ele>
        <time>2026-02-23T09:07:06Z</time>
        <speed>2.23</speed>
        <sat>25</sat>
      </trkpt>
      <trkpt lat="12.58228383" lon="78.15715496">
        <ele>437.838</ele>
        <time>2026-02-23T09:07:07Z</time>
        <speed>2.41</speed>
        <sat>22</sat>
      </trkpt>
      <trkpt lat="12.58229439" lon="78.1571233">
        <ele>437.817</ele>
        <time>2026-02-23T09:07:08Z</time>
        <speed>3.56</speed>
        <sat>24</sat>
      </trkpt>
      <trkpt lat="12.58230756" lon="78.15708676">
        <ele>438.124</ele>
        <time>2026-02-23T09:07:09Z</time>
        <speed>4.56</speed>
        <sat>26</sat>
      </trkpt>
      <trkpt lat="12.58232607" lon="78.15704229">
        <ele>438.027</ele>
        <time>2026-02-23T09:07:10Z</time>
        <speed>5.48</speed>
        <sat>24</sat>
      </trkpt>
      <trkpt lat="12.58234611" lon="78.15699053">
        <ele>437.097</ele>
        <time>2026-02-23T09:07:11Z</time>
        <speed>6.29</speed>
        <sat>27</sat>
      </trkpt>
      <trkpt lat="12.5823698" lon="78.15693936">
        <ele>437.409</ele>
        <time>2026-02-23T09:07:12Z</time>
        <speed>6.98</speed>
        <sat>27</sat>
      </trkpt>
      <trkpt lat="12.58239149" lon="78.1568846">
        <ele>437.521</ele>
        <time>2026-02-23T09:07:13Z</time>
        <speed>6.66</speed>
        <sat>25</sat>
      </trkpt>
      <trkpt lat="12.58241928" lon="78.15683297">
        <ele>437.94</ele>
        <time>2026-02-23T09:07:14Z</time>
        <speed>6.64</speed>
        <sat>25</sat>
      </trkpt>
      <trkpt lat="12.58244831" lon="78.15677449">
        <ele>438.051</ele>
        <time>2026-02-23T09:07:15Z</time>
        <speed>7.26</speed>
        <sat>21</sat>
      </trkpt>
      <trkpt lat="12.58247665" lon="78.15671602">
        <ele>437.786</ele>
        <time>2026-02-23T09:07:16Z</time>
        <speed>7.71</speed>
        <sat>24</sat>
      </trkpt>
      <trkpt lat="12.58249634" lon="78.15664328">
        <ele>437.091</ele>
        <time>2026-02-23T09:07:17Z</time>
        <speed>8.18</speed>
        <sat>25</sat>
      </trkpt>
      <trkpt lat="12.58252332" lon="78.15657245">
        <ele>438.027</ele>
        <time>2026-02-23T09:07:18Z</time>
        <speed>8.38</speed>
        <sat>24</sat>
      </trkpt>
      <trkpt lat="12.58256169" lon="78.15650401">
        <ele>438.145</ele>
        <time>2026-02-23T09:07:19Z</time>
        <speed>8.6</speed>
        <sat>22</sat>
      </trkpt>
      <trkpt lat="12.58259258" lon="78.15643406">
        <ele>438.102</ele>
        <time>2026-02-23T09:07:20Z</time>
        <speed>8.76</speed>
        <sat>23</sat>
      </trkpt>
      <trkpt lat="12.58262298" lon="78.15635813">
        <ele>437.792</ele>
        <time>2026-02-23T09:07:21Z</time>
        <speed>8.75</speed>
        <sat>24</sat>
      </trkpt>
      <trkpt lat="12.58265035" lon="78.15628603">
        <ele>437.826</ele>
        <time>2026-02-23T09:07:22Z</time>
        <speed>8.61</speed>
        <sat>24</sat>
      </trkpt>
      <trkpt lat="12.5826788" lon="78.15621419">
        <ele>437.499</ele>
        <time>2026-02-23T09:07:23Z</time>
        <speed>8.87</speed>
        <sat>23</sat>
      </trkpt>
      <trkpt lat="12.58271064" lon="78.15613847">
        <ele>437.925</ele>
        <time>2026-02-23T09:07:24Z</time>
        <speed>9.16</speed>
        <sat>23</sat>
      </trkpt>
      <trkpt lat="12.58274557" lon="78.15606191">
        <ele>437.987</ele>
        <time>2026-02-23T09:07:25Z</time>
        <speed>9.16</speed>
        <sat>21</sat>
      </trkpt>
      <trkpt lat="12.58278133" lon="78.15598622">
        <ele>438.757</ele>
        <time>2026-02-23T09:07:26Z</time>
        <speed>9.28</speed>
        <sat>18</sat>
      </trkpt>
      <trkpt lat="12.58281335" lon="78.15590589">
        <ele>439.061</ele>
        <time>2026-02-23T09:07:27Z</time>
        <speed>9.24</speed>
        <sat>21</sat>
      </trkpt>
      <trkpt lat="12.58284858" lon="78.15583156">
        <ele>440.148</ele>
        <time>2026-02-23T09:07:28Z</time>
        <speed>9.35</speed>
        <sat>22</sat>
      </trkpt>
      <trkpt lat="12.58288316" lon="78.15575733">
        <ele>440.12</ele>
        <time>2026-02-23T09:07:29Z</time>
        <speed>9.26</speed>
        <sat>23</sat>
      </trkpt>
      <trkpt lat="12.58291793" lon="78.15568253">
        <ele>440.045</ele>
        <time>2026-02-23T09:07:30Z</time>
        <speed>9.31</speed>
        <sat>24</sat>
      </trkpt>
      <trkpt lat="12.58294919" lon="78.15559964">
        <ele>441.607</ele>
        <time>2026-02-23T09:07:31Z</time>
        <speed>9.45</speed>
        <sat>23</sat>
      </trkpt>
      <trkpt lat="12.5829831" lon="78.15552174">
        <ele>441.913</ele>
        <time>2026-02-23T09:07:32Z</time>
        <speed>9.51</speed>
        <sat>24</sat>
      </trkpt>
      <trkpt lat="12.58301737" lon="78.15544403">
        <ele>442.761</ele>
        <time>2026-02-23T09:07:33Z</time>
        <speed>9.36</speed>
        <sat>23</sat>
      </trkpt>
      <trkpt lat="12.58305401" lon="78.15536577">
        <ele>442.505</ele>
        <time>2026-02-23T09:07:34Z</time>
        <speed>9.34</speed>
        <sat>22</sat>
      </trkpt>
      <trkpt lat="12.58308779" lon="78.15528675">
        <ele>442.555</ele>
        <time>2026-02-23T09:07:35Z</time>
        <speed>9.41</speed>
        <sat>22</sat>
      </trkpt>
      <trkpt lat="12.58312567" lon="78.15520462">
        <ele>443.055</ele>
        <time>2026-02-23T09:07:36Z</time>
        <speed>9.32</speed>
        <sat>24</sat>
      </trkpt>
      <trkpt lat="12.5831533" lon="78.15512548">
        <ele>442.601</ele>
        <time>2026-02-23T09:07:37Z</time>
        <speed>9.4</speed>
        <sat>22</sat>
      </trkpt>
      <trkpt lat="12.5831821" lon="78.1550487">
        <ele>442.327</ele>
        <time>2026-02-23T09:07:38Z</time>
        <speed>9.34</speed>
        <sat>24</sat>
      </trkpt>
      <trkpt lat="12.58321174" lon="78.1549631">
        <ele>442.529</ele>
        <time>2026-02-23T09:07:39Z</time>
        <speed>9.29</speed>
        <sat>23</sat>
      </trkpt>
      <trkpt lat="12.58324873" lon="78.15488454">
        <ele>443.064</ele>
        <time>2026-02-23T09:07:40Z</time>
        <speed>9.21</speed>
        <sat>23</sat>
      </trkpt>
      <trkpt lat="12.58328281" lon="78.15480618">
        <ele>443.488</ele>
        <time>2026-02-23T09:07:41Z</time>
        <speed>9.24</speed>
        <sat>21</sat>
      </trkpt>
      <trkpt lat="12.58330989" lon="78.15473159">
        <ele>442.905</ele>
        <time>2026-02-23T09:07:42Z</time>
        <speed>9.48</speed>
        <sat>22</sat>
      </trkpt>
      <trkpt lat="12.58334418" lon="78.15465202">
        <ele>442.587</ele>
        <time>2026-02-23T09:07:43Z</time>
        <speed>9.76</speed>
        <sat>21</sat>
      </trkpt>
      <trkpt lat="12.58338218" lon="78.15456046">
        <ele>442.25</ele>
        <time>2026-02-23T09:07:44Z</time>
        <speed>9.63</speed>
        <sat>22</sat>
      </trkpt>
      <trkpt lat="12.58341792" lon="78.15447947">
        <ele>442.624</ele>
        <time>2026-02-23T09:07:45Z</time>
        <speed>9.42</speed>
        <sat>22</sat>
      </trkpt>
      <trkpt lat="12.58345453" lon="78.15440277">
        <ele>442.69</ele>
        <time>2026-02-23T09:07:46Z</time>
        <speed>9.25</speed>
        <sat>22</sat>
      </trkpt>
      <trkpt lat="12.58348875" lon="78.15432274">
        <ele>443.342</ele>
        <time>2026-02-23T09:07:47Z</time>
        <speed>9.66</speed>
        <sat>23</sat>
      </trkpt>
      <trkpt lat="12.58352303" lon="78.15424591">
        <ele>442.574</ele>
        <time>2026-02-23T09:07:48Z</time>
        <speed>9.46</speed>
        <sat>21</sat>
      </trkpt>
      <trkpt lat="12.58355614" lon="78.15416863">
        <ele>443.111</ele>
        <time>2026-02-23T09:07:49Z</time>
        <speed>9.12</speed>
        <sat>23</sat>
      </trkpt>
      <trkpt lat="12.58358776" lon="78.15408744">
        <ele>444.319</ele>
        <time>2026-02-23T09:07:50Z</time>
        <speed>8.96</speed>
        <sat>25</sat>
      </trkpt>
      <trkpt lat="12.58361765" lon="78.1540125">
        <ele>444.744</ele>
        <time>2026-02-23T09:07:51Z</time>
        <speed>9.18</speed>
        <sat>23</sat>
      </trkpt>
      <trkpt lat="12.58365159" lon="78.15393512">
        <ele>444.827</ele>
        <time>2026-02-23T09:07:52Z</time>
        <speed>9.3</speed>
        <sat>24</sat>
      </trkpt>
      <trkpt lat="12.58368576" lon="78.15385442">
        <ele>445.576</ele>
        <time>2026-02-23T09:07:53Z</time>
        <speed>9.45</speed>
        <sat>24</sat>
      </trkpt>
      <trkpt lat="12.58371508" lon="78.15377235">
        <ele>445.416</ele>
        <time>2026-02-23T09:07:54Z</time>
        <speed>9.7</speed>
        <sat>23</sat>
      </trkpt>
      <trkpt lat="12.58374707" lon="78.15367929">
        <ele>444.817</ele>
        <time>2026-02-23T09:07:55Z</time>
        <speed>9.58</speed>
        <sat>21</sat>
      </trkpt>
      <trkpt lat="12.58377844" lon="78.15359908">
        <ele>444.603</ele>
        <time>2026-02-23T09:07:56Z</time>
        <speed>9.46</speed>
        <sat>21</sat>
      </trkpt>
      <trkpt lat="12.58380606" lon="78.15351897">
        <ele>445.025</ele>
        <time>2026-02-23T09:07:57Z</time>
        <speed>9.47</speed>
        <sat>19</sat>
      </trkpt>
      <trkpt lat="12.58383351" lon="78.15343752">
        <ele>445.318</ele>
        <time>2026-02-23T09:07:58Z</time>
        <speed>9.31</speed>
        <sat>21</sat>
      </trkpt>
      <trkpt lat="12.58386798" lon="78.15336561">
        <ele>445.333</ele>
        <time>2026-02-23T09:07:59Z</time>
        <speed>9.26</speed>
        <sat>21</sat>
      </trkpt>
      <trkpt lat="12.58389831" lon="78.15329028">
        <ele>446.05</ele>
        <time>2026-02-23T09:08:00Z</time>
        <speed>9.03</speed>
        <sat>22</sat>
      </trkpt>
      <trkpt lat="12.583925" lon="78.15320962">
        <ele>445.6</ele>
        <time>2026-02-23T09:08:01Z</time>
        <speed>8.97</speed>
        <sat>22</sat>
      </trkpt>
      <trkpt lat="12.58395404" lon="78.15313739">
        <ele>445.587</ele>
        <time>2026-02-23T09:08:02Z</time>
        <speed>9.05</speed>
        <sat>21</sat>
      </trkpt>
      <trkpt lat="12.58398767" lon="78.15306219">
        <ele>445.785</ele>
        <time>2026-02-23T09:08:03Z</time>
        <speed>8.83</speed>
        <sat>22</sat>
      </trkpt>
      <trkpt lat="12.58402346" lon="78.15298437">
        <ele>445.844</ele>
        <time>2026-02-23T09:08:04Z</time>
        <speed>8.5</speed>
        <sat>22</sat>
      </trkpt>
      <trkpt lat="12.58405415" lon="78.15291787">
        <ele>446.542</ele>
        <time>2026-02-23T09:08:05Z</time>
        <speed>7.88</speed>
        <sat>23</sat>
      </trkpt>
      <trkpt lat="12.58407448" lon="78.15284819">
        <ele>445.956</ele>
        <time>2026-02-23T09:08:06Z</time>
        <speed>7.59</speed>
        <sat>20</sat>
      </trkpt>
      <trkpt lat="12.58410073" lon="78.15277503">
        <ele>446.426</ele>
        <time>2026-02-23T09:08:07Z</time>
        <speed>8.17</speed>
        <sat>22</sat>
      </trkpt>
      <trkpt lat="12.58412003" lon="78.15270173">
        <ele>446.887</ele>
        <time>2026-02-23T09:08:08Z</time>
        <speed>8.48</speed>
        <sat>20</sat>
      </trkpt>
      <trkpt lat="12.5841452" lon="78.15262313">
        <ele>446.744</ele>
        <time>2026-02-23T09:08:09Z</time>
        <speed>8.6</speed>
        <sat>20</sat>
      </trkpt>
      <trkpt lat="12.58415585" lon="78.15254533">
        <ele>446.982</ele>
        <time>2026-02-23T09:08:10Z</time>
        <speed>8.9</speed>
        <sat>22</sat>
      </trkpt>
      <trkpt lat="12.58417513" lon="78.15246635">
        <ele>446.538</ele>
        <time>2026-02-23T09:08:11Z</time>
        <speed>9.02</speed>
        <sat>21</sat>
      </trkpt>
      <trkpt lat="12.58419846" lon="78.15238573">
        <ele>446.342</ele>
        <time>2026-02-23T09:08:12Z</time>
        <speed>8.99</speed>
        <sat>23</sat>
      </trkpt>
      <trkpt lat="12.58421501" lon="78.15230418">
        <ele>445.304</ele>
        <time>2026-02-23T09:08:13Z</time>
        <speed>8.61</speed>
        <sat>23</sat>
      </trkpt>
      <trkpt lat="12.58423417" lon="78.15222413">
        <ele>445.58</ele>
        <time>2026-02-23T09:08:14Z</time>
        <speed>8.19</speed>
        <sat>22</sat>
      </trkpt>
      <trkpt lat="12.5842533" lon="78.15214728">
        <ele>445.479</ele>
        <time>2026-02-23T09:08:15Z</time>
        <speed>8.01</speed>
        <sat>22</sat>
      </trkpt>
      <trkpt lat="12.58426888" lon="78.1520754">
        <ele>445.044</ele>
        <time>2026-02-23T09:08:16Z</time>
        <speed>7.84</speed>
        <sat>22</sat>
      </trkpt>
      <trkpt lat="12.58428355" lon="78.15201446">
        <ele>445.172</ele>
        <time>2026-02-23T09:08:17Z</time>
        <speed>6.92</speed>
        <sat>24</sat>
      </trkpt>
      <trkpt lat="12.58429979" lon="78.15195277">
        <ele>444.682</ele>
        <time>2026-02-23T09:08:18Z</time>
        <speed>6.48</speed>
        <sat>21</sat>
      </trkpt>
      <trkpt lat="12.58431028" lon="78.1518975">
        <ele>444.111</ele>
        <time>2026-02-23T09:08:19Z</time>
        <speed>6.25</speed>
        <sat>22</sat>
      </trkpt>
      <trkpt lat="12.58432332" lon="78.15184131">
        <ele>444.355</ele>
        <time>2026-02-23T09:08:20Z</time>
        <speed>6.09</speed>
        <sat>21</sat>
      </trkpt>
      <trkpt lat="12.58433124" lon="78.1517917">
        <ele>444.426</ele>
        <time>2026-02-23T09:08:21Z</time>
        <speed>6.38</speed>
        <sat>21</sat>
      </trkpt>
      <trkpt lat="12.58433836" lon="78.151732">
        <ele>444.08</ele>
        <time>2026-02-23T09:08:22Z</time>
        <speed>7.05</speed>
        <sat>21</sat>
      </trkpt>
      <trkpt lat="12.58435601" lon="78.15166139">
        <ele>443.683</ele>
        <time>2026-02-23T09:08:23Z</time>
        <speed>7.6</speed>
        <sat>16</sat>
      </trkpt>
      <trkpt lat="12.58437061" lon="78.15159622">
        <ele>443.027</ele>
        <time>2026-02-23T09:08:24Z</time>
        <speed>7.5</speed>
        <sat>20</sat>
      </trkpt>
      <trkpt lat="12.58438523" lon="78.15153016">
        <ele>441.68</ele>
        <time>2026-02-23T09:08:25Z</time>
        <speed>7.7</speed>
        <sat>20</sat>
      </trkpt>
      <trkpt lat="12.58440836" lon="78.15145884">
        <ele>441.619</ele>
        <time>2026-02-23T09:08:26Z</time>
        <speed>7.7</speed>
        <sat>18</sat>
      </trkpt>
      <trkpt lat="12.58442209" lon="78.15139769">
        <ele>441.597</ele>
        <time>2026-02-23T09:08:27Z</time>
        <speed>6.8</speed>
        <sat>21</sat>
      </trkpt>
      <trkpt lat="12.58443587" lon="78.15133911">
        <ele>440.911</ele>
        <time>2026-02-23T09:08:28Z</time>
        <speed>6.3</speed>
        <sat>22</sat>
      </trkpt>
      <trkpt lat="12.58444765" lon="78.15128446">
        <ele>440.891</ele>
        <time>2026-02-23T09:08:29Z</time>
        <speed>6.06</speed>
        <sat>22</sat>
      </trkpt>
      <trkpt lat="12.58445508" lon="78.15123193">
        <ele>440.592</ele>
        <time>2026-02-23T09:08:30Z</time>
        <speed>5.83</speed>
        <sat>20</sat>
      </trkpt>
      <trkpt lat="12.58446986" lon="78.15117566">
        <ele>440.088</ele>
        <time>2026-02-23T09:08:31Z</time>
        <speed>6.29</speed>
        <sat>19</sat>
      </trkpt>
      <trkpt lat="12.5844847" lon="78.15111697">
        <ele>440.304</ele>
        <time>2026-02-23T09:08:32Z</time>
        <speed>6.84</speed>
        <sat>17</sat>
      </trkpt>
      <trkpt lat="12.58450054" lon="78.15105155">
        <ele>439.979</ele>
        <time>2026-02-23T09:08:33Z</time>
        <speed>7.46</speed>
        <sat>18</sat>
      </trkpt>
      <trkpt lat="12.58451935" lon="78.15098607">
        <ele>439.12</ele>
        <time>2026-02-23T09:08:34Z</time>
        <speed>7.42</speed>
        <sat>18</sat>
      </trkpt>
      <trkpt lat="12.58453882" lon="78.15091753">
        <ele>439.221</ele>
        <time>2026-02-23T09:08:35Z</time>
        <speed>7.69</speed>
        <sat>15</sat>
      </trkpt>
      <trkpt lat="12.58456791" lon="78.15085301">
        <ele>439.456</ele>
        <time>2026-02-23T09:08:36Z</time>
        <speed>8.06</speed>
        <sat>18</sat>
      </trkpt>
      <trkpt lat="12.58459515" lon="78.15078241">
        <ele>439.303</ele>
        <time>2026-02-23T09:08:37Z</time>
        <speed>8.12</speed>
        <sat>19</sat>
      </trkpt>
      <trkpt lat="12.58462208" lon="78.1507169">
        <ele>439.152</ele>
        <time>2026-02-23T09:08:38Z</time>
        <speed>8.35</speed>
        <sat>17</sat>
      </trkpt>
      <trkpt lat="12.58464914" lon="78.15064148">
        <ele>438.311</ele>
        <time>2026-02-23T09:08:39Z</time>
        <speed>8.44</speed>
        <sat>19</sat>
      </trkpt>
      <trkpt lat="12.58467378" lon="78.15057065">
        <ele>438.012</ele>
        <time>2026-02-23T09:08:40Z</time>
        <speed>8.36</speed>
        <sat>18</sat>
      </trkpt>
      <trkpt lat="12.58469844" lon="78.15049971">
        <ele>438.049</ele>
        <time>2026-02-23T09:08:41Z</time>
        <speed>8.24</speed>
        <sat>19</sat>
      </trkpt>
      <trkpt lat="12.58472574" lon="78.150429">
        <ele>437.978</ele>
        <time>2026-02-23T09:08:42Z</time>
        <speed>8.25</speed>
        <sat>19</sat>
      </trkpt>
      <trkpt lat="12.58475191" lon="78.15035515">
        <ele>437.838</ele>
        <time>2026-02-23T09:08:43Z</time>
        <speed>8.27</speed>
        <sat>17</sat>
      </trkpt>
      <trkpt lat="12.58478018" lon="78.15027843">
        <ele>437.379</ele>
        <time>2026-02-23T09:08:44Z</time>
        <speed>8.47</speed>
        <sat>15</sat>
      </trkpt>
      <trkpt lat="12.58482221" lon="78.15020943">
        <ele>437.013</ele>
        <time>2026-02-23T09:08:45Z</time>
        <speed>8.53</speed>
        <sat>15</sat>
      </trkpt>
      <trkpt lat="12.58485035" lon="78.15013457">
        <ele>436.729</ele>
        <time>2026-02-23T09:08:46Z</time>
        <speed>8.82</speed>
        <sat>17</sat>
      </trkpt>
      <trkpt lat="12.5848824" lon="78.15006876">
        <ele>438.085</ele>
        <time>2026-02-23T09:08:47Z</time>
        <speed>8.55</speed>
        <sat>19</sat>
      </trkpt>
      <trkpt lat="12.58492504" lon="78.15000326">
        <ele>437.831</ele>
        <time>2026-02-23T09:08:48Z</time>
        <speed>8.72</speed>
        <sat>17</sat>
      </trkpt>
      <trkpt lat="12.58497814" lon="78.14994056">
        <ele>437.297</ele>
        <time>2026-02-23T09:08:49Z</time>
        <speed>8.69</speed>
        <sat>18</sat>
      </trkpt>
      <trkpt lat="12.58502048" lon="78.1498706">
        <ele>436.834</ele>
        <time>2026-02-23T09:08:50Z</time>
        <speed>8.68</speed>
        <sat>18</sat>
      </trkpt>
      <trkpt lat="12.58506486" lon="78.14981184">
        <ele>437.108</ele>
        <time>2026-02-23T09:08:51Z</time>
        <speed>7.95</speed>
        <sat>18</sat>
      </trkpt>
      <trkpt lat="12.58510462" lon="78.1497547">
        <ele>437.372</ele>
        <time>2026-02-23T09:08:52Z</time>
        <speed>8.08</speed>
        <sat>17</sat>
      </trkpt>
      <trkpt lat="12.58515427" lon="78.14970225">
        <ele>437.46</ele>
        <time>2026-02-23T09:08:53Z</time>
        <speed>8.07</speed>
        <sat>19</sat>
      </trkpt>
      <trkpt lat="12.58519211" lon="78.14962608">
        <ele>436.95</ele>
        <time>2026-02-23T09:08:54Z</time>
        <speed>8.01</speed>
        <sat>19</sat>
      </trkpt>
      <trkpt lat="12.58523668" lon="78.14956959">
        <ele>436.504</ele>
        <time>2026-02-23T09:08:55Z</time>
        <speed>8.0</speed>
        <sat>18</sat>
      </trkpt>
      <trkpt lat="12.58528492" lon="78.14951368">
        <ele>436.776</ele>
        <time>2026-02-23T09:08:56Z</time>
        <speed>7.7</speed>
        <sat>21</sat>
      </trkpt>
      <trkpt lat="12.58532243" lon="78.14946276">
        <ele>437.263</ele>
        <time>2026-02-23T09:08:57Z</time>
        <speed>7.46</speed>
        <sat>18</sat>
      </trkpt>
      <trkpt lat="12.58536857" lon="78.14939812">
        <ele>436.662</ele>
        <time>2026-02-23T09:08:58Z</time>
        <speed>7.32</speed>
        <sat>20</sat>
      </trkpt>
      <trkpt lat="12.58540778" lon="78.14934718">
        <ele>437.622</ele>
        <time>2026-02-23T09:08:59Z</time>
        <speed>7.3</speed>
        <sat>19</sat>
      </trkpt>
      <trkpt lat="12.58545155" lon="78.14930446">
        <ele>436.742</ele>
        <time>2026-02-23T09:09:00Z</time>
        <speed>7.1</speed>
        <sat>18</sat>
      </trkpt>
      <trkpt lat="12.58549636" lon="78.14926067">
        <ele>436.478</ele>
        <time>2026-02-23T09:09:01Z</time>
        <speed>6.66</speed>
        <sat>20</sat>
      </trkpt>
      <trkpt lat="12.58553453" lon="78.14920204">
        <ele>436.994</ele>
        <time>2026-02-23T09:09:02Z</time>
        <speed>6.95</speed>
        <sat>19</sat>
      </trkpt>
      <trkpt lat="12.58557384" lon="78.14915634">
        <ele>436.122</ele>
        <time>2026-02-23T09:09:03Z</time>
        <speed>7.53</speed>
        <sat>18</sat>
      </trkpt>
      <trkpt lat="12.58561615" lon="78.14910329">
        <ele>437.002</ele>
        <time>2026-02-23T09:09:04Z</time>
        <speed>7.53</speed>
        <sat>19</sat>
      </trkpt>
      <trkpt lat="12.58565956" lon="78.14905835">
        <ele>436.553</ele>
        <time>2026-02-23T09:09:05Z</time>
        <speed>7.48</speed>
        <sat>19</sat>
      </trkpt>
      <trkpt lat="12.5857029" lon="78.14901236">
        <ele>436.004</ele>
        <time>2026-02-23T09:09:06Z</time>
        <speed>6.82</speed>
        <sat>18</sat>
      </trkpt>
      <trkpt lat="12.58574623" lon="78.14897208">
        <ele>435.966</ele>
        <time>2026-02-23T09:09:07Z</time>
        <speed>6.27</speed>
        <sat>19</sat>
      </trkpt>
      <trkpt lat="12.58578477" lon="78.14893212">
        <ele>435.753</ele>
        <time>2026-02-23T09:09:08Z</time>
        <speed>6.17</speed>
        <sat>20</sat>
      </trkpt>
      <trkpt lat="12.58582588" lon="78.14889707">
        <ele>435.616</ele>
        <time>2026-02-23T09:09:09Z</time>
        <speed>6.26</speed>
        <sat>19</sat>
      </trkpt>
      <trkpt lat="12.58586751" lon="78.14885533">
        <ele>436.144</ele>
        <time>2026-02-23T09:09:10Z</time>
        <speed>6.31</speed>
        <sat>19</sat>
      </trkpt>
      <trkpt lat="12.58590896" lon="78.14880992">
        <ele>436.332</ele>
        <time>2026-02-23T09:09:11Z</time>
        <speed>6.74</speed>
        <sat>18</sat>
      </trkpt>
      <trkpt lat="12.58595467" lon="78.14876575">
        <ele>436.104</ele>
        <time>2026-02-23T09:09:12Z</time>
        <speed>6.96</speed>
        <sat>19</sat>
      </trkpt>
      <trkpt lat="12.58599927" lon="78.14871725">
        <ele>436.414</ele>
        <time>2026-02-23T09:09:13Z</time>
        <speed>7.29</speed>
        <sat>18</sat>
      </trkpt>
      <trkpt lat="12.5860426" lon="78.14867587">
        <ele>435.869</ele>
        <time>2026-02-23T09:09:14Z</time>
        <speed>7.29</speed>
        <sat>18</sat>
      </trkpt>
      <trkpt lat="12.58608711" lon="78.14862804">
        <ele>436.118</ele>
        <time>2026-02-23T09:09:15Z</time>
        <speed>6.91</speed>
        <sat>17</sat>
      </trkpt>
      <trkpt lat="12.58613173" lon="78.14858578">
        <ele>435.833</ele>
        <time>2026-02-23T09:09:16Z</time>
        <speed>6.9</speed>
        <sat>15</sat>
      </trkpt>
      <trkpt lat="12.58617454" lon="78.14853985">
        <ele>435.365</ele>
        <time>2026-02-23T09:09:17Z</time>
        <speed>7.31</speed>
        <sat>17</sat>
      </trkpt>
      <trkpt lat="12.58622074" lon="78.14848878">
        <ele>435.505</ele>
        <time>2026-02-23T09:09:18Z</time>
        <speed>7.6</speed>
        <sat>16</sat>
      </trkpt>
      <trkpt lat="12.58626802" lon="78.14843877">
        <ele>436.428</ele>
        <time>2026-02-23T09:09:19Z</time>
        <speed>7.73</speed>
        <sat>15</sat>
      </trkpt>
      <trkpt lat="12.58631924" lon="78.14838767">
        <ele>436.728</ele>
        <time>2026-02-23T09:09:20Z</time>
        <speed>7.91</speed>
        <sat>18</sat>
      </trkpt>
      <trkpt lat="12.58636789" lon="78.14833853">
        <ele>436.886</ele>
        <time>2026-02-23T09:09:21Z</time>
        <speed>8.11</speed>
        <sat>17</sat>
      </trkpt>
      <trkpt lat="12.58641772" lon="78.14828932">
        <ele>437.652</ele>
        <time>2026-02-23T09:09:22Z</time>
        <speed>8.08</speed>
        <sat>18</sat>
      </trkpt>
      <trkpt lat="12.58647505" lon="78.14823663">
        <ele>437.355</ele>
        <time>2026-02-23T09:09:23Z</time>
        <speed>7.84</speed>
        <sat>16</sat>
      </trkpt>
      <trkpt lat="12.5865276" lon="78.1481864">
        <ele>437.059</ele>
        <time>2026-02-23T09:09:24Z</time>
        <speed>7.84</speed>
        <sat>16</sat>
      </trkpt>
      <trkpt lat="12.58657892" lon="78.14813342">
        <ele>437.708</ele>
        <time>2026-02-23T09:09:25Z</time>
        <speed>7.8</speed>
        <sat>17</sat>
      </trkpt>
      <trkpt lat="12.58662845" lon="78.14808193">
        <ele>438.713</ele>
        <time>2026-02-23T09:09:26Z</time>
        <speed>7.91</speed>
        <sat>18</sat>
      </trkpt>
      <trkpt lat="12.58668568" lon="78.14802725">
        <ele>438.481</ele>
        <time>2026-02-23T09:09:27Z</time>
        <speed>8.14</speed>
        <sat>17</sat>
      </trkpt>
      <trkpt lat="12.5867312" lon="78.14797307">
        <ele>438.295</ele>
        <time>2026-02-23T09:09:28Z</time>
        <speed>8.09</speed>
        <sat>15</sat>
      </trkpt>
      <trkpt lat="12.58678108" lon="78.14792302">
        <ele>437.556</ele>
        <time>2026-02-23T09:09:29Z</time>
        <speed>8.08</speed>
        <sat>18</sat>
      </trkpt>
      <trkpt lat="12.58683282" lon="78.14787071">
        <ele>437.352</ele>
        <time>2026-02-23T09:09:30Z</time>
        <speed>8.27</speed>
        <sat>18</sat>
      </trkpt>
      <trkpt lat="12.58688588" lon="78.14781536">
        <ele>437.307</ele>
        <time>2026-02-23T09:09:31Z</time>
        <speed>8.29</speed>
        <sat>17</sat>
      </trkpt>
      <trkpt lat="12.5869388" lon="78.14776249">
        <ele>437.569</ele>
        <time>2026-02-23T09:09:32Z</time>
        <speed>8.2</speed>
        <sat>18</sat>
      </trkpt>
      <trkpt lat="12.5869902" lon="78.14770831">
        <ele>437.686</ele>
        <time>2026-02-23T09:09:33Z</time>
        <speed>8.4</speed>
        <sat>18</sat>
      </trkpt>
      <trkpt lat="12.58704292" lon="78.14764725">
        <ele>438.304</ele>
        <time>2026-02-23T09:09:34Z</time>
        <speed>8.58</speed>
        <sat>17</sat>
      </trkpt>
      <trkpt lat="12.58709489" lon="78.14758423">
        <ele>438.808</ele>
        <time>2026-02-23T09:09:35Z</time>
        <speed>8.81</speed>
        <sat>18</sat>
      </trkpt>
      <trkpt lat="12.58714944" lon="78.14752237">
        <ele>439.267</ele>
        <time>2026-02-23T09:09:36Z</time>
        <speed>8.94</speed>
        <sat>19</sat>
      </trkpt>
      <trkpt lat="12.58720902" lon="78.14746005">
        <ele>439.145</ele>
        <time>2026-02-23T09:09:37Z</time>
        <speed>8.59</speed>
        <sat>18</sat>
      </trkpt>
      <trkpt lat="12.58725414" lon="78.14739973">
        <ele>439.679</ele>
        <time>2026-02-23T09:09:38Z</time>
        <speed>8.14</speed>
        <sat>19</sat>
      </trkpt>
      <trkpt lat="12.58729654" lon="78.14733591">
        <ele>439.862</ele>
        <time>2026-02-23T09:09:39Z</time>
        <speed>7.9</speed>
        <sat>17</sat>
      </trkpt>
      <trkpt lat="12.58733704" lon="78.14728134">
        <ele>439.782</ele>
        <time>2026-02-23T09:09:40Z</time>
        <speed>7.95</speed>
        <sat>19</sat>
      </trkpt>
      <trkpt lat="12.5873764" lon="78.14721924">
        <ele>439.639</ele>
        <time>2026-02-23T09:09:41Z</time>
        <speed>8.05</speed>
        <sat>21</sat>
      </trkpt>
      <trkpt lat="12.58741575" lon="78.14715975">
        <ele>439.624</ele>
        <time>2026-02-23T09:09:42Z</time>
        <speed>7.89</speed>
        <sat>20</sat>
      </trkpt>
      <trkpt lat="12.58745011" lon="78.14709974">
        <ele>439.822</ele>
        <time>2026-02-23T09:09:43Z</time>
        <speed>7.76</speed>
        <sat>22</sat>
      </trkpt>
      <trkpt lat="12.587486" lon="78.14702823">
        <ele>440.256</ele>
        <time>2026-02-23T09:09:44Z</time>
        <speed>7.78</speed>
        <sat>23</sat>
      </trkpt>
      <trkpt lat="12.58752136" lon="78.14696817">
        <ele>440.558</ele>
        <time>2026-02-23T09:09:45Z</time>
        <speed>7.7</speed>
        <sat>21</sat>
      </trkpt>
      <trkpt lat="12.58755651" lon="78.1469047">
        <ele>440.983</ele>
        <time>2026-02-23T09:09:46Z</time>
        <speed>7.83</speed>
        <sat>21</sat>
      </trkpt>
      <trkpt lat="12.58758843" lon="78.1468365">
        <ele>441.371</ele>
        <time>2026-02-23T09:09:47Z</time>
        <speed>8.07</speed>
        <sat>22</sat>
      </trkpt>
      <trkpt lat="12.58762195" lon="78.14676913">
        <ele>441.749</ele>
        <time>2026-02-23T09:09:48Z</time>
        <speed>8.24</speed>
        <sat>22</sat>
      </trkpt>
      <trkpt lat="12.58765365" lon="78.14670126">
        <ele>441.666</ele>
        <time>2026-02-23T09:09:49Z</time>
        <speed>8.52</speed>
        <sat>23</sat>
      </trkpt>
      <trkpt lat="12.58768454" lon="78.14662831">
        <ele>442.256</ele>
        <time>2026-02-23T09:09:50Z</time>
        <speed>8.73</speed>
        <sat>20</sat>
      </trkpt>
      <trkpt lat="12.58771788" lon="78.14656063">
        <ele>442.473</ele>
        <time>2026-02-23T09:09:51Z</time>
        <speed>8.47</speed>
        <sat>22</sat>
      </trkpt>
      <trkpt lat="12.58774973" lon="78.14649254">
        <ele>442.854</ele>
        <time>2026-02-23T09:09:52Z</time>
        <speed>8.65</speed>
        <sat>21</sat>
      </trkpt>
      <trkpt lat="12.58777697" lon="78.14641736">
        <ele>443.326</ele>
        <time>2026-02-23T09:09:53Z</time>
        <speed>8.35</speed>
        <sat>22</sat>
      </trkpt>
      <trkpt lat="12.5878056" lon="78.14634861">
        <ele>443.87</ele>
        <time>2026-02-23T09:09:54Z</time>
        <speed>7.38</speed>
        <sat>18</sat>
      </trkpt>
      <trkpt lat="12.58782737" lon="78.14629569">
        <ele>444.228</ele>
        <time>2026-02-23T09:09:55Z</time>
        <speed>6.19</speed>
        <sat>24</sat>
      </trkpt>
      <trkpt lat="12.58784326" lon="78.14624671">
        <ele>444.449</ele>
        <time>2026-02-23T09:09:56Z</time>
        <speed>4.9</speed>
        <sat>19</sat>
      </trkpt>
      <trkpt lat="12.58785395" lon="78.14620532">
        <ele>444.212</ele>
        <time>2026-02-23T09:09:57Z</time>
        <speed>4.58</speed>
        <sat>21</sat>
      </trkpt>
      <trkpt lat="12.58786668" lon="78.14616944">
        <ele>443.949</ele>
        <time>2026-02-23T09:09:58Z</time>
        <speed>4.24</speed>
        <sat>22</sat>
      </trkpt>
      <trkpt lat="12.58787367" lon="78.14612788">
        <ele>444.301</ele>
        <time>2026-02-23T09:09:59Z</time>
        <speed>3.88</speed>
        <sat>24</sat>
      </trkpt>
    </trkseg>
  </trk>
</gpx>