<?xml version="1.0" encoding="UTF-8"?>
<!-- Created with BasicAirData GPS Logger for Android - ver. 3.2.3 -->
<!-- Track 820 = 371 TrackPoints + 0 Placemarks -->

<!-- Track Statistics (based on Total Time | Time in Movement): -->
<!--  Distance = 2.78 km -->
<!--  Duration = 06:10 | 06:10 -->
<!--  Altitude Gap = 14 m -->
<!--  Max Speed = 39 km/h -->
<!--  Avg Speed = 27.1 | 27.1 km/h -->
<!--  Direction = WNW -->
<!--  Activity = steady -->
<!--  Altitudes = Raw -->

<gpx version="1.0"
     creator="BasicAirData GPS Logger 3.2.3"
     xmlns="http://www.topografix.com/GPX/1/0"
     xmlns:xsi="http://www.w3.org/2001/XMLSchema-instance"
     xsi:schemaLocation="http://www.topografix.com/GPX/1/0 http://www.topografix.com/GPX/1/0/gpx.xsd">
<name>GPS Logger 20260223-153736</name>
<desc>SRR_12</desc>
<time>2026-02-23T10:15:15Z</time>
<keywords>steady</keywords>
<bounds minlat="12.65853148" minlon="77.99541303" maxlat="12.66691432" maxlon="78.01929385" />

<trk>
 <name>Track 20260223-153736</name>
 <trkseg>
  <trkpt lat="12.65853148" lon="78.01929385"><ele>614.523</ele><time>2026-02-23T10:07:36Z</time><speed>8.040</speed><sat>18</sat></trkpt>
  <trkpt lat="12.65856507" lon="78.01922890"><ele>614.403</ele><time>2026-02-23T10:07:37Z</time><speed>7.440</speed><sat>17</sat></trkpt>
  <trkpt lat="12.65859630" lon="78.01916609"><ele>614.561</ele><time>2026-02-23T10:07:38Z</time><speed>7.520</speed><sat>21</sat></trkpt>
  <trkpt lat="12.65863212" lon="78.01909334"><ele>614.385</ele><time>2026-02-23T10:07:39Z</time><speed>8.070</speed><sat>18</sat></trkpt>
  <trkpt lat="12.65866588" lon="78.01902939"><ele>615.053</ele><time>2026-02-23T10:07:40Z</time><speed>8.360</speed><sat>21</sat></trkpt>
  <trkpt lat="12.65870281" lon="78.01896215"><ele>615.480</ele><time>2026-02-23T10:07:41Z</time><speed>8.760</speed><sat>19</sat></trkpt>
  <trkpt lat="12.65874525" lon="78.01889239"><ele>615.050</ele><time>2026-02-23T10:07:42Z</time><speed>9.120</speed><sat>21</sat></trkpt>
  <trkpt lat="12.65878904" lon="78.01881943"><ele>615.254</ele><time>2026-02-23T10:07:43Z</time><speed>9.540</speed><sat>21</sat></trkpt>
  <trkpt lat="12.65882849" lon="78.01874093"><ele>615.476</ele><time>2026-02-23T10:07:44Z</time><speed>10.040</speed><sat>23</sat></trkpt>
  <trkpt lat="12.65886969" lon="78.01865702"><ele>615.400</ele><time>2026-02-23T10:07:45Z</time><speed>9.990</speed><sat>24</sat></trkpt>
  <trkpt lat="12.65891814" lon="78.01858029"><ele>615.618</ele><time>2026-02-23T10:07:46Z</time><speed>10.000</speed><sat>23</sat></trkpt>
  <trkpt lat="12.65896126" lon="78.01849566"><ele>614.855</ele><time>2026-02-23T10:07:47Z</time><speed>10.170</speed><sat>23</sat></trkpt>
  <trkpt lat="12.65900765" lon="78.01841545"><ele>614.760</ele><time>2026-02-23T10:07:48Z</time><speed>10.230</speed><sat>21</sat></trkpt>
  <trkpt lat="12.65905542" lon="78.01833081"><ele>615.064</ele><time>2026-02-23T10:07:49Z</time><speed>10.450</speed><sat>24</sat></trkpt>
  <trkpt lat="12.65910195" lon="78.01824723"><ele>615.307</ele><time>2026-02-23T10:07:50Z</time><speed>10.480</speed><sat>22</sat></trkpt>
  <trkpt lat="12.65915355" lon="78.01815664"><ele>615.873</ele><time>2026-02-23T10:07:51Z</time><speed>10.760</speed><sat>22</sat></trkpt>
  <trkpt lat="12.65919881" lon="78.01807416"><ele>616.026</ele><time>2026-02-23T10:07:52Z</time><speed>10.680</speed><sat>23</sat></trkpt>
  <trkpt lat="12.65924754" lon="78.01799048"><ele>615.696</ele><time>2026-02-23T10:07:53Z</time><speed>10.550</speed><sat>21</sat></trkpt>
  <trkpt lat="12.65930179" lon="78.01790943"><ele>615.378</ele><time>2026-02-23T10:07:54Z</time><speed>10.560</speed><sat>21</sat></trkpt>
  <trkpt lat="12.65935153" lon="78.01782719"><ele>615.139</ele><time>2026-02-23T10:07:55Z</time><speed>10.500</speed><sat>21</sat></trkpt>
  <trkpt lat="12.65939916" lon="78.01774482"><ele>614.671</ele><time>2026-02-23T10:07:56Z</time><speed>10.560</speed><sat>17</sat></trkpt>
  <trkpt lat="12.65944657" lon="78.01766614"><ele>614.306</ele><time>2026-02-23T10:07:57Z</time><speed>10.520</speed><sat>23</sat></trkpt>
  <trkpt lat="12.65949395" lon="78.01758431"><ele>613.762</ele><time>2026-02-23T10:07:58Z</time><speed>10.470</speed><sat>22</sat></trkpt>
  <trkpt lat="12.65954338" lon="78.01750189"><ele>613.262</ele><time>2026-02-23T10:07:59Z</time><speed>10.470</speed><sat>21</sat></trkpt>
  <trkpt lat="12.65959739" lon="78.01741446"><ele>612.717</ele><time>2026-02-23T10:08:00Z</time><speed>10.420</speed><sat>18</sat></trkpt>
  <trkpt lat="12.65964868" lon="78.01733507"><ele>612.827</ele><time>2026-02-23T10:08:01Z</time><speed>10.340</speed><sat>16</sat></trkpt>
  <trkpt lat="12.65969644" lon="78.01725589"><ele>612.692</ele><time>2026-02-23T10:08:02Z</time><speed>9.950</speed><sat>16</sat></trkpt>
  <trkpt lat="12.65974206" lon="78.01718105"><ele>612.464</ele><time>2026-02-23T10:08:03Z</time><speed>9.420</speed><sat>18</sat></trkpt>
  <trkpt lat="12.65978270" lon="78.01710854"><ele>612.489</ele><time>2026-02-23T10:08:04Z</time><speed>8.670</speed><sat>18</sat></trkpt>
  <trkpt lat="12.65981429" lon="78.01704473"><ele>612.658</ele><time>2026-02-23T10:08:05Z</time><speed>7.810</speed><sat>19</sat></trkpt>
  <trkpt lat="12.65984971" lon="78.01698568"><ele>612.686</ele><time>2026-02-23T10:08:06Z</time><speed>7.190</speed><sat>16</sat></trkpt>
  <trkpt lat="12.65987706" lon="78.01693460"><ele>612.297</ele><time>2026-02-23T10:08:07Z</time><speed>5.870</speed><sat>17</sat></trkpt>
  <trkpt lat="12.65990048" lon="78.01689565"><ele>612.204</ele><time>2026-02-23T10:08:08Z</time><speed>4.320</speed><sat>16</sat></trkpt>
  <trkpt lat="12.65991540" lon="78.01687154"><ele>612.459</ele><time>2026-02-23T10:08:09Z</time><speed>2.260</speed><sat>18</sat></trkpt>
  <trkpt lat="12.65992106" lon="78.01685397"><ele>612.933</ele><time>2026-02-23T10:08:10Z</time><speed>2.320</speed><sat>16</sat></trkpt>
  <trkpt lat="12.65993543" lon="78.01683182"><ele>612.958</ele><time>2026-02-23T10:08:11Z</time><speed>3.240</speed><sat>16</sat></trkpt>
  <trkpt lat="12.65995526" lon="78.01680337"><ele>612.983</ele><time>2026-02-23T10:08:12Z</time><speed>4.340</speed><sat>17</sat></trkpt>
  <trkpt lat="12.65997533" lon="78.01676282"><ele>612.988</ele><time>2026-02-23T10:08:13Z</time><speed>5.240</speed><sat>15</sat></trkpt>
  <trkpt lat="12.65999706" lon="78.01672276"><ele>613.266</ele><time>2026-02-23T10:08:14Z</time><speed>5.000</speed><sat>15</sat></trkpt>
  <trkpt lat="12.66001614" lon="78.01667771"><ele>612.709</ele><time>2026-02-23T10:08:15Z</time><speed>5.740</speed><sat>15</sat></trkpt>
  <trkpt lat="12.66004739" lon="78.01662661"><ele>612.864</ele><time>2026-02-23T10:08:16Z</time><speed>6.280</speed><sat>15</sat></trkpt>
  <trkpt lat="12.66007057" lon="78.01658642"><ele>611.703</ele><time>2026-02-23T10:08:17Z</time><speed>6.000</speed><sat>14</sat></trkpt>
  <trkpt lat="12.66009883" lon="78.01655150"><ele>611.011</ele><time>2026-02-23T10:08:18Z</time><speed>5.200</speed><sat>16</sat></trkpt>
  <trkpt lat="12.66011857" lon="78.01651600"><ele>611.421</ele><time>2026-02-23T10:08:19Z</time><speed>3.820</speed><sat>17</sat></trkpt>
  <trkpt lat="12.66013512" lon="78.01648415"><ele>612.034</ele><time>2026-02-23T10:08:20Z</time><speed>2.910</speed><sat>18</sat></trkpt>
  <trkpt lat="12.66015368" lon="78.01646124"><ele>611.680</ele><time>2026-02-23T10:08:21Z</time><speed>2.770</speed><sat>14</sat></trkpt>
  <trkpt lat="12.66017333" lon="78.01643766"><ele>611.994</ele><time>2026-02-23T10:08:22Z</time><speed>3.390</speed><sat>17</sat></trkpt>
  <trkpt lat="12.66019274" lon="78.01640986"><ele>611.738</ele><time>2026-02-23T10:08:23Z</time><speed>4.060</speed><sat>17</sat></trkpt>
  <trkpt lat="12.66021530" lon="78.01638119"><ele>611.052</ele><time>2026-02-23T10:08:24Z</time><speed>4.810</speed><sat>17</sat></trkpt>
  <trkpt lat="12.66024262" lon="78.01634292"><ele>612.370</ele><time>2026-02-23T10:08:25Z</time><speed>5.640</speed><sat>18</sat></trkpt>
  <trkpt lat="12.66027580" lon="78.01629530"><ele>611.312</ele><time>2026-02-23T10:08:26Z</time><speed>6.530</speed><sat>15</sat></trkpt>
  <trkpt lat="12.66030697" lon="78.01624361"><ele>611.023</ele><time>2026-02-23T10:08:27Z</time><speed>7.300</speed><sat>17</sat></trkpt>
  <trkpt lat="12.66034603" lon="78.01618863"><ele>611.314</ele><time>2026-02-23T10:08:28Z</time><speed>8.030</speed><sat>16</sat></trkpt>
  <trkpt lat="12.66039333" lon="78.01612473"><ele>611.400</ele><time>2026-02-23T10:08:29Z</time><speed>8.700</speed><sat>18</sat></trkpt>
  <trkpt lat="12.66043866" lon="78.01606143"><ele>611.980</ele><time>2026-02-23T10:08:30Z</time><speed>8.630</speed><sat>17</sat></trkpt>
  <trkpt lat="12.66047892" lon="78.01599854"><ele>612.349</ele><time>2026-02-23T10:08:31Z</time><speed>8.190</speed><sat>17</sat></trkpt>
  <trkpt lat="12.66051948" lon="78.01593563"><ele>612.750</ele><time>2026-02-23T10:08:32Z</time><speed>8.290</speed><sat>17</sat></trkpt>
  <trkpt lat="12.66055979" lon="78.01586620"><ele>613.565</ele><time>2026-02-23T10:08:33Z</time><speed>9.110</speed><sat>18</sat></trkpt>
  <trkpt lat="12.66060321" lon="78.01579283"><ele>613.870</ele><time>2026-02-23T10:08:34Z</time><speed>9.350</speed><sat>17</sat></trkpt>
  <trkpt lat="12.66064511" lon="78.01571731"><ele>613.879</ele><time>2026-02-23T10:08:35Z</time><speed>9.580</speed><sat>19</sat></trkpt>
  <trkpt lat="12.66069074" lon="78.01563760"><ele>614.310</ele><time>2026-02-23T10:08:36Z</time><speed>9.890</speed><sat>17</sat></trkpt>
  <trkpt lat="12.66073901" lon="78.01555957"><ele>614.696</ele><time>2026-02-23T10:08:37Z</time><speed>9.920</speed><sat>18</sat></trkpt>
  <trkpt lat="12.66078334" lon="78.01548360"><ele>614.510</ele><time>2026-02-23T10:08:38Z</time><speed>9.600</speed><sat>14</sat></trkpt>
  <trkpt lat="12.66083123" lon="78.01540524"><ele>614.753</ele><time>2026-02-23T10:08:39Z</time><speed>9.990</speed><sat>17</sat></trkpt>
  <trkpt lat="12.66088177" lon="78.01532557"><ele>615.180</ele><time>2026-02-23T10:08:40Z</time><speed>10.160</speed><sat>16</sat></trkpt>
  <trkpt lat="12.66092844" lon="78.01524940"><ele>615.619</ele><time>2026-02-23T10:08:41Z</time><speed>10.070</speed><sat>18</sat></trkpt>
  <trkpt lat="12.66097897" lon="78.01516812"><ele>616.407</ele><time>2026-02-23T10:08:42Z</time><speed>10.070</speed><sat>19</sat></trkpt>
  <trkpt lat="12.66102617" lon="78.01509185"><ele>616.915</ele><time>2026-02-23T10:08:43Z</time><speed>9.650</speed><sat>19</sat></trkpt>
  <trkpt lat="12.66107614" lon="78.01501677"><ele>617.079</ele><time>2026-02-23T10:08:44Z</time><speed>9.330</speed><sat>19</sat></trkpt>
  <trkpt lat="12.66112647" lon="78.01494004"><ele>616.141</ele><time>2026-02-23T10:08:45Z</time><speed>9.160</speed><sat>19</sat></trkpt>
  <trkpt lat="12.66116364" lon="78.01487056"><ele>615.569</ele><time>2026-02-23T10:08:46Z</time><speed>9.010</speed><sat>17</sat></trkpt>
  <trkpt lat="12.66120687" lon="78.01479775"><ele>616.083</ele><time>2026-02-23T10:08:47Z</time><speed>9.330</speed><sat>17</sat></trkpt>
  <trkpt lat="12.66125302" lon="78.01472470"><ele>615.884</ele><time>2026-02-23T10:08:48Z</time><speed>9.460</speed><sat>21</sat></trkpt>
  <trkpt lat="12.66129271" lon="78.01465306"><ele>614.978</ele><time>2026-02-23T10:08:49Z</time><speed>9.380</speed><sat>20</sat></trkpt>
  <trkpt lat="12.66133161" lon="78.01457336"><ele>614.079</ele><time>2026-02-23T10:08:50Z</time><speed>9.320</speed><sat>21</sat></trkpt>
  <trkpt lat="12.66136052" lon="78.01448882"><ele>616.129</ele><time>2026-02-23T10:08:51Z</time><speed>9.150</speed><sat>21</sat></trkpt>
  <trkpt lat="12.66138967" lon="78.01440353"><ele>616.378</ele><time>2026-02-23T10:08:52Z</time><speed>9.000</speed><sat>21</sat></trkpt>
  <trkpt lat="12.66141683" lon="78.01432331"><ele>615.779</ele><time>2026-02-23T10:08:53Z</time><speed>8.900</speed><sat>21</sat></trkpt>
  <trkpt lat="12.66143385" lon="78.01424194"><ele>616.194</ele><time>2026-02-23T10:08:54Z</time><speed>8.630</speed><sat>24</sat></trkpt>
  <trkpt lat="12.66146494" lon="78.01417567"><ele>615.122</ele><time>2026-02-23T10:08:55Z</time><speed>8.820</speed><sat>21</sat></trkpt>
  <trkpt lat="12.66149323" lon="78.01410057"><ele>615.303</ele><time>2026-02-23T10:08:56Z</time><speed>9.140</speed><sat>21</sat></trkpt>
  <trkpt lat="12.66151978" lon="78.01401606"><ele>615.222</ele><time>2026-02-23T10:08:57Z</time><speed>9.360</speed><sat>21</sat></trkpt>
  <trkpt lat="12.66154385" lon="78.01393021"><ele>615.532</ele><time>2026-02-23T10:08:58Z</time><speed>9.160</speed><sat>20</sat></trkpt>
  <trkpt lat="12.66155777" lon="78.01384777"><ele>615.916</ele><time>2026-02-23T10:08:59Z</time><speed>9.050</speed><sat>22</sat></trkpt>
  <trkpt lat="12.66157474" lon="78.01376669"><ele>616.110</ele><time>2026-02-23T10:09:00Z</time><speed>8.780</speed><sat>23</sat></trkpt>
  <trkpt lat="12.66158836" lon="78.01368935"><ele>616.862</ele><time>2026-02-23T10:09:01Z</time><speed>8.780</speed><sat>20</sat></trkpt>
  <trkpt lat="12.66159768" lon="78.01361184"><ele>617.425</ele><time>2026-02-23T10:09:02Z</time><speed>8.730</speed><sat>21</sat></trkpt>
  <trkpt lat="12.66161097" lon="78.01353356"><ele>617.461</ele><time>2026-02-23T10:09:03Z</time><speed>8.700</speed><sat>19</sat></trkpt>
  <trkpt lat="12.66162919" lon="78.01345577"><ele>618.338</ele><time>2026-02-23T10:09:04Z</time><speed>8.910</speed><sat>23</sat></trkpt>
  <trkpt lat="12.66164892" lon="78.01337724"><ele>618.179</ele><time>2026-02-23T10:09:05Z</time><speed>8.810</speed><sat>21</sat></trkpt>
  <trkpt lat="12.66166238" lon="78.01329394"><ele>618.796</ele><time>2026-02-23T10:09:06Z</time><speed>8.730</speed><sat>23</sat></trkpt>
  <trkpt lat="12.66166712" lon="78.01320842"><ele>618.588</ele><time>2026-02-23T10:09:07Z</time><speed>8.850</speed><sat>22</sat></trkpt>
  <trkpt lat="12.66167351" lon="78.01313324"><ele>619.227</ele><time>2026-02-23T10:09:08Z</time><speed>7.300</speed><sat>24</sat></trkpt>
  <trkpt lat="12.66167749" lon="78.01307929"><ele>619.269</ele><time>2026-02-23T10:09:09Z</time><speed>4.960</speed><sat>22</sat></trkpt>
  <trkpt lat="12.66168617" lon="78.01302664"><ele>618.592</ele><time>2026-02-23T10:09:10Z</time><speed>5.780</speed><sat>24</sat></trkpt>
  <trkpt lat="12.66168809" lon="78.01297074"><ele>618.384</ele><time>2026-02-23T10:09:11Z</time><speed>6.370</speed><sat>22</sat></trkpt>
  <trkpt lat="12.66170354" lon="78.01290928"><ele>618.304</ele><time>2026-02-23T10:09:12Z</time><speed>6.980</speed><sat>24</sat></trkpt>
  <trkpt lat="12.66170481" lon="78.01284364"><ele>618.479</ele><time>2026-02-23T10:09:13Z</time><speed>7.620</speed><sat>22</sat></trkpt>
  <trkpt lat="12.66171580" lon="78.01276705"><ele>618.561</ele><time>2026-02-23T10:09:14Z</time><speed>8.140</speed><sat>19</sat></trkpt>
  <trkpt lat="12.66172553" lon="78.01269141"><ele>619.225</ele><time>2026-02-23T10:09:15Z</time><speed>8.320</speed><sat>21</sat></trkpt>
  <trkpt lat="12.66172568" lon="78.01261618"><ele>619.230</ele><time>2026-02-23T10:09:16Z</time><speed>8.870</speed><sat>23</sat></trkpt>
  <trkpt lat="12.66173476" lon="78.01253118"><ele>620.782</ele><time>2026-02-23T10:09:17Z</time><speed>9.330</speed><sat>20</sat></trkpt>
  <trkpt lat="12.66174660" lon="78.01244718"><ele>621.146</ele><time>2026-02-23T10:09:18Z</time><speed>9.480</speed><sat>25</sat></trkpt>
  <trkpt lat="12.66175775" lon="78.01236193"><ele>621.281</ele><time>2026-02-23T10:09:19Z</time><speed>9.430</speed><sat>22</sat></trkpt>
  <trkpt lat="12.66176707" lon="78.01227848"><ele>621.646</ele><time>2026-02-23T10:09:20Z</time><speed>9.280</speed><sat>23</sat></trkpt>
  <trkpt lat="12.66177507" lon="78.01219749"><ele>621.494</ele><time>2026-02-23T10:09:21Z</time><speed>8.860</speed><sat>24</sat></trkpt>
  <trkpt lat="12.66178052" lon="78.01211605"><ele>621.246</ele><time>2026-02-23T10:09:22Z</time><speed>8.810</speed><sat>22</sat></trkpt>
  <trkpt lat="12.66178460" lon="78.01204549"><ele>621.263</ele><time>2026-02-23T10:09:23Z</time><speed>8.370</speed><sat>19</sat></trkpt>
  <trkpt lat="12.66180107" lon="78.01197635"><ele>620.646</ele><time>2026-02-23T10:09:24Z</time><speed>8.360</speed><sat>22</sat></trkpt>
  <trkpt lat="12.66181265" lon="78.01190083"><ele>620.239</ele><time>2026-02-23T10:09:25Z</time><speed>8.450</speed><sat>25</sat></trkpt>
  <trkpt lat="12.66182260" lon="78.01181510"><ele>620.602</ele><time>2026-02-23T10:09:26Z</time><speed>8.750</speed><sat>26</sat></trkpt>
  <trkpt lat="12.66184006" lon="78.01173574"><ele>620.636</ele><time>2026-02-23T10:09:27Z</time><speed>8.820</speed><sat>26</sat></trkpt>
  <trkpt lat="12.66185394" lon="78.01165673"><ele>619.818</ele><time>2026-02-23T10:09:28Z</time><speed>8.740</speed><sat>26</sat></trkpt>
  <trkpt lat="12.66187168" lon="78.01157484"><ele>619.418</ele><time>2026-02-23T10:09:29Z</time><speed>8.930</speed><sat>25</sat></trkpt>
  <trkpt lat="12.66188951" lon="78.01149436"><ele>619.991</ele><time>2026-02-23T10:09:30Z</time><speed>8.780</speed><sat>21</sat></trkpt>
  <trkpt lat="12.66190877" lon="78.01141945"><ele>620.276</ele><time>2026-02-23T10:09:31Z</time><speed>8.870</speed><sat>23</sat></trkpt>
  <trkpt lat="12.66193742" lon="78.01134150"><ele>620.036</ele><time>2026-02-23T10:09:32Z</time><speed>8.720</speed><sat>25</sat></trkpt>
  <trkpt lat="12.66196170" lon="78.01126475"><ele>619.668</ele><time>2026-02-23T10:09:33Z</time><speed>8.880</speed><sat>24</sat></trkpt>
  <trkpt lat="12.66198704" lon="78.01118719"><ele>619.527</ele><time>2026-02-23T10:09:34Z</time><speed>9.070</speed><sat>22</sat></trkpt>
  <trkpt lat="12.66201155" lon="78.01110918"><ele>618.960</ele><time>2026-02-23T10:09:35Z</time><speed>9.070</speed><sat>26</sat></trkpt>
  <trkpt lat="12.66203974" lon="78.01102873"><ele>618.786</ele><time>2026-02-23T10:09:36Z</time><speed>9.110</speed><sat>26</sat></trkpt>
  <trkpt lat="12.66207345" lon="78.01094754"><ele>619.068</ele><time>2026-02-23T10:09:37Z</time><speed>9.180</speed><sat>23</sat></trkpt>
  <trkpt lat="12.66209940" lon="78.01087184"><ele>618.739</ele><time>2026-02-23T10:09:38Z</time><speed>9.190</speed><sat>24</sat></trkpt>
  <trkpt lat="12.66212750" lon="78.01079603"><ele>618.589</ele><time>2026-02-23T10:09:39Z</time><speed>9.190</speed><sat>26</sat></trkpt>
  <trkpt lat="12.66216530" lon="78.01072195"><ele>619.663</ele><time>2026-02-23T10:09:40Z</time><speed>9.640</speed><sat>23</sat></trkpt>
  <trkpt lat="12.66219780" lon="78.01063529"><ele>618.877</ele><time>2026-02-23T10:09:41Z</time><speed>9.850</speed><sat>24</sat></trkpt>
  <trkpt lat="12.66223742" lon="78.01055263"><ele>618.807</ele><time>2026-02-23T10:09:42Z</time><speed>9.800</speed><sat>18</sat></trkpt>
  <trkpt lat="12.66227334" lon="78.01045590"><ele>619.482</ele><time>2026-02-23T10:09:43Z</time><speed>9.980</speed><sat>21</sat></trkpt>
  <trkpt lat="12.66230810" lon="78.01037154"><ele>619.473</ele><time>2026-02-23T10:09:44Z</time><speed>9.940</speed><sat>21</sat></trkpt>
  <trkpt lat="12.66234978" lon="78.01029208"><ele>618.505</ele><time>2026-02-23T10:09:45Z</time><speed>9.680</speed><sat>23</sat></trkpt>
  <trkpt lat="12.66238295" lon="78.01020822"><ele>618.341</ele><time>2026-02-23T10:09:46Z</time><speed>9.690</speed><sat>23</sat></trkpt>
  <trkpt lat="12.66241766" lon="78.01012610"><ele>618.047</ele><time>2026-02-23T10:09:47Z</time><speed>9.490</speed><sat>19</sat></trkpt>
  <trkpt lat="12.66245484" lon="78.01004790"><ele>619.223</ele><time>2026-02-23T10:09:48Z</time><speed>9.440</speed><sat>21</sat></trkpt>
  <trkpt lat="12.66248440" lon="78.00996530"><ele>618.661</ele><time>2026-02-23T10:09:49Z</time><speed>9.260</speed><sat>19</sat></trkpt>
  <trkpt lat="12.66251685" lon="78.00988915"><ele>619.020</ele><time>2026-02-23T10:09:50Z</time><speed>8.880</speed><sat>21</sat></trkpt>
  <trkpt lat="12.66255085" lon="78.00981077"><ele>618.843</ele><time>2026-02-23T10:09:51Z</time><speed>8.780</speed><sat>17</sat></trkpt>
  <trkpt lat="12.66258269" lon="78.00973682"><ele>619.167</ele><time>2026-02-23T10:09:52Z</time><speed>8.750</speed><sat>20</sat></trkpt>
  <trkpt lat="12.66261298" lon="78.00966398"><ele>619.215</ele><time>2026-02-23T10:09:53Z</time><speed>8.100</speed><sat>19</sat></trkpt>
  <trkpt lat="12.66264512" lon="78.00959818"><ele>618.913</ele><time>2026-02-23T10:09:54Z</time><speed>7.310</speed><sat>18</sat></trkpt>
  <trkpt lat="12.66266661" lon="78.00953690"><ele>619.542</ele><time>2026-02-23T10:09:55Z</time><speed>7.410</speed><sat>20</sat></trkpt>
  <trkpt lat="12.66269528" lon="78.00946961"><ele>619.520</ele><time>2026-02-23T10:09:56Z</time><speed>8.020</speed><sat>21</sat></trkpt>
  <trkpt lat="12.66271920" lon="78.00940097"><ele>618.419</ele><time>2026-02-23T10:09:57Z</time><speed>8.370</speed><sat>17</sat></trkpt>
  <trkpt lat="12.66274412" lon="78.00933019"><ele>618.134</ele><time>2026-02-23T10:09:58Z</time><speed>8.150</speed><sat>19</sat></trkpt>
  <trkpt lat="12.66276986" lon="78.00926567"><ele>618.829</ele><time>2026-02-23T10:09:59Z</time><speed>7.860</speed><sat>20</sat></trkpt>
  <trkpt lat="12.66279021" lon="78.00919055"><ele>619.232</ele><time>2026-02-23T10:10:00Z</time><speed>7.790</speed><sat>19</sat></trkpt>
  <trkpt lat="12.66281789" lon="78.00912249"><ele>619.178</ele><time>2026-02-23T10:10:01Z</time><speed>7.690</speed><sat>15</sat></trkpt>
  <trkpt lat="12.66284428" lon="78.00905613"><ele>618.793</ele><time>2026-02-23T10:10:02Z</time><speed>7.640</speed><sat>20</sat></trkpt>
  <trkpt lat="12.66287494" lon="78.00899267"><ele>618.887</ele><time>2026-02-23T10:10:03Z</time><speed>7.620</speed><sat>16</sat></trkpt>
  <trkpt lat="12.66290161" lon="78.00893184"><ele>619.452</ele><time>2026-02-23T10:10:04Z</time><speed>7.550</speed><sat>17</sat></trkpt>
  <trkpt lat="12.66292247" lon="78.00887142"><ele>619.662</ele><time>2026-02-23T10:10:05Z</time><speed>7.260</speed><sat>17</sat></trkpt>
  <trkpt lat="12.66294750" lon="78.00880894"><ele>619.719</ele><time>2026-02-23T10:10:06Z</time><speed>7.320</speed><sat>17</sat></trkpt>
  <trkpt lat="12.66296075" lon="78.00875980"><ele>618.853</ele><time>2026-02-23T10:10:07Z</time><speed>5.510</speed><sat>16</sat></trkpt>
  <trkpt lat="12.66298118" lon="78.00871563"><ele>619.139</ele><time>2026-02-23T10:10:08Z</time><speed>5.200</speed><sat>16</sat></trkpt>
  <trkpt lat="12.66299831" lon="78.00867724"><ele>619.390</ele><time>2026-02-23T10:10:09Z</time><speed>4.840</speed><sat>15</sat></trkpt>
  <trkpt lat="12.66301372" lon="78.00864916"><ele>618.089</ele><time>2026-02-23T10:10:10Z</time><speed>4.300</speed><sat>15</sat></trkpt>
  <trkpt lat="12.66302929" lon="78.00861115"><ele>620.306</ele><time>2026-02-23T10:10:11Z</time><speed>4.410</speed><sat>15</sat></trkpt>
  <trkpt lat="12.66304638" lon="78.00857500"><ele>619.679</ele><time>2026-02-23T10:10:12Z</time><speed>4.950</speed><sat>14</sat></trkpt>
  <trkpt lat="12.66305645" lon="78.00852339"><ele>620.449</ele><time>2026-02-23T10:10:13Z</time><speed>4.960</speed><sat>17</sat></trkpt>
  <trkpt lat="12.66306954" lon="78.00847913"><ele>620.912</ele><time>2026-02-23T10:10:14Z</time><speed>4.380</speed><sat>13</sat></trkpt>
  <trkpt lat="12.66308078" lon="78.00844307"><ele>621.324</ele><time>2026-02-23T10:10:15Z</time><speed>3.640</speed><sat>14</sat></trkpt>
  <trkpt lat="12.66309553" lon="78.00841178"><ele>621.348</ele><time>2026-02-23T10:10:16Z</time><speed>3.690</speed><sat>15</sat></trkpt>
  <trkpt lat="12.66311486" lon="78.00838210"><ele>621.053</ele><time>2026-02-23T10:10:17Z</time><speed>3.260</speed><sat>16</sat></trkpt>
  <trkpt lat="12.66312873" lon="78.00835684"><ele>621.503</ele><time>2026-02-23T10:10:18Z</time><speed>3.180</speed><sat>15</sat></trkpt>
  <trkpt lat="12.66314131" lon="78.00832939"><ele>621.852</ele><time>2026-02-23T10:10:19Z</time><speed>3.420</speed><sat>17</sat></trkpt>
  <trkpt lat="12.66315584" lon="78.00830381"><ele>622.375</ele><time>2026-02-23T10:10:20Z</time><speed>2.780</speed><sat>13</sat></trkpt>
  <trkpt lat="12.66316545" lon="78.00828562"><ele>622.203</ele><time>2026-02-23T10:10:21Z</time><speed>1.670</speed><sat>14</sat></trkpt>
  <trkpt lat="12.66317257" lon="78.00826887"><ele>622.436</ele><time>2026-02-23T10:10:22Z</time><speed>1.730</speed><sat>15</sat></trkpt>
  <trkpt lat="12.66318068" lon="78.00825314"><ele>622.054</ele><time>2026-02-23T10:10:23Z</time><speed>2.130</speed><sat>15</sat></trkpt>
  <trkpt lat="12.66318995" lon="78.00823440"><ele>622.299</ele><time>2026-02-23T10:10:24Z</time><speed>2.410</speed><sat>16</sat></trkpt>
  <trkpt lat="12.66320105" lon="78.00821562"><ele>622.420</ele><time>2026-02-23T10:10:25Z</time><speed>2.920</speed><sat>14</sat></trkpt>
  <trkpt lat="12.66321564" lon="78.00818789"><ele>622.278</ele><time>2026-02-23T10:10:26Z</time><speed>3.690</speed><sat>15</sat></trkpt>
  <trkpt lat="12.66322774" lon="78.00815699"><ele>620.971</ele><time>2026-02-23T10:10:27Z</time><speed>3.530</speed><sat>10</sat></trkpt>
  <trkpt lat="12.66324027" lon="78.00812728"><ele>620.952</ele><time>2026-02-23T10:10:28Z</time><speed>3.250</speed><sat>11</sat></trkpt>
  <trkpt lat="12.66325060" lon="78.00810025"><ele>621.636</ele><time>2026-02-23T10:10:29Z</time><speed>3.040</speed><sat>15</sat></trkpt>
  <trkpt lat="12.66325785" lon="78.00807351"><ele>621.462</ele><time>2026-02-23T10:10:30Z</time><speed>2.810</speed><sat>14</sat></trkpt>
  <trkpt lat="12.66326636" lon="78.00804301"><ele>620.033</ele><time>2026-02-23T10:10:31Z</time><speed>3.730</speed><sat>13</sat></trkpt>
  <trkpt lat="12.66327500" lon="78.00800398"><ele>620.633</ele><time>2026-02-23T10:10:32Z</time><speed>4.110</speed><sat>13</sat></trkpt>
  <trkpt lat="12.66328980" lon="78.00797218"><ele>619.683</ele><time>2026-02-23T10:10:33Z</time><speed>3.940</speed><sat>14</sat></trkpt>
  <trkpt lat="12.66330087" lon="78.00794063"><ele>619.844</ele><time>2026-02-23T10:10:34Z</time><speed>3.700</speed><sat>12</sat></trkpt>
  <trkpt lat="12.66330893" lon="78.00791292"><ele>618.391</ele><time>2026-02-23T10:10:35Z</time><speed>4.320</speed><sat>13</sat></trkpt>
  <trkpt lat="12.66332638" lon="78.00787939"><ele>620.090</ele><time>2026-02-23T10:10:36Z</time><speed>5.310</speed><sat>14</sat></trkpt>
  <trkpt lat="12.66335844" lon="78.00783470"><ele>619.660</ele><time>2026-02-23T10:10:37Z</time><speed>6.130</speed><sat>11</sat></trkpt>
  <trkpt lat="12.66338162" lon="78.00777703"><ele>619.439</ele><time>2026-02-23T10:10:38Z</time><speed>6.980</speed><sat>14</sat></trkpt>
  <trkpt lat="12.66341296" lon="78.00772681"><ele>618.928</ele><time>2026-02-23T10:10:39Z</time><speed>7.530</speed><sat>15</sat></trkpt>
  <trkpt lat="12.66344442" lon="78.00765888"><ele>618.872</ele><time>2026-02-23T10:10:40Z</time><speed>7.380</speed><sat>15</sat></trkpt>
  <trkpt lat="12.66347725" lon="78.00759735"><ele>618.731</ele><time>2026-02-23T10:10:41Z</time><speed>6.810</speed><sat>15</sat></trkpt>
  <trkpt lat="12.66350963" lon="78.00754800"><ele>617.895</ele><time>2026-02-23T10:10:42Z</time><speed>6.560</speed><sat>18</sat></trkpt>
  <trkpt lat="12.66353412" lon="78.00749414"><ele>617.561</ele><time>2026-02-23T10:10:43Z</time><speed>6.590</speed><sat>17</sat></trkpt>
  <trkpt lat="12.66355390" lon="78.00743469"><ele>617.524</ele><time>2026-02-23T10:10:44Z</time><speed>6.590</speed><sat>17</sat></trkpt>
  <trkpt lat="12.66357911" lon="78.00738062"><ele>618.417</ele><time>2026-02-23T10:10:45Z</time><speed>6.450</speed><sat>17</sat></trkpt>
  <trkpt lat="12.66359975" lon="78.00732327"><ele>618.844</ele><time>2026-02-23T10:10:46Z</time><speed>6.810</speed><sat>18</sat></trkpt>
  <trkpt lat="12.66362566" lon="78.00727152"><ele>619.536</ele><time>2026-02-23T10:10:47Z</time><speed>6.780</speed><sat>14</sat></trkpt>
  <trkpt lat="12.66365282" lon="78.00721830"><ele>619.034</ele><time>2026-02-23T10:10:48Z</time><speed>6.900</speed><sat>19</sat></trkpt>
  <trkpt lat="12.66367258" lon="78.00715747"><ele>619.701</ele><time>2026-02-23T10:10:49Z</time><speed>6.950</speed><sat>15</sat></trkpt>
  <trkpt lat="12.66369992" lon="78.00709813"><ele>619.664</ele><time>2026-02-23T10:10:50Z</time><speed>6.910</speed><sat>19</sat></trkpt>
  <trkpt lat="12.66372515" lon="78.00703542"><ele>619.897</ele><time>2026-02-23T10:10:51Z</time><speed>6.990</speed><sat>18</sat></trkpt>
  <trkpt lat="12.66375435" lon="78.00697179"><ele>620.127</ele><time>2026-02-23T10:10:52Z</time><speed>6.930</speed><sat>19</sat></trkpt>
  <trkpt lat="12.66378071" lon="78.00691276"><ele>620.514</ele><time>2026-02-23T10:10:53Z</time><speed>7.130</speed><sat>16</sat></trkpt>
  <trkpt lat="12.66380436" lon="78.00685406"><ele>620.976</ele><time>2026-02-23T10:10:54Z</time><speed>6.520</speed><sat>18</sat></trkpt>
  <trkpt lat="12.66382757" lon="78.00679323"><ele>621.573</ele><time>2026-02-23T10:10:55Z</time><speed>6.870</speed><sat>19</sat></trkpt>
  <trkpt lat="12.66384910" lon="78.00673476"><ele>621.740</ele><time>2026-02-23T10:10:56Z</time><speed>7.110</speed><sat>19</sat></trkpt>
  <trkpt lat="12.66387263" lon="78.00667463"><ele>621.516</ele><time>2026-02-23T10:10:57Z</time><speed>6.970</speed><sat>19</sat></trkpt>
  <trkpt lat="12.66390160" lon="78.00661428"><ele>621.964</ele><time>2026-02-23T10:10:58Z</time><speed>6.980</speed><sat>21</sat></trkpt>
  <trkpt lat="12.66392328" lon="78.00655267"><ele>622.066</ele><time>2026-02-23T10:10:59Z</time><speed>6.970</speed><sat>20</sat></trkpt>
  <trkpt lat="12.66394966" lon="78.00648711"><ele>622.152</ele><time>2026-02-23T10:11:00Z</time><speed>6.610</speed><sat>21</sat></trkpt>
  <trkpt lat="12.66396911" lon="78.00643341"><ele>623.096</ele><time>2026-02-23T10:11:01Z</time><speed>6.260</speed><sat>23</sat></trkpt>
  <trkpt lat="12.66399939" lon="78.00637618"><ele>622.465</ele><time>2026-02-23T10:11:02Z</time><speed>5.980</speed><sat>21</sat></trkpt>
  <trkpt lat="12.66402704" lon="78.00632165"><ele>622.134</ele><time>2026-02-23T10:11:03Z</time><speed>5.300</speed><sat>22</sat></trkpt>
  <trkpt lat="12.66404836" lon="78.00628071"><ele>622.256</ele><time>2026-02-23T10:11:04Z</time><speed>4.880</speed><sat>18</sat></trkpt>
  <trkpt lat="12.66406583" lon="78.00623378"><ele>622.450</ele><time>2026-02-23T10:11:05Z</time><speed>5.050</speed><sat>23</sat></trkpt>
  <trkpt lat="12.66408596" lon="78.00618296"><ele>623.361</ele><time>2026-02-23T10:11:06Z</time><speed>5.230</speed><sat>22</sat></trkpt>
  <trkpt lat="12.66409929" lon="78.00613484"><ele>623.252</ele><time>2026-02-23T10:11:07Z</time><speed>5.170</speed><sat>23</sat></trkpt>
  <trkpt lat="12.66412251" lon="78.00609424"><ele>623.090</ele><time>2026-02-23T10:11:08Z</time><speed>4.870</speed><sat>22</sat></trkpt>
  <trkpt lat="12.66414124" lon="78.00605232"><ele>623.667</ele><time>2026-02-23T10:11:09Z</time><speed>4.620</speed><sat>24</sat></trkpt>
  <trkpt lat="12.66416363" lon="78.00600998"><ele>623.368</ele><time>2026-02-23T10:11:10Z</time><speed>5.050</speed><sat>25</sat></trkpt>
  <trkpt lat="12.66418140" lon="78.00597002"><ele>624.156</ele><time>2026-02-23T10:11:11Z</time><speed>4.810</speed><sat>24</sat></trkpt>
  <trkpt lat="12.66420152" lon="78.00593098"><ele>624.398</ele><time>2026-02-23T10:11:12Z</time><speed>4.990</speed><sat>24</sat></trkpt>
  <trkpt lat="12.66421760" lon="78.00589081"><ele>624.477</ele><time>2026-02-23T10:11:13Z</time><speed>4.780</speed><sat>21</sat></trkpt>
  <trkpt lat="12.66422960" lon="78.00585129"><ele>623.303</ele><time>2026-02-23T10:11:14Z</time><speed>4.830</speed><sat>24</sat></trkpt>
  <trkpt lat="12.66425522" lon="78.00581584"><ele>623.005</ele><time>2026-02-23T10:11:15Z</time><speed>5.230</speed><sat>25</sat></trkpt>
  <trkpt lat="12.66427393" lon="78.00577088"><ele>623.426</ele><time>2026-02-23T10:11:16Z</time><speed>5.390</speed><sat>24</sat></trkpt>
  <trkpt lat="12.66429847" lon="78.00572770"><ele>623.920</ele><time>2026-02-23T10:11:17Z</time><speed>5.840</speed><sat>23</sat></trkpt>
  <trkpt lat="12.66431382" lon="78.00567865"><ele>624.428</ele><time>2026-02-23T10:11:18Z</time><speed>5.960</speed><sat>26</sat></trkpt>
  <trkpt lat="12.66433155" lon="78.00562479"><ele>625.075</ele><time>2026-02-23T10:11:19Z</time><speed>6.530</speed><sat>26</sat></trkpt>
  <trkpt lat="12.66436356" lon="78.00556484"><ele>625.094</ele><time>2026-02-23T10:11:20Z</time><speed>6.890</speed><sat>21</sat></trkpt>
  <trkpt lat="12.66438389" lon="78.00550340"><ele>625.742</ele><time>2026-02-23T10:11:21Z</time><speed>7.260</speed><sat>25</sat></trkpt>
  <trkpt lat="12.66440490" lon="78.00544197"><ele>626.012</ele><time>2026-02-23T10:11:22Z</time><speed>7.530</speed><sat>21</sat></trkpt>
  <trkpt lat="12.66442769" lon="78.00536996"><ele>625.804</ele><time>2026-02-23T10:11:23Z</time><speed>7.830</speed><sat>25</sat></trkpt>
  <trkpt lat="12.66445275" lon="78.00530506"><ele>626.864</ele><time>2026-02-23T10:11:24Z</time><speed>7.950</speed><sat>24</sat></trkpt>
  <trkpt lat="12.66447002" lon="78.00523444"><ele>627.160</ele><time>2026-02-23T10:11:25Z</time><speed>8.040</speed><sat>24</sat></trkpt>
  <trkpt lat="12.66449808" lon="78.00516300"><ele>627.062</ele><time>2026-02-23T10:11:26Z</time><speed>8.690</speed><sat>25</sat></trkpt>
  <trkpt lat="12.66451958" lon="78.00508759"><ele>627.913</ele><time>2026-02-23T10:11:27Z</time><speed>8.390</speed><sat>25</sat></trkpt>
  <trkpt lat="12.66454800" lon="78.00501857"><ele>627.934</ele><time>2026-02-23T10:11:28Z</time><speed>7.900</speed><sat>27</sat></trkpt>
  <trkpt lat="12.66457499" lon="78.00495433"><ele>628.196</ele><time>2026-02-23T10:11:29Z</time><speed>8.040</speed><sat>26</sat></trkpt>
  <trkpt lat="12.66460433" lon="78.00488634"><ele>628.096</ele><time>2026-02-23T10:11:30Z</time><speed>8.130</speed><sat>22</sat></trkpt>
  <trkpt lat="12.66462239" lon="78.00481940"><ele>628.284</ele><time>2026-02-23T10:11:31Z</time><speed>7.450</speed><sat>24</sat></trkpt>
  <trkpt lat="12.66463917" lon="78.00476256"><ele>628.292</ele><time>2026-02-23T10:11:32Z</time><speed>4.870</speed><sat>26</sat></trkpt>
  <trkpt lat="12.66465584" lon="78.00472582"><ele>628.424</ele><time>2026-02-23T10:11:33Z</time><speed>3.920</speed><sat>27</sat></trkpt>
  <trkpt lat="12.66466740" lon="78.00469400"><ele>628.605</ele><time>2026-02-23T10:11:34Z</time><speed>3.860</speed><sat>26</sat></trkpt>
  <trkpt lat="12.66468670" lon="78.00465463"><ele>628.432</ele><time>2026-02-23T10:11:35Z</time><speed>4.380</speed><sat>22</sat></trkpt>
  <trkpt lat="12.66470420" lon="78.00461118"><ele>628.549</ele><time>2026-02-23T10:11:36Z</time><speed>5.290</speed><sat>27</sat></trkpt>
  <trkpt lat="12.66473019" lon="78.00455885"><ele>628.363</ele><time>2026-02-23T10:11:37Z</time><speed>5.830</speed><sat>26</sat></trkpt>
  <trkpt lat="12.66474912" lon="78.00451299"><ele>627.982</ele><time>2026-02-23T10:11:38Z</time><speed>6.230</speed><sat>22</sat></trkpt>
  <trkpt lat="12.66476827" lon="78.00445981"><ele>627.906</ele><time>2026-02-23T10:11:39Z</time><speed>6.600</speed><sat>26</sat></trkpt>
  <trkpt lat="12.66479067" lon="78.00440324"><ele>628.229</ele><time>2026-02-23T10:11:40Z</time><speed>6.900</speed><sat>24</sat></trkpt>
  <trkpt lat="12.66481151" lon="78.00434649"><ele>628.731</ele><time>2026-02-23T10:11:41Z</time><speed>6.640</speed><sat>25</sat></trkpt>
  <trkpt lat="12.66482744" lon="78.00429109"><ele>628.619</ele><time>2026-02-23T10:11:42Z</time><speed>6.470</speed><sat>24</sat></trkpt>
  <trkpt lat="12.66484972" lon="78.00424478"><ele>628.225</ele><time>2026-02-23T10:11:43Z</time><speed>5.260</speed><sat>21</sat></trkpt>
  <trkpt lat="12.66486462" lon="78.00420773"><ele>628.265</ele><time>2026-02-23T10:11:44Z</time><speed>4.440</speed><sat>26</sat></trkpt>
  <trkpt lat="12.66488400" lon="78.00417053"><ele>628.457</ele><time>2026-02-23T10:11:45Z</time><speed>4.360</speed><sat>27</sat></trkpt>
  <trkpt lat="12.66489388" lon="78.00413217"><ele>628.564</ele><time>2026-02-23T10:11:46Z</time><speed>4.270</speed><sat>25</sat></trkpt>
  <trkpt lat="12.66490513" lon="78.00409555"><ele>628.837</ele><time>2026-02-23T10:11:47Z</time><speed>4.560</speed><sat>25</sat></trkpt>
  <trkpt lat="12.66492105" lon="78.00405368"><ele>628.656</ele><time>2026-02-23T10:11:48Z</time><speed>4.600</speed><sat>25</sat></trkpt>
  <trkpt lat="12.66494122" lon="78.00401672"><ele>629.868</ele><time>2026-02-23T10:11:49Z</time><speed>4.770</speed><sat>25</sat></trkpt>
  <trkpt lat="12.66496162" lon="78.00397159"><ele>630.008</ele><time>2026-02-23T10:11:50Z</time><speed>5.400</speed><sat>22</sat></trkpt>
  <trkpt lat="12.66498074" lon="78.00392485"><ele>629.726</ele><time>2026-02-23T10:11:51Z</time><speed>6.020</speed><sat>26</sat></trkpt>
  <trkpt lat="12.66501053" lon="78.00386905"><ele>629.020</ele><time>2026-02-23T10:11:52Z</time><speed>6.680</speed><sat>20</sat></trkpt>
  <trkpt lat="12.66503105" lon="78.00381068"><ele>628.747</ele><time>2026-02-23T10:11:53Z</time><speed>7.200</speed><sat>25</sat></trkpt>
  <trkpt lat="12.66505835" lon="78.00375157"><ele>628.309</ele><time>2026-02-23T10:11:54Z</time><speed>7.490</speed><sat>23</sat></trkpt>
  <trkpt lat="12.66508253" lon="78.00368230"><ele>627.852</ele><time>2026-02-23T10:11:55Z</time><speed>7.900</speed><sat>23</sat></trkpt>
  <trkpt lat="12.66511240" lon="78.00361209"><ele>627.218</ele><time>2026-02-23T10:11:56Z</time><speed>8.230</speed><sat>22</sat></trkpt>
  <trkpt lat="12.66514175" lon="78.00354293"><ele>626.391</ele><time>2026-02-23T10:11:57Z</time><speed>8.290</speed><sat>26</sat></trkpt>
  <trkpt lat="12.66517201" lon="78.00347266"><ele>626.172</ele><time>2026-02-23T10:11:58Z</time><speed>8.660</speed><sat>22</sat></trkpt>
  <trkpt lat="12.66520831" lon="78.00340513"><ele>625.990</ele><time>2026-02-23T10:11:59Z</time><speed>8.660</speed><sat>21</sat></trkpt>
  <trkpt lat="12.66524433" lon="78.00332908"><ele>625.858</ele><time>2026-02-23T10:12:00Z</time><speed>9.760</speed><sat>22</sat></trkpt>
  <trkpt lat="12.66527927" lon="78.00324533"><ele>625.768</ele><time>2026-02-23T10:12:01Z</time><speed>10.240</speed><sat>21</sat></trkpt>
  <trkpt lat="12.66531739" lon="78.00316038"><ele>625.521</ele><time>2026-02-23T10:12:02Z</time><speed>10.420</speed><sat>22</sat></trkpt>
  <trkpt lat="12.66535407" lon="78.00307353"><ele>624.517</ele><time>2026-02-23T10:12:03Z</time><speed>10.430</speed><sat>26</sat></trkpt>
  <trkpt lat="12.66539271" lon="78.00298545"><ele>623.823</ele><time>2026-02-23T10:12:04Z</time><speed>10.180</speed><sat>23</sat></trkpt>
  <trkpt lat="12.66542355" lon="78.00289493"><ele>623.898</ele><time>2026-02-23T10:12:05Z</time><speed>10.040</speed><sat>25</sat></trkpt>
  <trkpt lat="12.66545292" lon="78.00280550"><ele>623.838</ele><time>2026-02-23T10:12:06Z</time><speed>10.020</speed><sat>25</sat></trkpt>
  <trkpt lat="12.66548112" lon="78.00272130"><ele>622.853</ele><time>2026-02-23T10:12:07Z</time><speed>9.920</speed><sat>26</sat></trkpt>
  <trkpt lat="12.66550612" lon="78.00263729"><ele>622.016</ele><time>2026-02-23T10:12:08Z</time><speed>9.790</speed><sat>24</sat></trkpt>
  <trkpt lat="12.66554017" lon="78.00254998"><ele>621.100</ele><time>2026-02-23T10:12:09Z</time><speed>9.760</speed><sat>25</sat></trkpt>
  <trkpt lat="12.66557207" lon="78.00246357"><ele>620.354</ele><time>2026-02-23T10:12:10Z</time><speed>9.880</speed><sat>25</sat></trkpt>
  <trkpt lat="12.66559943" lon="78.00237648"><ele>619.991</ele><time>2026-02-23T10:12:11Z</time><speed>10.120</speed><sat>24</sat></trkpt>
  <trkpt lat="12.66562701" lon="78.00228528"><ele>619.047</ele><time>2026-02-23T10:12:12Z</time><speed>10.370</speed><sat>22</sat></trkpt>
  <trkpt lat="12.66565373" lon="78.00219197"><ele>618.632</ele><time>2026-02-23T10:12:13Z</time><speed>10.520</speed><sat>21</sat></trkpt>
  <trkpt lat="12.66568116" lon="78.00209462"><ele>618.675</ele><time>2026-02-23T10:12:14Z</time><speed>10.620</speed><sat>23</sat></trkpt>
  <trkpt lat="12.66570413" lon="78.00199808"><ele>618.623</ele><time>2026-02-23T10:12:15Z</time><speed>10.610</speed><sat>19</sat></trkpt>
  <trkpt lat="12.66572106" lon="78.00189833"><ele>618.252</ele><time>2026-02-23T10:12:16Z</time><speed>10.680</speed><sat>26</sat></trkpt>
  <trkpt lat="12.66573931" lon="78.00180250"><ele>618.501</ele><time>2026-02-23T10:12:17Z</time><speed>10.570</speed><sat>26</sat></trkpt>
  <trkpt lat="12.66576296" lon="78.00170638"><ele>617.986</ele><time>2026-02-23T10:12:18Z</time><speed>10.620</speed><sat>24</sat></trkpt>
  <trkpt lat="12.66577937" lon="78.00161461"><ele>617.753</ele><time>2026-02-23T10:12:19Z</time><speed>10.370</speed><sat>19</sat></trkpt>
  <trkpt lat="12.66579860" lon="78.00152199"><ele>618.012</ele><time>2026-02-23T10:12:20Z</time><speed>10.440</speed><sat>24</sat></trkpt>
  <trkpt lat="12.66581548" lon="78.00142782"><ele>617.685</ele><time>2026-02-23T10:12:21Z</time><speed>10.050</speed><sat>23</sat></trkpt>
  <trkpt lat="12.66583427" lon="78.00133677"><ele>617.361</ele><time>2026-02-23T10:12:22Z</time><speed>9.650</speed><sat>23</sat></trkpt>
  <trkpt lat="12.66585165" lon="78.00125372"><ele>617.672</ele><time>2026-02-23T10:12:23Z</time><speed>9.450</speed><sat>24</sat></trkpt>
  <trkpt lat="12.66587117" lon="78.00116936"><ele>616.442</ele><time>2026-02-23T10:12:24Z</time><speed>9.620</speed><sat>24</sat></trkpt>
  <trkpt lat="12.66588832" lon="78.00108336"><ele>616.712</ele><time>2026-02-23T10:12:25Z</time><speed>9.490</speed><sat>23</sat></trkpt>
  <trkpt lat="12.66590291" lon="78.00099895"><ele>617.282</ele><time>2026-02-23T10:12:26Z</time><speed>9.300</speed><sat>26</sat></trkpt>
  <trkpt lat="12.66591485" lon="78.00091711"><ele>616.914</ele><time>2026-02-23T10:12:27Z</time><speed>8.890</speed><sat>24</sat></trkpt>
  <trkpt lat="12.66593074" lon="78.00083631"><ele>616.832</ele><time>2026-02-23T10:12:28Z</time><speed>8.990</speed><sat>22</sat></trkpt>
  <trkpt lat="12.66595252" lon="78.00076129"><ele>616.685</ele><time>2026-02-23T10:12:29Z</time><speed>9.050</speed><sat>24</sat></trkpt>
  <trkpt lat="12.66596814" lon="78.00068427"><ele>616.844</ele><time>2026-02-23T10:12:30Z</time><speed>9.070</speed><sat>23</sat></trkpt>
  <trkpt lat="12.66598027" lon="78.00060566"><ele>617.603</ele><time>2026-02-23T10:12:31Z</time><speed>9.000</speed><sat>25</sat></trkpt>
  <trkpt lat="12.66599322" lon="78.00052244"><ele>617.547</ele><time>2026-02-23T10:12:32Z</time><speed>8.790</speed><sat>21</sat></trkpt>
  <trkpt lat="12.66600183" lon="78.00043867"><ele>617.530</ele><time>2026-02-23T10:12:33Z</time><speed>8.830</speed><sat>25</sat></trkpt>
  <trkpt lat="12.66601412" lon="78.00035982"><ele>617.673</ele><time>2026-02-23T10:12:34Z</time><speed>8.640</speed><sat>21</sat></trkpt>
  <trkpt lat="12.66602363" lon="78.00029267"><ele>617.681</ele><time>2026-02-23T10:12:35Z</time><speed>7.460</speed><sat>25</sat></trkpt>
  <trkpt lat="12.66603466" lon="78.00022671"><ele>617.659</ele><time>2026-02-23T10:12:36Z</time><speed>7.050</speed><sat>20</sat></trkpt>
  <trkpt lat="12.66605098" lon="78.00015925"><ele>617.545</ele><time>2026-02-23T10:12:37Z</time><speed>7.180</speed><sat>20</sat></trkpt>
  <trkpt lat="12.66607161" lon="78.00009271"><ele>616.897</ele><time>2026-02-23T10:12:38Z</time><speed>7.520</speed><sat>22</sat></trkpt>
  <trkpt lat="12.66607760" lon="78.00001981"><ele>616.871</ele><time>2026-02-23T10:12:39Z</time><speed>7.780</speed><sat>25</sat></trkpt>
  <trkpt lat="12.66609793" lon="77.99996115"><ele>616.845</ele><time>2026-02-23T10:12:40Z</time><speed>7.570</speed><sat>20</sat></trkpt>
  <trkpt lat="12.66610851" lon="77.99989762"><ele>617.265</ele><time>2026-02-23T10:12:41Z</time><speed>7.790</speed><sat>26</sat></trkpt>
  <trkpt lat="12.66611520" lon="77.99982720"><ele>616.528</ele><time>2026-02-23T10:12:42Z</time><speed>8.250</speed><sat>27</sat></trkpt>
  <trkpt lat="12.66612525" lon="77.99975584"><ele>615.852</ele><time>2026-02-23T10:12:43Z</time><speed>8.880</speed><sat>22</sat></trkpt>
  <trkpt lat="12.66613793" lon="77.99967623"><ele>615.196</ele><time>2026-02-23T10:12:44Z</time><speed>8.530</speed><sat>25</sat></trkpt>
  <trkpt lat="12.66614463" lon="77.99959220"><ele>615.800</ele><time>2026-02-23T10:12:45Z</time><speed>8.500</speed><sat>24</sat></trkpt>
  <trkpt lat="12.66615337" lon="77.99951228"><ele>616.350</ele><time>2026-02-23T10:12:46Z</time><speed>8.480</speed><sat>24</sat></trkpt>
  <trkpt lat="12.66616919" lon="77.99942761"><ele>615.160</ele><time>2026-02-23T10:12:47Z</time><speed>8.780</speed><sat>22</sat></trkpt>
  <trkpt lat="12.66618282" lon="77.99934127"><ele>614.745</ele><time>2026-02-23T10:12:48Z</time><speed>8.680</speed><sat>24</sat></trkpt>
  <trkpt lat="12.66619634" lon="77.99925105"><ele>615.263</ele><time>2026-02-23T10:12:49Z</time><speed>8.420</speed><sat>25</sat></trkpt>
  <trkpt lat="12.66620900" lon="77.99917784"><ele>615.165</ele><time>2026-02-23T10:12:50Z</time><speed>6.130</speed><sat>24</sat></trkpt>
  <trkpt lat="12.66622137" lon="77.99910383"><ele>615.259</ele><time>2026-02-23T10:12:51Z</time><speed>8.450</speed><sat>23</sat></trkpt>
  <trkpt lat="12.66623247" lon="77.99902410"><ele>614.505</ele><time>2026-02-23T10:12:52Z</time><speed>8.090</speed><sat>21</sat></trkpt>
  <trkpt lat="12.66624856" lon="77.99895394"><ele>615.014</ele><time>2026-02-23T10:12:53Z</time><speed>8.110</speed><sat>19</sat></trkpt>
  <trkpt lat="12.66626006" lon="77.99887828"><ele>614.696</ele><time>2026-02-23T10:12:54Z</time><speed>7.860</speed><sat>20</sat></trkpt>
  <trkpt lat="12.66627639" lon="77.99881765"><ele>614.814</ele><time>2026-02-23T10:12:55Z</time><speed>7.500</speed><sat>25</sat></trkpt>
  <trkpt lat="12.66628935" lon="77.99874965"><ele>614.200</ele><time>2026-02-23T10:12:56Z</time><speed>7.410</speed><sat>25</sat></trkpt>
  <trkpt lat="12.66629946" lon="77.99868286"><ele>614.444</ele><time>2026-02-23T10:12:57Z</time><speed>7.120</speed><sat>25</sat></trkpt>
  <trkpt lat="12.66631126" lon="77.99861513"><ele>615.105</ele><time>2026-02-23T10:12:58Z</time><speed>7.040</speed><sat>24</sat></trkpt>
  <trkpt lat="12.66632289" lon="77.99855375"><ele>615.467</ele><time>2026-02-23T10:12:59Z</time><speed>7.090</speed><sat>24</sat></trkpt>
  <trkpt lat="12.66633943" lon="77.99849081"><ele>615.914</ele><time>2026-02-23T10:13:00Z</time><speed>6.970</speed><sat>24</sat></trkpt>
  <trkpt lat="12.66632480" lon="77.99842379"><ele>621.379</ele><time>2026-02-23T10:13:01Z</time><speed>6.710</speed><sat>23</sat></trkpt>
  <trkpt lat="12.66634746" lon="77.99836050"><ele>619.249</ele><time>2026-02-23T10:13:02Z</time><speed>5.880</speed><sat>24</sat></trkpt>
  <trkpt lat="12.66636268" lon="77.99831268"><ele>619.014</ele><time>2026-02-23T10:13:03Z</time><speed>5.080</speed><sat>18</sat></trkpt>
  <trkpt lat="12.66637350" lon="77.99827264"><ele>619.422</ele><time>2026-02-23T10:13:04Z</time><speed>4.050</speed><sat>21</sat></trkpt>
  <trkpt lat="12.66636228" lon="77.99823663"><ele>622.958</ele><time>2026-02-23T10:13:05Z</time><speed>2.870</speed><sat>21</sat></trkpt>
  <trkpt lat="12.66637138" lon="77.99822281"><ele>624.027</ele><time>2026-02-23T10:13:06Z</time><speed>2.040</speed><sat>22</sat></trkpt>
  <trkpt lat="12.66638027" lon="77.99820736"><ele>623.940</ele><time>2026-02-23T10:13:07Z</time><speed>2.240</speed><sat>22</sat></trkpt>
  <trkpt lat="12.66639068" lon="77.99818535"><ele>623.698</ele><time>2026-02-23T10:13:08Z</time><speed>3.720</speed><sat>23</sat></trkpt>
  <trkpt lat="12.66639963" lon="77.99814799"><ele>623.193</ele><time>2026-02-23T10:13:09Z</time><speed>4.550</speed><sat>24</sat></trkpt>
  <trkpt lat="12.66641229" lon="77.99809618"><ele>621.627</ele><time>2026-02-23T10:13:10Z</time><speed>5.480</speed><sat>25</sat></trkpt>
  <trkpt lat="12.66642480" lon="77.99804729"><ele>620.956</ele><time>2026-02-23T10:13:11Z</time><speed>5.990</speed><sat>23</sat></trkpt>
  <trkpt lat="12.66643739" lon="77.99798959"><ele>621.246</ele><time>2026-02-23T10:13:12Z</time><speed>6.760</speed><sat>25</sat></trkpt>
  <trkpt lat="12.66645362" lon="77.99792722"><ele>621.776</ele><time>2026-02-23T10:13:13Z</time><speed>7.540</speed><sat>24</sat></trkpt>
  <trkpt lat="12.66646456" lon="77.99786098"><ele>621.965</ele><time>2026-02-23T10:13:14Z</time><speed>7.600</speed><sat>25</sat></trkpt>
  <trkpt lat="12.66647959" lon="77.99779027"><ele>621.118</ele><time>2026-02-23T10:13:15Z</time><speed>7.120</speed><sat>27</sat></trkpt>
  <trkpt lat="12.66649511" lon="77.99772455"><ele>621.064</ele><time>2026-02-23T10:13:16Z</time><speed>7.520</speed><sat>24</sat></trkpt>
  <trkpt lat="12.66650831" lon="77.99765447"><ele>620.854</ele><time>2026-02-23T10:13:17Z</time><speed>7.920</speed><sat>25</sat></trkpt>
  <trkpt lat="12.66652431" lon="77.99757943"><ele>620.543</ele><time>2026-02-23T10:13:18Z</time><speed>8.200</speed><sat>26</sat></trkpt>
  <trkpt lat="12.66654020" lon="77.99750631"><ele>621.472</ele><time>2026-02-23T10:13:19Z</time><speed>8.680</speed><sat>25</sat></trkpt>
  <trkpt lat="12.66655139" lon="77.99743101"><ele>621.403</ele><time>2026-02-23T10:13:20Z</time><speed>8.880</speed><sat>24</sat></trkpt>
  <trkpt lat="12.66656683" lon="77.99734952"><ele>620.976</ele><time>2026-02-23T10:13:21Z</time><speed>9.050</speed><sat>26</sat></trkpt>
  <trkpt lat="12.66657851" lon="77.99726435"><ele>620.363</ele><time>2026-02-23T10:13:22Z</time><speed>9.270</speed><sat>28</sat></trkpt>
  <trkpt lat="12.66659578" lon="77.99717546"><ele>620.305</ele><time>2026-02-23T10:13:23Z</time><speed>9.250</speed><sat>23</sat></trkpt>
  <trkpt lat="12.66661477" lon="77.99709362"><ele>619.184</ele><time>2026-02-23T10:13:24Z</time><speed>9.200</speed><sat>27</sat></trkpt>
  <trkpt lat="12.66663044" lon="77.99701670"><ele>619.446</ele><time>2026-02-23T10:13:25Z</time><speed>9.400</speed><sat>26</sat></trkpt>
  <trkpt lat="12.66665407" lon="77.99693698"><ele>620.317</ele><time>2026-02-23T10:13:26Z</time><speed>9.610</speed><sat>25</sat></trkpt>
  <trkpt lat="12.66666445" lon="77.99684859"><ele>621.004</ele><time>2026-02-23T10:13:27Z</time><speed>10.010</speed><sat>24</sat></trkpt>
  <trkpt lat="12.66667745" lon="77.99675324"><ele>621.008</ele><time>2026-02-23T10:13:28Z</time><speed>10.110</speed><sat>28</sat></trkpt>
  <trkpt lat="12.66668800" lon="77.99666551"><ele>621.417</ele><time>2026-02-23T10:13:29Z</time><speed>10.150</speed><sat>22</sat></trkpt>
  <trkpt lat="12.66670227" lon="77.99656650"><ele>621.846</ele><time>2026-02-23T10:13:30Z</time><speed>10.200</speed><sat>26</sat></trkpt>
  <trkpt lat="12.66671780" lon="77.99646178"><ele>621.123</ele><time>2026-02-23T10:13:31Z</time><speed>10.290</speed><sat>25</sat></trkpt>
  <trkpt lat="12.66673443" lon="77.99635705"><ele>620.881</ele><time>2026-02-23T10:13:32Z</time><speed>10.180</speed><sat>26</sat></trkpt>
  <trkpt lat="12.66674457" lon="77.99626675"><ele>620.774</ele><time>2026-02-23T10:13:33Z</time><speed>10.040</speed><sat>26</sat></trkpt>
  <trkpt lat="12.66675873" lon="77.99617743"><ele>621.484</ele><time>2026-02-23T10:13:34Z</time><speed>9.970</speed><sat>24</sat></trkpt>
  <trkpt lat="12.66677729" lon="77.99608986"><ele>622.497</ele><time>2026-02-23T10:13:35Z</time><speed>9.810</speed><sat>23</sat></trkpt>
  <trkpt lat="12.66679358" lon="77.99600299"><ele>622.589</ele><time>2026-02-23T10:13:36Z</time><speed>9.610</speed><sat>25</sat></trkpt>
  <trkpt lat="12.66680680" lon="77.99591820"><ele>623.012</ele><time>2026-02-23T10:13:37Z</time><speed>9.320</speed><sat>24</sat></trkpt>
  <trkpt lat="12.66682025" lon="77.99583322"><ele>623.536</ele><time>2026-02-23T10:13:38Z</time><speed>9.240</speed><sat>25</sat></trkpt>
  <trkpt lat="12.66683303" lon="77.99575147"><ele>623.981</ele><time>2026-02-23T10:13:39Z</time><speed>8.630</speed><sat>25</sat></trkpt>
  <trkpt lat="12.66684258" lon="77.99568299"><ele>623.964</ele><time>2026-02-23T10:13:40Z</time><speed>8.040</speed><sat>23</sat></trkpt>
  <trkpt lat="12.66685798" lon="77.99561916"><ele>625.088</ele><time>2026-02-23T10:13:41Z</time><speed>6.880</speed><sat>21</sat></trkpt>
  <trkpt lat="12.66687506" lon="77.99556364"><ele>625.505</ele><time>2026-02-23T10:13:42Z</time><speed>5.600</speed><sat>25</sat></trkpt>
  <trkpt lat="12.66688673" lon="77.99551365"><ele>626.376</ele><time>2026-02-23T10:13:43Z</time><speed>4.740</speed><sat>22</sat></trkpt>
  <trkpt lat="12.66690108" lon="77.99547491"><ele>626.856</ele><time>2026-02-23T10:13:44Z</time><speed>4.100</speed><sat>23</sat></trkpt>
  <trkpt lat="12.66690954" lon="77.99544002"><ele>627.463</ele><time>2026-02-23T10:13:45Z</time><speed>3.520</speed><sat>18</sat></trkpt>
  <trkpt lat="12.66691432" lon="77.99541303"><ele>628.228</ele><time>2026-02-23T10:13:46Z</time><speed>2.370</speed><sat>25</sat></trkpt>
 </trkseg>
</trk>

</gpx>
 